DataType=double
version=3
OpenSimVersion=4.5.2-2025-05-03-6a4c6ec41
endheader
time	q	/jointset/head_joint/q/speed
0	-0.7853981633974483	0
0.01027456941222398	-0.7819056645427461	0.7308505968115894
0.02	-0.77095562796646	1.44868618787365
0.02247360058962344	-0.7531348757998252	2.10566064357208
0.03146932077795003	-0.7290447349919363	2.696271773240972
0.03681754145014372	-0.6995859729177989	3.16503291851186
0.04047133447635397	-0.6660553832325987	3.518867430341323
0.04490894288855586	-0.6294320612848329	3.79110766837781
0.04948145927475807	-0.5904292320566257	4.001222588863684
0.05540013740117841	-0.5496194685912044	4.157072720983143
0.05863685792201678	-0.5074835848494245	4.267569443022615
0.06178170521852608	-0.464439168668177	4.338972534119339
0.06753338953885435	-0.4208505571747072	4.375821270844001
0.07077906397879265	-0.3770364857930023	4.382422217642076
0.07650297970270158	-0.3332751499677307	4.362741717978826
0.07930468971535581	-0.2898080470880335	4.320893446626924
0.08206746756476585	-0.24684210626567	4.262506946564457
0.08564000888483214	-0.2045538977909092	4.188419481736793
0.09018390173849694	-0.163093172556429	4.099612462479368
0.09471858996030413	-0.1225853617695885	4.000285850026233
0.09809641131930322	-0.08313460059965841	3.89158915472756
0.1006979398232881	-0.04482145501633651	3.774274628645892
0.1038166201333103	-0.007711757882661673	3.651483979588536
0.1084316407975533	0.02814869944441337	3.525877408624384
0.1129360957969285	0.06272723075517349	3.396639579259366
0.1160833363928517	0.09600383922574238	3.265877549702022
0.12	0.1279704804365747	3.13475365666657
0.1220790546681023	0.1586298727886618	3.002937110039835
0.1262179111461027	0.1879936242553305	2.874134612842885
0.131247580306012	0.2160768115387502	2.748498241646105
0.1338086055894359	0.2429083063037136	2.623624203946185
0.1388758918363381	0.2685129800009362	2.50227295874972
0.1404438068892439	0.292927786591949	2.386436819428136
0.1439633338034882	0.3161904196456443	2.274508206025662
0.1490696536462063	0.3383397732884439	2.165597546428546
0.1516363137543116	0.3594178148401031	2.059588845131197
0.1567889033699451	0.3794696918251029	1.957303239943252
0.1593815178333908	0.3985409661955709	1.860856089409372
0.1619849165444307	0.4166712923252822	1.771676768912926
0.1672221379866366	0.4339110932483657	1.678256498880005
0.1698630556433076	0.4503068791166294	1.597292105511013
0.1751811482828841	0.4659007104957659	1.512304940850886
0.177864876423376	0.4807287420804808	1.443542422347814
0.1805655579300928	0.4948418977305127	1.379679993722526
0.1860143478430059	0.5082687866117733	1.312259087946058
0.188770242241095	0.5210486178706903	1.249279755153508
0.1943358860225781	0.5332255907210924	1.189043881810612
0.1971537366059441	0.5448428390348965	1.129542268128241
0.2	0.5559413636995061	1.075087648968521
0.2057425483468951	0.5665372805119352	1.032265558513404
0.2086582919468959	0.5766556675464513	0.9900201089624852
0.2145655719842954	0.5863323567933202	0.9475216255602843
0.2175665868355605	0.5956062130359617	0.9044494297422663
0.2205942023462436	0.6044994513024432	0.8741789138975139
0.2248407463431515	0.6130126620482137	0.8383036039603139
0.2298784184726458	0.621194463518311	0.8014199491371086
0.2344466224899223	0.6290822142963939	0.7654013708594751
0.2394872366257559	0.6366518563669827	0.7479264562752174
0.2427676650918576	0.6439364050692917	0.7163836756271543
0.2460954684077036	0.6509833589923856	0.6876674285553246
0.2528764006895585	0.6577655916470513	0.6679537931508071
0.256342815224824	0.6643283701540424	0.6443204357383682
0.26	0.6706517693981641	0.625206910835915
0.2636150537074213	0.6768064434790273	0.6002383340567734
0.2707156189219654	0.6827340135384284	0.5958882420972872
0.2744545482914225	0.6884900526493255	0.5570250526824966
0.28	0.6940825218588086	0.5618809078498453
0.2833877424702419	0.6994555764982362	0.5172132340530868
0.2900504628235311	0.7047435632330897	0.5321011459318378
0.2941299708158532	0.7097849911745633	0.4881372683178483
0.3	0.7147585135876405	0.5016196004355794
0.3034579780868674	0.7195360256275295	0.4591695952839278
0.3112595474275737	0.7241863264168836	0.466915912885366
0.3157735512221428	0.7287421815494436	0.4323963123684929
0.3203789114050015	0.733084740305611	0.4340362579391632
0.3250963315103196	0.7373831448909155	0.4244355500075794
0.3341985026548243	0.7414910033293237	0.4053466318978852
0.3399277142911135	0.7454875555680517	0.3933475568951608
0.3446346249399068	0.7493751285748055	0.388261529669345
0.3504574500947342	0.7531527318072245	0.3679543030760112
0.3559383068738489	0.7567463699192563	0.3511731570594781
0.3615712023911726	0.7602721996755066	0.3597692024180719
0.3673739109675405	0.7637152621412493	0.3309760947351119
0.376591465140063	0.7669241700930993	0.3118068061221726
0.38	0.7700012291057406	0.3182209541003879
0.3874819551393112	0.7731645508376136	0.3009380365021351
0.398503874292683	0.7760468114832271	0.2774246452841418
0.4	0.7787372814788676	0.2614117780884583
0.4096655293982719	0.7813186531102194	0.2691198692256196
0.42	0.7839813469201706	0.2521685423063436
0.4211103149708666	0.7863920550968524	0.2316328296826112
0.4324449489994283	0.7886350902190431	0.2176209634599872
0.44	0.7907529455240935	0.206222885912951
0.4456790192950362	0.7927633576686794	0.1959936426541667
0.4559028002480561	0.794423122143624	0.1453884230851409
0.463841976828092	0.7959755156693337	0.1615404921528593
0.4735602021107747	0.7976025336452509	0.1623429995774436
0.4801386761343284	0.7992038370396036	0.157389151290228
0.4925854627129471	0.8007440734106113	0.150491961792579
0.5	0.8022119504516589	0.1430494964154689
0.5055943692200351	0.8036049798176466	0.1355707068515649
0.5182265358063516	0.8047529165311914	0.0860251430714906
0.5297657880638923	0.8054266192294303	0.05291391418771772
0.54	0.8058637745702431	0.03609154740606677
0.5450119528828037	0.8061683456643793	0.02542958544726088
0.558901057629386	0.8063802252665563	0.01719613680091798
0.5712143133334671	0.8065156797200869	0.01001221961151782
0.58	0.8064010088122737	-0.03981614552199966
0.5878444091672602	0.8058238536731773	-0.07150318584309903
0.6029624238390467	0.8050224257119798	-0.0872414972567979
0.6186450065053437	0.8040984839778175	-0.09695380525910201
0.6202727427163379	0.8032525323011419	-0.06301532089957906
0.6386210852259704	0.8027442977468956	-0.04277489310448158
0.6518043613121169	0.8022399776576503	-0.07316453517887291
0.66	0.8013259939997059	-0.1052430260224705
0.6787708129200651	0.8001900134707034	-0.1203154833984608
0.6880834784905314	0.7989403048189064	-0.1290029168272309
0.7008289692291335	0.797517025220033	-0.1692567344149502
0.72	0.7956175882698296	-0.2055253337903205
0.7287418696268149	0.7934703398649507	-0.2220210515542864
0.7499225703514046	0.7912931624620118	-0.2151938666451672
0.76	0.7890510973664648	-0.2313439231714956
0.7775954223387378	0.7866903718387626	-0.2400741417999694
0.8	0.7841572102421167	-0.2800804826240657
0.8079386725971653	0.7811578733890328	-0.3077615696813688
0.8361433315616071	0.7782587864936579	-0.2822488304472662
0.8419017060894984	0.7752178166986251	-0.3211338525116746
0.8762830346232053	0.7719088339223211	-0.3384669740612834
0.8814079243482438	0.768375658923976	-0.357993791655262
0.92	0.7648053547193991	-0.3568372567564373
0.9382145644841626	0.7610677838297211	-0.3998914240519062
0.96	0.7570051674608718	-0.3947460696089718
1	0.7529880938477151	-0.4196063394742454
1.02	0.7486727728165414	-0.4405755061550881
1.06	0.7442115997338342	-0.4504367405989944
1.08	0.7396718198030398	-0.4642792530392968
1.102251881330571	0.7348094109386292	-0.4859462419594743
1.123716965376807	0.7299665286123829	-0.5002944312246296
1.16	0.7247982884013902	-0.5172224777922541
1.18	0.719598105053652	-0.5326659029317282
1.196080161671674	0.7141733277963648	-0.5551480352719673
1.22	0.708608060340802	-0.557510574116187
1.238247348643082	0.7028653754067824	-0.5912341140847897
1.248621708037555	0.6970311660672109	-0.591012266452389
1.271258130373201	0.6909403544700101	-0.6086332618104857
1.28	0.6847948352590352	-0.6283876926294296
1.3	0.6784378225944976	-0.6411064057334066
1.311916521509486	0.671977544046708	-0.655379694749605
1.330508751093379	0.6653092215486565	-0.6641374366258569
1.34	0.6585183505386784	-0.6949694772607716
1.354834517890522	0.6516250495075827	-0.7019790478419792
1.365109781987681	0.6445313282086688	-0.7089725747074832
1.38	0.6373154814768545	-0.7305981333720268
1.397014355332941	0.6299642039225033	-0.7392803444917461
1.4	0.622452937667661	-0.7557317487296566
1.41793922570129	0.6148364175043866	-0.7810843016843251
1.426834770391207	0.6070904877927308	-0.7839480220463022
1.44	0.5991787830866392	-0.7905889825715281
1.454557487344455	0.5911386538102573	-0.8060883400850496
1.46	0.5829947958128259	-0.8214579216210068
1.471746105423234	0.5747083394950505	-0.8304910652825729
1.481773464193668	0.5662885211424645	-0.844181560357219
1.494725286685654	0.5577563510375343	-0.8631371029508116
1.504199032536903	0.5491237942563291	-0.8791925984499864
1.519667364586911	0.5403641597288924	-0.8847102001769881
1.52	0.5314774435602883	-0.8932128220812227
1.534697508335049	0.5224757550284232	-0.9050420332169733
1.544097199751952	0.5133695644756704	-0.9201493775427454
1.555916700056751	0.5041651290459047	-0.9349835633382814
1.563533481401131	0.4948526288661507	-0.9403457221017715
1.577443722546555	0.4854283014017557	-0.9469076774278575
1.58	0.4758990675743342	-0.9552000124995492
1.591065269890191	0.466270756883078	-0.9651352601316663
1.601496125707343	0.45654816272969	-0.9765505619080477
1.612518044860707	0.4467351137007053	-0.98906828914891
1.62	0.4368342894951349	-1.001609881420409
1.630305869302745	0.4268464548383575	-1.011193117358383
1.64	0.4167699773576704	-1.017107607474331
1.644825347213394	0.4066071507904149	-1.023369344710351
1.655365375060099	0.396361621774114	-1.029838724731216
1.66580149734519	0.3860366961742689	-1.036372160073054
1.676139453286419	0.3756354254790102	-1.042832307333158
1.68	0.3651607150516145	-1.049085602906754
1.691523111112229	0.3546155434036	-1.054982671563609
1.7	0.3440030050415855	-1.060394663526484
1.706616413986459	0.3333262277732869	-1.065225159106438
1.716612257529779	0.3225881745866965	-1.070236010977674
1.72630588160946	0.3117900011751878	-1.077709458478991
1.736384946292605	0.3009326377692159	-1.085783127188356
1.74	0.2900181500851799	-1.09340544582349
1.748860345019118	0.2790491449056534	-1.100157471380353
1.759959898191966	0.2680285206285089	-1.105870115577154
1.765553377510107	0.2569594297703696	-1.110482176227336
1.775159253656871	0.245845201442506	-1.11399536176303
1.781847715524092	0.2346892105158948	-1.116444264802176
1.7926519300942	0.2234947965932955	-1.117880539867445
1.8	0.212265070844825	-1.119293440912711
1.803669870488428	0.2010001757634456	-1.124161475309498
1.814012360935068	0.1897001957920338	-1.129519844693337
1.822449528715116	0.1783675741022815	-1.13405033469543
1.831779097832425	0.1670054658327495	-1.137449514533896
1.84	0.1556171787992901	-1.139705288970132
1.845469178287889	0.1442060527051953	-1.140884987760951
1.855816269489197	0.1327754054462491	-1.141082809459155
1.86	0.1213284625669734	-1.140400085196615
1.868752419693998	0.1098681120552883	-1.140039016395853
1.877920945331916	0.09839421997635342	-1.143169746163297
1.886511410969085	0.08690707333102604	-1.146769896889127
1.896183379866699	0.07540917478980391	-1.149666747755272
1.9	0.06390358155974318	-1.151618022208898
1.906722683992905	0.05239337872357782	-1.15264244284828
1.916757294681163	0.04088153778279598	-1.152826728981338
1.923421082451718	0.0293708861486271	-1.152269827105137
1.932466610461159	0.01786410875403783	-1.151067059444198
1.94	0.00636375884820529	-1.149305967297703
1.946611819690993	-0.005127782557693021	-1.147548389275866
1.956491564897169	-0.0166095128628409	-1.148215886001914
1.96	-0.02808045861096902	-1.149168371592983
1.968530679222069	-0.03953821052267702	-1.149164912061093
1.977526399410409	-0.05098001662177153	-1.148237393953479
1.985956817350904	-0.06240315960345495	-1.146536351909776
1.995506176052069	-0.07380503055766853	-1.144217689997106
2	-0.08518313413435764	-1.141414451541927
2.005479250782217	-0.09653507298947646	-1.138233855454519
2.015208168493624	-0.1078585273513014	-1.134760851399338
2.022473600589636	-0.1191512347575512	-1.131062428435005
2.031469320777962	-0.1304109714549859	-1.127191099174141
2.04	-0.141635535692906	-1.123187465378847
2.044287331576989	-0.1528227331553381	-1.119081766053529
2.053952293038683	-0.1639703645015447	-1.114894727280555
2.06	-0.1750762153720438	-1.110637721901594
2.067533389538883	-0.1861380494624585	-1.106312191305687
2.076578917548326	-0.1971536055424892	-1.101908320786691
2.082893874185284	-0.2081206000082763	-1.097402645240486
2.092530082270889	-0.2190367373136499	-1.092754162573657
2.1	-0.2298997319125294	-1.087898198557172
2.103816620133332	-0.2407073474854462	-1.082736539536424
2.112936095796963	-0.2514574618672238	-1.077122033516146
2.121432369964753	-0.2621481697865297	-1.070835924970556
2.131070390278557	-0.2727779303241619	-1.063569907182816
2.14	-0.2833456971238018	-1.055022267169736
2.140713297036959	-0.2938504315498974	-1.045901885132774
2.150362522431533	-0.304287121546912	-1.040382147440637
2.16	-0.3146499791163644	-1.034656195858452
2.168220902167594	-0.3249370208094166	-1.027902845647761
2.177550471284907	-0.3351473854407904	-1.019642074994585
2.18	-0.3452819802951959	-1.009188577638201
2.189055395442821	-0.3553443988070094	-0.9958849747549051
2.198762001778323	-0.36533789972542	-0.9850466852430655
2.205785427837911	-0.3752421743995574	-0.9838598293052359
2.215288011129734	-0.3850469191060357	-0.9813521840576962
2.22	-0.3947545465034035	-0.9754882524287712
2.227993536248482	-0.4043784567501787	-0.9590089940648335
2.237781362670029	-0.4139319438527335	-0.9471044573435587
2.244108761528528	-0.4233765707476015	-0.9406669243668059
2.253830430308644	-0.4327158495040512	-0.9293483760424327
2.26	-0.4419750399733103	-0.9108930933205378
2.267305925775981	-0.4511419050059187	-0.912293009621205
2.277208350605424	-0.4601612523507109	-0.9098842936876312
2.283387742470246	-0.4690859072916158	-0.8848537219689673
2.293383586013585	-0.4779502010028758	-0.8739252030245234
2.3	-0.4866670264213511	-0.8685588781172884
2.307130166433927	-0.495276726304206	-0.8513716646429342
2.317183643500323	-0.5037810864442447	-0.8503484186201224
2.323860546713602	-0.5121312890905143	-0.832737299734449
2.334198502654833	-0.5204358280037396	-0.8120507285178552
2.34	-0.528569275760836	-0.8166929851212432
2.347618611281734	-0.5365690480978713	-0.7888831847494068
2.357864243130748	-0.5444839556433405	-0.7847736841826131
2.365824732877415	-0.5522449007405408	-0.7616505647066878
2.376591465140095	-0.5599034506352654	-0.7694638735843351
2.38	-0.5673693258939129	-0.7353570076000308
2.388944015078833	-0.5748061136906115	-0.7332346945681473
2.399428732173006	-0.5820040024197672	-0.7148390612376699
2.40966552939827	-0.5891289921626577	-0.7069345925056492
2.42	-0.5961264441461802	-0.6788798960061887
2.420975943305261	-0.6028933203804521	-0.6858692747727905
2.432444948999435	-0.6096469339857719	-0.6552768194836679
2.442099194734473	-0.6161153546193635	-0.6524514528764455
2.452974082504642	-0.6225491397680059	-0.636167470203287
2.46	-0.6288429126066378	-0.6097014914434901
2.467916459223551	-0.6348084939755324	-0.6041178260881227
2.48	-0.6408731876493867	-0.5915139383394222
2.486175206421267	-0.6466431096941684	-0.5668928575332197
2.497451486678408	-0.6521915451218946	-0.5454615337529888
2.505274713314404	-0.6576882642283176	-0.5531238864450607
2.518226535806368	-0.663137672872668	-0.5229616750842785
2.520346499711314	-0.6682084893295884	-0.4960303800214093
2.531973656586898	-0.6730954806583879	-0.4820538844365455
2.543736649641458	-0.6779270590518311	-0.4843912797429603
2.555654112445555	-0.6827787861572454	-0.4788764880202898
2.56	-0.6873127193715676	-0.4350044695304626
2.573165229608812	-0.6915748946732653	-0.4202986049534753
2.58	-0.6956375117918792	-0.3804882223360469
2.592419596643609	-0.6992768556661135	-0.3596411174327335
2.602985644667077	-0.7030885127679263	-0.3975578240434788
2.617820919493188	-0.7070050057396554	-0.3736955100290434
2.62	-0.7106293894599518	-0.3547740150649474
2.634890218012359	-0.7141453740058974	-0.3497609364536038
2.644137789400434	-0.7175074135792499	-0.3116512516975255
2.65769607919542	-0.720468944289428	-0.2854148819203298
2.669491248906668	-0.7232751299210147	-0.2775904481655178
2.68	-0.7260429098197821	-0.2766303904086095
2.688083478490538	-0.728590192550822	-0.2313334820844344
2.700050995573697	-0.7307828084549907	-0.2109771860095432
2.714922773513041	-0.732857031276378	-0.2052763262439854
2.728741869626827	-0.7349060115021507	-0.2050513690145701
2.74	-0.7367835968992649	-0.1637357801862157
2.751378291962492	-0.7381766733619819	-0.105741630936625
2.762038215313458	-0.7390175530789113	-0.06884072838826398
2.778876356664125	-0.7396334199060284	-0.05670872427474975
2.79618644111576	-0.7401814613311921	-0.05378957711698763
2.803919838328381	-0.7407204481804569	-0.05434928584868199
2.82	-0.7411671175436277	-0.02155351605148289
2.836143331561629	-0.7412168830443656	0.006612425785415051
2.853692730282987	-0.7410971276076805	0.01548708896530019
2.875303500038514	-0.7409303159866033	0.01718066316784384
2.88	-0.7406613595443196	0.05019653232679433
2.9	-0.7399889226577252	0.07918743197547304
2.923395478079354	-0.7391413023106571	0.08844309426198929
2.94	-0.7382055415620387	0.1123087920764649
2.96	-0.736887989333266	0.1316368048545051
2.982943308785236	-0.7357328584083256	0.1034902496517125
3.02	-0.7346644879806864	0.1255288369079952
3.04	-0.7332630817594741	0.1503262588554184
3.061785435515877	-0.7317102442294916	0.1636388043420108
3.08	-0.7297875860575719	0.2133342801976535
3.12	-0.7275503678061259	0.2309096207509568
3.14	-0.7250606547734181	0.2551216974878273
3.163856668438415	-0.722573300824462	0.2438265464703752
3.196080161671702	-0.7200038771364776	0.2795476166055115
3.206652170173028	-0.7170730589235743	0.3025502056058497
3.223834300797107	-0.713866454848337	0.3304736680757123
3.248621708037602	-0.710626540999878	0.3190127367074942
3.271258130373218	-0.7072276711356862	0.3613841858383866
3.28	-0.7035002303155214	0.3820365494356986
3.3	-0.6996489309540732	0.3869188282983361
3.316070513343902	-0.6957130855774406	0.4149366409737875
3.330508751093382	-0.6913974975804338	0.42851633513721
3.348195638687893	-0.6870731360959202	0.4453544564364001
3.36	-0.6825247690071996	0.4740162867937996
3.376327861709798	-0.6777217286997046	0.4745568760132277
3.3813549934947	-0.6728565753698217	0.5080565830089359
3.4	-0.6677210931860271	0.5137361052973327
3.412155590832756	-0.6624829928553385	0.5308819414127617
3.423955734140822	-0.6569935288415468	0.554228402433196
3.44	-0.6514458093657549	0.5717873614762278
3.445083986115676	-0.6456225037910347	0.5782509471301384
3.46	-0.6397044296280113	0.601975215144988
3.468536339235119	-0.6335667175351561	0.6176472812021057
3.481773464193674	-0.6273334441600176	0.6441420728854945
3.494725286685663	-0.6208951772517046	0.6440242245052408
3.501332981501131	-0.6142848035538261	0.6667791312114008
3.518360767683563	-0.6075599531973013	0.679286200589544
3.52	-0.6006385977285772	0.6970604553585906
3.534770631679437	-0.5936161426047337	0.7225244192073417
3.544097199751955	-0.5864238317240876	0.7252510975077955
3.555916700056745	-0.5790587268932574	0.7389027158392649
3.5658591326795	-0.5715853486485825	0.7563175145898483
3.579024056694755	-0.5639463453653785	0.7625002149847797
3.580731052166017	-0.5561533797322709	0.7801736255808963
3.595177915431209	-0.5482516796040333	0.8059443030074791
3.601496125707342	-0.5402229810174267	0.8128382376248545
3.612518044860749	-0.5320374324925521	0.823004539424629
3.6230115851523	-0.5237224072170191	0.8397918702061207
3.634175267122664	-0.515301081937089	0.8598476278849758
3.64	-0.506752328591897	0.8646896785692374
3.649662878192856	-0.4980648607705826	0.8727850627003088
3.66	-0.4892547090829097	0.8850997996564448
3.665801497345231	-0.4803357313656332	0.9016448363766606
3.67613945328642	-0.4713147170503214	0.9159131708524572
3.686384614806025	-0.4621755068665216	0.9213794886386539
3.696542021913193	-0.4529184561882936	0.9290714359650811
3.700082758076215	-0.4435521049054775	0.9389604149014178
3.712185413508132	-0.4340835002035661	0.950956743195102
3.72	-0.4245183148167363	0.9647149854009306
3.726533770882753	-0.4148603272489216	0.9786519144749791
3.736384946292622	-0.4051087320701008	0.987166411248292
3.746169569691403	-0.3952599345641945	0.9932275057107997
3.755891238471527	-0.3853178680641057	0.999857985626851
3.76	-0.375286910379466	1.006905670182408
3.770402486232805	-0.3651709002703447	1.014218758147073
3.78	-0.3549734015333485	1.02162076517623
3.7847119888703	-0.3446979606014474	1.028898668584601
3.79421457216212	-0.3343480911054147	1.035871069536056
3.803669870488442	-0.3239271555947951	1.042382181320294
3.813080638708372	-0.3134381961466229	1.049120957906542
3.82	-0.3028823336290718	1.058283905069652
3.825573612790283	-0.2922603921150715	1.067915436175088
3.836316993423122	-0.2815743277902102	1.07685087914887
3.841071816556394	-0.2708268673412486	1.084596489247288
3.850330075715447	-0.2600212456348933	1.091001452328565
3.859556193110776	-0.2491609039313292	1.096088739121607
3.868077051384023	-0.238249325588456	1.099967817166213
3.877920945331916	-0.2272899576270453	1.102782720582789
3.88	-0.2162861719305522	1.10469816547917
3.888913514065138	-0.2052410908088599	1.106753422024212
3.899235702675381	-0.1941548644619142	1.112399453414395
3.905281410039739	-0.1830277358035282	1.118634735451481
3.914359991115201	-0.1718624705838777	1.124106440078784
3.92	-0.1606626033030831	1.128437657733718
3.92987078793297	-0.149431790086765	1.131514870249056
3.939987748317809	-0.1381736093487065	1.133350822214424
3.941498472519653	-0.1268915033959559	1.134002323916192
3.950518540725291	-0.1155887640446972	1.133551443404825
3.96	-0.1042683298306577	1.133198451710694
3.968530679222078	-0.0929301222048458	1.136125003821676
3.977526399410398	-0.08157450446821324	1.139322424708299
3.98006807468988	-0.07020413902218051	1.141632389071015
3.989998996957429	-0.05882233877028417	1.142835451641059
3.999899828962444	-0.04743248139250254	1.142979449227445
4.004493823947998	-0.0360378215826973	1.142181857882901
4.013482367692205	-0.02464143694690922	1.140570698677588
4.02	-0.01324622131429405	1.138267218435213
4.029453264357705	-0.001854895096850348	1.135381359043805
4.039264033893838	0.009530033504945499	1.13249408364714
4.040471334476369	0.0209074851333158	1.132044179668748
4.049481459274784	0.03227650838247677	1.132346019529047
4.058839686327381	0.04363491941646556	1.132432911863621
4.06753338953887	0.05498013606769585	1.132017103761104
4.076578917548316	0.06630951260356356	1.131048289415775
4.08	0.07762044571085724	1.12955737453966
4.088109845987711	0.0889104013531649	1.127599939896353
4.097848152250577	0.1001769139934399	1.125235494451567
4.103816620133348	0.1114175763073886	1.122519834714784
4.112936095796967	0.1226300246964639	1.119502133262673
4.12	0.1338119251962698	1.11622432847484
4.127039956774093	0.1449609630379327	1.11272107684273
4.136770270974933	0.156074834133849	1.10901949869651
4.14044380688928	0.1671512376418589	1.10513871187408
4.149669924284629	0.1781878661671457	1.1010894680373
4.158928183443624	0.1891824056817903	1.096872642839369
4.165989608059192	0.2001325297484393	1.09247822085599
4.175745507984077	0.211035904782326	1.087883012766959
4.18	0.2218902017481602	1.083047689596121
4.186919361291672	0.2326931197357232	1.077912710477205
4.196330129511603	0.2434424270638054	1.072393171330823
4.205088980566041	0.2541360278374646	1.066373675568498
4.214901918033135	0.2647720578486736	1.059708143705955
4.22	0.2753489979420474	1.052255061648607
4.224840746343157	0.2858657018952227	1.044109823950164
4.234587385012466	0.2963206210486118	1.036976564270224
4.244108761528544	0.3067074352336869	1.035184357124098
4.253830430308698	0.3170194002688607	1.033242143441709
4.26	0.327254356538739	1.028798086179322
4.264295177268234	0.3374133195293496	1.019667213705655
4.274254316393343	0.3474985452858727	1.008069121045883
4.283387742470333	0.357513884727634	0.9934242218239043
4.293383586013583	0.3674629345580103	0.9810042132646447
4.3	0.377325831774697	0.9779570789815074
4.304334169673192	0.3870927976257601	0.9733697530149041
4.31443653088014	0.3967664165178433	0.9659882584675792
4.323860546713586	0.4063563670615279	0.9539833024734715
4.334198502654882	0.4158652418533981	0.948458021151945
4.34	0.4252628971733107	0.9403449230599389
4.345007709938065	0.434559540024886	0.9269722107922207
4.355295608740521	0.4437818906090349	0.9059609968339574
4.365637447822044	0.4529193516896187	0.9043954953339791
4.376036636315195	0.4619151332022046	0.9036712432934957
4.38	0.4707996934306501	0.8861758715063199
4.387481955139374	0.4796215144690983	0.8729232103734331
4.398503874292718	0.488302581582251	0.8644146271348476
4.407614281718108	0.4968869358921101	0.8434636952847067
4.418279757985882	0.5053699491989513	0.8493289511224804
4.42097594330532	0.5136759906248927	0.8329579865212796
4.432444948999432	0.5219449314233749	0.8090391457554217
4.44	0.5300575855894076	0.8092015724863174
4.450754474840644	0.5380378093715396	0.7906035091138887
4.46	0.5459081770964715	0.7841079890779036
4.467916459223558	0.5536393320415895	0.7567017449213544
4.48	0.5612891978551736	0.764461551621062
4.484044271177019	0.5687131319279065	0.7357148210721723
4.495344048529116	0.5761197826795416	0.7291120005913866
4.505274713314419	0.5833132529599248	0.7103548898511739
4.518226535806383	0.5903930305623685	0.7068696883344457
4.52	0.5973640284536476	0.6735466198769314
4.531463660764929	0.6041220244382376	0.6881850489199347
4.541726618402884	0.6108335329507111	0.6536879600503116
4.553674223882695	0.6172976324737341	0.6440920341178015
4.56	0.6236931240608492	0.6365196035464422
4.573165229608855	0.6299640766444667	0.6036387423162834
4.58	0.6359135890556636	0.6057362426109418
4.590494933591385	0.6419470289304132	0.587296452874227
4.602985644667106	0.6477119497891525	0.5690590238243173
4.615923754737249	0.6532199082754339	0.5417286067973909
4.62	0.6587138420251816	0.5553185535751554
4.634890218012433	0.6641252260529283	0.5191497410475737
4.642291002050042	0.6691919013196895	0.4980482228416315
4.655855403032479	0.6740472434854949	0.4758917020578729
4.66949124890666	0.6788588359732878	0.4853872839856989
4.68	0.6837072696998817	0.4699271858128182
4.688083478490558	0.6881989277543561	0.4345736908902501
4.7	0.6924764074125958	0.4232302853941921
4.713122319023379	0.6964869040180928	0.3755434062362372
4.728322699520457	0.700112120573639	0.3607587630015626
4.74	0.7039477928865292	0.4008740135396701
4.751378291962491	0.7078063616769313	0.3695276425265748
4.760250653329138	0.7114204720057328	0.3559960524727937
4.777031744133615	0.7149600761659922	0.3529344929856676
4.794367623442737	0.7182571132422069	0.3062005151904149
4.803919838328392	0.7211991751306833	0.2859793211064164
4.82	0.7240237536430891	0.2803386552130286
4.836143331561658	0.7268158260744439	0.2704818240111975
4.851835240768717	0.7292633237692616	0.2262757594789422
4.873284482520196	0.731437629856999	0.2114585130123852
4.88	0.7335284034118185	0.2077681578839922
4.9	0.7356064774998856	0.2082540537474976
4.921234223106926	0.7375162614417177	0.1638334186896571
4.94	0.738740361292026	0.09170253158688883
4.96	0.7395042886355361	0.06569899550749969
4.980607078982326	0.7401119902701049	0.05755695430963761
5.01799587354818	0.7406769642789789	0.05608396828541738
5.04	0.7412418882849185	0.0571526818631039
5.06178543551587	0.7417175700265053	0.02451930940153118
5.08	0.7417972235947569	-0.003613043938446057
5.12	0.7417074106512249	-0.01250273971560102
5.14	0.7415702821931108	-0.01423029936697693
5.163856668438443	0.7413306241920546	-0.04728805978127648
5.196080161671699	0.740687046078006	-0.07632459615936692
5.211961846066333	0.7398678166986977	-0.08562801500873445
5.223834300797098	0.7389599618929984	-0.1095428819123882
5.248621708037592	0.7376431658576633	-0.1473508887514491
5.271258130373251	0.7362677527458298	-0.117580772436537
5.28	0.7351187275731167	-0.1292700512892934
5.3	0.7337019938479835	-0.1502767966762915
5.317341179326728	0.7321576880012102	-0.162212758653372
5.330508751093371	0.7302521527792047	-0.2114207139052377
5.348195638687965	0.7280350239509898	-0.2288367329469118
5.36	0.7255272625340922	-0.2646122623510132
5.377113941953805	0.7229860404364302	-0.2461429932290465
5.38135499349468	0.7204092007109753	-0.2791617989499451
5.4	0.7174879502302522	-0.3011874136185366
5.412155590832813	0.7142740360032926	-0.3367841367652609
5.424534222217831	0.7109996844280058	-0.320276339805287
5.44	0.7075993684327863	-0.3607284685695856
5.445590768406136	0.7038788076332251	-0.3861508468570957
5.46	0.6999930876522888	-0.388353259306452
5.468536339235115	0.6960542144958662	-0.4144295945209678
5.481773464193692	0.6917336491785498	-0.4322793459027757
5.494725286685688	0.6873904931853266	-0.4458108907098827
5.50170316283385	0.6828448497354913	-0.4732235294702746
5.51870329326289	0.6780232482544911	-0.4759170923046642
5.52	0.6731547934986202	-0.5076497156688553
5.535085275360092	0.6680085341679476	-0.5156231017533364
5.54409719975199	0.6627634957106255	-0.530719018429228
5.555916700056803	0.657266690688685	-0.5561721726129785
5.56613041287841	0.6517113577109369	-0.5716936746837825
5.579024056694763	0.6458806836588985	-0.5798912985552566
5.580984812461466	0.6399567033825778	-0.6018091821261716
5.595413635884023	0.6338102482707941	-0.6188135367325659
5.601496125707374	0.6275738803777049	-0.6438375464670318
5.612518044860753	0.6211253891990473	-0.6446240674360668
5.623222110270033	0.6145131789104035	-0.6684558207166157
5.634175267122646	0.6077788999420592	-0.6794132148407407
5.64	0.6008516454055874	-0.6981449725310939
5.649849221314033	0.593826056633436	-0.7222829141944518
5.66	0.5866252862613242	-0.7255665351021248
5.665801497345273	0.5792556694999998	-0.7400255372568528
5.676139453286458	0.5717785597927507	-0.7561442648191753
5.686384614806046	0.5641322079926561	-0.7627746532959948
5.696542021913197	0.5563345606337858	-0.7810296932050742
5.70023506013405	0.5484302590496969	-0.8066753975062697
5.712330514658193	0.5403950413195051	-0.812909718490973
5.72	0.5322041964865535	-0.8234628673314801
5.726533770882794	0.523885498059686	-0.8406930034129796
5.736384946292582	0.5154611535284298	-0.8600901598995091
5.746169569691424	0.5069068260621432	-0.8647571095127622
5.755891238471541	0.4982146953930786	-0.8731079725320884
5.76	0.4894007645839803	-0.885715101564705
5.770519314537291	0.4804787696610534	-0.9024941680301963
5.78	0.4714543313153974	-0.9158330740721993
5.784711988870329	0.4623106168901956	-0.9214423984281748
5.794214572162225	0.4530495890246249	-0.9292873549782035
5.803669870488459	0.4436797112973003	-0.9393391901920909
5.813080638708353	0.4342079611574741	-0.9515019249376079
5.82	0.424639930953672	-0.9653850798575483
5.825670121203611	0.4149791832087776	-0.9791932209243961
5.836409928901283	0.4052242753845421	-0.9871395645887849
5.841071816556451	0.3953720874037907	-0.9932726534910693
5.850330075715529	0.3854268541426956	-0.9999741415584382
5.859556193110842	0.3753929130246997	-1.007091393799773
5.868161179052841	0.3652740696101675	-1.014471699748337
5.877920945331979	0.3550738786954173	-1.021933357273467
5.88	0.3447958779074093	-1.029262436003828
5.888992167374525	0.3344435644241012	-1.036277502279638
5.899311647427218	0.3240202784467511	-1.042820859681206
5.905281410039716	0.3135290393409474	-1.049577992890107
5.914359991115207	0.3029709475421412	-1.058741052482383
5.92	0.2923468107619339	-1.068349364480944
5.929939890795934	0.2816585767163916	-1.077234508307919
5.94	0.2709089842365479	-1.084907138259539
5.941498472519697	0.2601012751618337	-1.091224149830671
5.95051854072525	0.249238893661081	-1.096218275391913
5.96	0.2383253251741376	-1.100009575443879
5.968530679222072	0.2273640189463483	-1.102767555915805
5.977526399410488	0.2163583506008165	-1.10468582201425
5.980127807262606	0.2053114391206799	-1.106743394086455
5.990056985911321	0.1942234337929597	-1.112390313817542
5.999956196474194	0.1830945857384847	-1.118624528676451
6.004493823947976	0.1719276632663975	-1.124093799452002
6.01348236769225	0.1607261968323219	-1.128461202666829
6.02	0.1494938322440124	-1.131592902038715
6.029505363743972	0.1382341403187642	-1.133479023421432
6.039314866309031	0.1269505578827267	-1.134172858320223
6.040471334476383	0.1156463731669967	-1.133754814334359
6.049481459274759	0.1043245227049032	-1.133424949607708
6.058888135997152	0.09298492719751404	-1.136365562742517
6.067533389538883	0.08162795131596554	-1.139568639157246
6.076578917548356	0.07025626380739593	-1.141877455120006
6.08	0.05887318168848425	-1.143074369520981
6.088154641739184	0.04748208371587639	-1.143208779925719
6.097891831190008	0.03608622382557897	-1.142399446788844
6.10381662013332	0.02468867792375591	-1.140775300118596
6.112936095797016	0.01329233788689472	-1.13845832313749
6.12	0.001899922099635954	-1.135558944095201
6.127080627161355	-0.009486063157039284	-1.132658480291942
6.136810034688665	-0.02086454030608458	-1.132195956282232
6.140443806889274	-0.03223455957816434	-1.132485892187775
6.149669924284614	-0.04359393860924213	-1.132561696024251
6.158928183443644	-0.05494009657056163	-1.132135665814246
6.166026874309622	-0.06627038893559797	-1.131157520287575
6.175782004115093	-0.0775822134773444	-1.12965817169462
6.18	-0.08887303713293573	-1.127693196789721
6.186919361291778	-0.1001403952417869	-1.125322091874358
6.19633012951162	-0.111381881159256	-1.122600618947959
6.205123317041743	-0.1225951315565647	-1.119577901545711
6.214935578568616	-0.1337778126128297	-1.116295876115761
6.22	-0.1449276098984441	-1.112789228562363
6.224840746343174	-0.1560422204385413	-1.109085033070718
6.234619747562881	-0.1671193419962463	-1.10520264941609
6.244108761528529	-0.1781566712767834	-1.10115247772556
6.253830430308712	-0.1891518917867587	-1.096935728025648
6.26	-0.2001026791218568	-1.092542266327281
6.264325681492396	-0.2110066999814668	-1.087948934985592
6.274284235971535	-0.2218616254798009	-1.083116438237518
6.283387742470243	-0.2326651545866066	-1.077985274079994
6.293383586013682	-0.2434150550761584	-1.072470525042978
6.3	-0.2541092300235673	-1.06645679495804
6.304362459200593	-0.2647458137688259	-1.059798040528397
6.314464315721954	-0.2753232859139452	-1.052352611676264
6.323860546713616	-0.2858404991037034	-1.044215411318089
6.334198502654846	-0.2962959039329571	-1.037088995805199
6.34	-0.306683181627282	-1.035297726177716
6.345034077408875	-0.3169955963261523	-1.03333612858357
6.355321524713185	-0.3272310222046385	-1.02880514107766
6.365662912415273	-0.3373905080721849	-1.019653403716333
6.376061660143267	-0.3474762410567775	-1.008066161577028
6.38	-0.3574920676763065	-0.9934339173319626
6.387481955139382	-0.3674415816525493	-0.9810288273060164
6.398503874292734	-0.3773049159520758	-0.9779994128951035
6.40763806561258	-0.3870722864203213	-0.9734331002943947
6.418303158040416	-0.3967462709702074	-0.9660749795845962
6.420975943305306	-0.406336547070039	-0.9540828315305063
6.432444948999454	-0.415845779803283	-0.9484471420241337
6.44	-0.4252439224759164	-0.9403375100967251
6.450776826508819	-0.4345410112668298	-0.9269837736467889
6.46	-0.4437637542916394	-0.9059964364841869
6.467916459223598	-0.4529015384775611	-0.9044609613305511
6.48	-0.4618975599117474	-0.9037626389568536
6.484065775826153	-0.4707824340234377	-0.8861550799147867
6.495365333022782	-0.4796047077771761	-0.8729240651277679
6.505274713314432	-0.4882861670348063	-0.864444477102983
6.518226535806473	-0.4968708107454468	-0.8435307980658383
6.52	-0.50535399361425	-0.8494023526091243
6.531463660764921	-0.5136604466849001	-0.8329481741653174
6.541746813702006	-0.521929773916914	-0.8090593262980711
6.553694135352613	-0.5300426791990557	-0.8092657589364081
6.56	-0.5380230226374406	-0.7906272545504301
6.57316522960883	-0.5458938592699386	-0.7841071759481248
6.58	-0.5536253520267371	-0.7567401904253462
6.590514368197609	-0.5612753216263188	-0.7645450813182979
6.602985644667101	-0.5686996101131251	-0.7357049572193176
6.615942800855223	-0.5761066039020316	-0.7291437877525431
6.62	-0.5833001456818884	-0.7104401378248908
6.63489021801237	-0.5903803170681255	-0.7068640778458053
6.642309590383171	-0.597351625132751	-0.6735896734864145
6.655873970788101	-0.6041096423509824	-0.6881578122490632
6.669491248906674	-0.6108216079685304	-0.6536968868616685
6.68	-0.6172858188985638	-0.6441741967843495
6.688083478490545	-0.623681616199704	-0.6365111602634163
6.7	-0.6299528551943588	-0.6036892709297469
6.713140466826067	-0.6359024610805908	-0.6057160080817606
6.728341163087525	-0.6419362667997518	-0.587330083792673
6.74	-0.6477011823329495	-0.5690340300917739
6.751378291962533	-0.6532095996199948	-0.5417572747118252
6.760268642226181	-0.6587035048666916	-0.555293299426477
6.777050388705757	-0.6641153235513995	-0.5191796363404183
6.794385865043937	-0.6691819872452044	-0.4980248449318158
6.803919838328413	-0.6740377252136103	-0.4759424064373189
6.82	-0.6788494467819924	-0.4853730934813033
6.836143331561673	-0.6836980066640874	-0.4700086459118685
6.851853895367964	-0.6881900060682173	-0.4345729090482484
6.873304696428878	-0.6924672996595027	-0.4231989482797388
6.88	-0.6964783991727072	-0.3755828798872738
6.9	-0.7001036930642737	-0.3607437629668769
6.921255870299564	-0.7039391002372585	-0.4008393055120175
6.94	-0.7077983319657724	-0.3695609652079463
6.96	-0.71141249141767	-0.3559806247345227
6.980630480984976	-0.7149518383586123	-0.3529014511196781
7.018023862754411	-0.7182496219772196	-0.3062443711511564
7.04	-0.7211918104351395	-0.2859696282491716
7.061785435515912	-0.7240161787092008	-0.2803095616550378
7.08	-0.7268081881238275	-0.2706306841868309
7.12	-0.7292566054769853	-0.226314564916915
7.14	-0.7314310195307172	-0.2114492465662478
7.163856668438404	-0.7335215987357634	-0.2077414837738875
7.196080161671758	-0.7355993701216255	-0.208221267339317
7.211907490512705	-0.7375089540414258	-0.1640347585710699
7.223834300797092	-0.7387348531508269	-0.09179910681213217
7.248621708037614	-0.7394992675124792	-0.06571446619272378
7.271258130373268	-0.7401069459770623	-0.05754267677124984
7.28	-0.7406717100917821	-0.05605897427922372
7.3	-0.7412363608913402	-0.05712368871177186
7.317327981298701	-0.7417117453419668	-0.0244891340726628
7.330508751093366	-0.7417910958010817	0.003643390394176574
7.348195638687928	-0.7417009803043937	0.01253286526923081
7.36	-0.7415635523880098	0.01426004969262664
7.377105805065609	-0.7413235990518485	0.04731736930117801
7.381354993494664	-0.740679730187225	0.07635343286468292
7.4	-0.7398602148861451	0.08565636015685045
7.412155590832823	-0.7389520791416266	0.1095707227104056
7.424528282467945	-0.7376350072619584	0.147378215322611
7.44	-0.7362616380411663	0.1173880550864289
7.445585591707114	-0.7351137470358239	0.1292135695938297
7.46	-0.733697287141989	0.1502702755931427
7.468536339235241	-0.73215294033112	0.1622244376240206
7.481773464193731	-0.7302472501996748	0.211438899633129
7.494725286685739	-0.7280299264820086	0.2288571123936296
7.501699402921449	-0.7255222463952767	0.2645046752066531
7.518699817983302	-0.7229816631052236	0.2461138131420176
7.52	-0.7204049354133517	0.2791633826735849
7.535082091521703	-0.717483603803131	0.301200178135277
7.544097199751965	-0.7142697240578119	0.3367142997225235
7.555916700056843	-0.7109957718927384	0.3202603610923947
7.566127671392067	-0.7075954917283345	0.3607337550220465
7.579024056694852	-0.7038748456848484	0.3861231267358118
7.580982252816055	-0.6999895007460861	0.388336111504636
7.595411259200064	-0.6960506758234015	0.4144335805806362
7.601496125707325	-0.6917301521524366	0.432238199134176
7.612518044860709	-0.687387210871672	0.4458047004558336
7.623219989442582	-0.6828415507277117	0.4732308146852109
7.634175267122712	-0.6780201383915881	0.4759016186182096
7.64	-0.6731517287518456	0.5076530523841225
7.649847346790315	-0.6680055783324781	0.5156022961184187
7.66	-0.6627606218455936	0.5307198870805594
7.665801497345207	-0.6572638907696059	0.5561511276335412
7.676139453286439	-0.651708644626013	0.5716939615088816
7.686384614806093	-0.6458780454464745	0.5798735770723962
7.696542021913187	-0.6399541329232402	0.6018103133366465
7.700233530091633	-0.6338077669543359	0.6188009177551687
7.712329057022179	-0.6275714362507485	0.6438402093470281
7.72	-0.6211230497655655	0.6446174138088617
7.726533770882739	-0.6145108587685949	0.668439162493648
7.736384946292601	-0.6077766802485015	0.6794115141624247
7.746169569691422	-0.6008494859115662	0.6981334910201635
7.755891238471545	-0.5938239326695408	0.722285073176134
7.76	-0.5866232486366799	0.725563006155224
7.770518141573469	-0.5792536778819609	0.740013797041105
7.78	-0.5717766089768611	0.7561457855260219
7.784711988870296	-0.5641303319128066	0.7627716268181277
7.794214572162164	-0.5563327321575325	0.781020766878272
7.803669870488468	-0.5484284579916955	0.8066689596239233
7.81308063870837	-0.5403933075131335	0.8129088168770167
7.82	-0.5322025164169261	0.8234580438593858
7.825669152314395	-0.5238838552539185	0.8406837353421827
7.836408995782199	-0.5154595424020668	0.8600889314606832
7.841071816556504	-0.5069052716546708	0.8647563069746537
7.850330075715508	-0.4982131881277934	0.8731045891398844
7.859556193110809	-0.4893992955000766	0.8857087694273675
7.868160334115554	-0.4804773311085698	0.9024855748043157
7.87792094533194	-0.4714529282027664	0.9158338048053822
7.88	-0.4623092591702899	0.9214416894617001
7.888991377457805	-0.4530482713653189	0.9292851049381835
7.899310884621791	-0.4436784291387255	0.9393353003237508
7.905281410039723	-0.4342067106480736	0.9514963648499229
7.914359991115292	-0.4246387090795569	0.9653783051517882
7.92	-0.4149779892390011	0.9791879655391034
7.929939196448155	-0.4052231150767368	0.9871397966409636
7.94	-0.3953709611418895	0.9932721622975895
7.941498472519645	-0.3854257596702437	0.9999729368346417
7.950518540725337	-0.3753918484922809	1.007089490055477
7.96	-0.3652730335044945	1.014469127282119
7.968530679222139	-0.3550728695760122	1.021930181259068
7.977526399410536	-0.344794894447105	1.029258748204699
7.980127206840845	-0.3344426054560364	1.036273389485827
7.990056402942606	-0.3240193430325872	1.042816429173983
7.999955629736508	-0.3135281267732685	1.049573388696901
8.00449382394801	-0.302970057320765	1.058736464181198
8.013482367692262	-0.2923459425537384	1.068345035481972
8.02	-0.2816577302667384	1.077230717534859
8.029504839744092	-0.270908159169813	1.084904118453978
8.03931435500032	-0.2601004710326518	1.091222053445718
8.040471334476448	-0.2492381099931378	1.096217152961932
8.049481459274759	-0.2383245614675512	1.100009367108584
8.058887648594816	-0.2273632746684294	1.102767710407451
8.067533389538884	-0.2163576251774542	1.104685940901261
8.076578917548353	-0.2053107320456535	1.106743493164291
8.08	-0.1942227445233755	1.112390402102021
8.0881541910032	-0.1830939136835901	1.118624627969949
8.097891391650197	-0.1719270078069131	1.124093923609089
8.103816620133456	-0.1607255573793452	1.128461111931111
8.112936095796993	-0.1494932083156559	1.131592233549414
8.119999999999999	-0.1382335315172871	1.133477823393229
8.127080217790617	-0.1269499638662882	1.134171209439932
8.136809634413357	-0.1156457936296506	1.133752816214868
8.140443806889353	-0.1043239573604389	1.133422703779355
8.149669924284602	-0.09298437576689864	1.13636316421355
8.158928183443686	-0.08162741350715143	1.139566175648914
8.166026499097544	-0.07025573925575639	1.141874996866194
8.175781636634634	-0.05887266999447919	1.143071968711421
8.18	-0.04748158446850377	1.143206472435264
8.186919361291782	-0.0360857366212653	1.142397255544471
8.196330129511624	-0.02468820237535238	1.140773238160872
8.205122971251335	-0.01329187362679911	1.138456396237521
8.214935239569318	-0.001899468780162252	1.135557152785096
8.220000000000001	0.009486505864491271	1.132656821477358
8.22484074634318	0.02086497271240264	1.132194424406321
8.234619421576825	0.03223498197805022	1.132484480101999
8.244108761528631	0.04359435128269019	1.13256039560325
8.253830430308778	0.05494049978424322	1.132134468377177
8.26	0.06627078294421324	1.131156416887154
8.264325374239656	0.07758259852483715	1.129657153305509
8.274283934590706	0.08887341345394653	1.127692253958566
8.283387742470378	0.1001407630616744	1.125321215967884
8.293383586013668	0.1113822407205522	1.122599799671701
8.300000000000001	0.1225954830346652	1.119577134573764
8.304362174218635	0.1337781562337015	1.116295152391373
8.314464035817608	0.1449279458781585	1.11278853938545
8.323860546713604	0.1560425489846976	1.109084369821599
8.334198502654857	0.16711966330915	1.105202003369669
8.34	0.1781569855487048	1.101151840139061
8.345033811759045	0.1891521992033953	1.096935089966623
8.355321263602068	0.2001029798630478	1.092541618721847
8.365662655843892	0.2110069942229803	1.087948268509469
8.376061611971039	0.2218619133953528	1.083115743279052
8.380000000000001	0.2326654363509064	1.077984540742116
8.387481955139448	0.2434153308691006	1.072469743345676
8.398503874292773	0.2541095000351926	1.06645595635723
8.407637971187487	0.264745868466875	1.059799119672882
8.418303047044905	0.2753233549399982	1.052354117419811
8.420975943305359	0.2858405848862865	1.04421691954414
8.432444948999489	0.2962960063317305	1.037090341871637
8.44	0.306683299557615	1.035298873908158
8.450776673666876	0.3169957283666135	1.033337177264547
8.460000000000001	0.327231166670713	1.028806545808133
8.467916459223659	0.3373906630429508	1.019654815359149
8.48	0.3474764050995801	1.008067384994063
8.48406559211652	0.3574922395007606	0.9934349358139645
8.495365140875032	0.3674417601204162	0.9810296163080551
8.505274713314414	0.37730510008487	0.9779999410927993
8.518226535806393	0.3870724754122202	0.9734333294948597
8.52	0.3967464641992457	0.9660748780068802
8.531463660765048	0.4063367440438836	0.9540824963206296
8.541746599812928	0.4158459793832736	0.9484478530049719
8.553693918412289	0.4252441225400881	0.9403381065042827
8.56	0.4345412114792453	0.9269841103804165
8.573165229608882	0.4437639545476965	0.9059964541021596
8.58	0.4529017389500352	0.9044605840862358
8.590514142336467	0.4618977610303481	0.9037619072343942
8.602985644667097	0.4707826344718437	0.8861555923949147
8.615942572960691	0.4796049054959121	0.8729242910038932
8.619999999999999	0.4882863623073036	0.8644443253563221
8.634890218012369	0.4968710044199167	0.8435301663588147
8.642309363348527	0.5053541868545103	0.8494016137157774
8.655873742332174	0.513660636263533	0.8329484143467577
8.669491248906638	0.5219299598724827	0.8090591776673351
8.68	0.530042862960679	0.8092650466263915
8.688083478490528	0.538023205631422	0.7906270356956437
8.699999999999999	0.5458940370034622	0.7841072316807631
8.713140240452006	0.5536255259762165	0.7567397422302801
8.728340932743293	0.5612754945459034	0.7645440613969828
8.74	0.5686997787584416	0.7357050898608481
8.751378291962519	0.5761067683299836	0.7291433914189885
8.760268418523198	0.5833003091980228	0.7104390688203869
8.777050157571114	0.5903804755618373	0.7068641337828437
8.794385639823851	0.5973517796057096	0.6735891167118788
8.803919838328399	0.6041097963342202	0.6881581268182236
8.82	0.610821756012936	0.6536967469727316
8.836143331561752	0.6172859652751312	0.6441731460680605
8.851853668886729	0.623681758429117	0.6365112318864773
8.873304452751995	0.6299529935542862	0.6036886112871334
8.880000000000001	0.6359025979150466	0.6057162193792607
8.9	0.6419363987688689	0.5873296310136199
8.92125561359034	0.6477013139647121	0.5690342960382455
8.94	0.6532097252573635	0.5417568834328511
8.960000000000001	0.6587036304314781	0.555293566681293
8.980630208804588	0.6641154434545857	0.5191792325766935
9.018023540819213	0.6691821068785436	0.49802508733674
9.039999999999999	0.6740378396967135	0.4759417551757226
9.061785435515912	0.678849559309975	0.485373224551544
9.08	0.6836981173202081	0.4700076333709582
9.119999999999999	0.6881901122620702	0.434572880652605
9.140000000000001	0.6924674077003206	0.4231992850482427
9.163856668438481	0.6964784997292942	0.375582376432603
9.196080161671709	0.7001037923531828	0.3607439059077396
9.211908092016239	0.7039392023202188	0.4008396819601814
9.223834300797176	0.7077984259654104	0.369560542316032
9.248621708037625	0.7114125845275833	0.3559807747743155
9.271258130373241	0.7149519341777607	0.3529018079591834
9.279999999999999	0.718249708853411	0.3062438330363526
9.300000000000001	0.7211918955632556	0.2859697136729091
9.317328125670352	0.7240162660104703	0.2803098728818116
9.330508751093475	0.7268082759503715	0.2706289504080582
9.348195638688015	0.7292566824843872	0.2263140950703628
9.359999999999999	0.7314310950659507	0.211449330446612
9.377105893674472	0.7335216762810097	0.2077417681550918
9.381354993494719	0.7355994509249262	0.208221622134468
9.4	0.7375090370003407	0.1640324822951448
9.412155590832839	0.7387349154830909	0.09179799001067136
9.42452834697494	0.7394993240777625	0.06571427706786256
9.44	0.7401070026265905	0.05754282650459604
9.445585647871997	0.7406717689528334	0.05605924614061632
9.460000000000001	0.7412364227203124	0.05712400279001455
9.468536339235129	0.7417118103892431	0.02448946081922426
9.481773464193701	0.7417911641294613	-0.003643061984427965
9.49472528668578	0.741701051906391	-0.01253253936597334
9.501699443627871	0.7415636272291474	-0.01425972793523297
9.518699855589235	0.7413236770867389	-0.04731705238394907
9.52	0.7406798113656006	-0.07635312112574122
9.535082125959633	0.7398602991551679	-0.08565605379249976
9.544097199752075	0.7389521664468467	-0.1095704218541226
9.555916700056754	0.7376350975477696	-0.1473779200761364
9.566127701025252	0.7362617055727766	-0.1173901883624206
9.579024056694823	0.7351138019870789	-0.1292141992292266
9.580982280476515	0.73369733900876	-0.1502703537558726
9.5954112848775	0.7321529925885121	-0.1622243148314474
9.601496125707373	0.7302473041061723	-0.2114387049337881
9.612518044860769	0.7280299824798184	-0.2288568933849476
9.623220012347559	0.7255223014393118	-0.2645058603046661
9.634175267122691	0.7229817110985287	-0.246114137579671
9.640000000000001	0.7204049821312009	-0.2791633691896356
9.649847367030379	0.7174836513712598	-0.3012000421260519
9.66	0.7142697712070669	-0.3367150668915787
9.665801497345193	0.7109958146422368	-0.3202605390405305
9.676139453286421	0.7075955340538613	-0.360733700418868
9.68638461480602	0.7038748889087377	-0.3861234348260794
9.696542021913213	0.6999895398505126	-0.3883363012082833
9.700233546607706	0.6960507143755441	-0.414433539612089
9.712329072756097	0.6917301902253349	-0.4322386493467709
9.720000000000001	0.687387246585749	-0.445804769937446
9.726533770882787	0.6828415866029367	-0.4732307374015646
9.736384946292654	0.6780201721904119	-0.4759017885862794
9.746169569691423	0.6731517620430135	-0.5076530177978766
9.755891238471499	0.6680056104240676	-0.5156025234975383
9.76	0.6627606530327941	-0.5307198790529415
9.77051815423413	0.657263921140424	-0.5561513572066744
9.779999999999999	0.6517086740427991	-0.5716939595717678
9.78471198887032	0.6458780740398392	-0.5798737701870901
9.794214572162179	0.639954160772211	-0.6018103020535908
9.803669870488486	0.633807793827912	-0.6188010552985796
9.813080638708396	0.6275714627131591	-0.6438401813175302
9.82	0.6211230750865733	-0.64461748654858
9.825669162773488	0.6145108838735337	-0.6684393434992169
9.836409005855604	0.6077767042604016	-0.6794115331505031
9.841071816556468	0.6008495092664149	-0.6981336157146062
9.850330075715537	0.5938239556351521	-0.7222850503069805
9.859556193110922	0.5866232706640927	-0.7255630447285542
9.868160343237818	0.5792536994078338	-0.7400139243031105
9.877920945331955	0.5717766300582067	-0.7561457694289819
9.880000000000001	0.5641303521832099	-0.7627716598143294
9.888991385986783	0.556332751910673	-0.7810208635650163
9.899310892858351	0.5484284774461008	-0.8066690295252118
9.905281410039738	0.5403933262389593	-0.8129088268123547
9.914359991115216	0.5322025345604354	-0.8234580961166367
9.92	0.5238838729932846	-0.84068383556362
9.929939203946468	0.5154595597980103	-0.8600889450059244
9.94	0.5069052884369755	-0.8647563157430693
9.941498472519704	0.4982132044000978	-0.8731046257504003
9.950518540725309	0.4893993113592866	-0.8857088378500236
9.960000000000001	0.4804773466374705	-0.9024856676277488
9.968530679222056	0.4714529433486089	-0.9158337969604431
9.97752639941038	0.4623092738256881	-0.9214416971450438
9.980127213326076	0.4530482855879679	-0.9292851292441007
9.990056409239621	0.4436784429779941	-0.9393353423180801
9.999955635858258	0.434206724145615	-0.9514964248629012
