DataType=double
version=3
OpenSimVersion=4.5.2-2025-05-03-6a4c6ec41
endheader
time	q	/jointset/head_joint/q/speed
0	0	0
0.01	0	0.2315936255243859
0.02	0.002315936255243859	0.4560503723371236
0.03	0.006876439978615095	0.6732515658953619
0.04	0.01360895563756872	0.8830938465268479
0.05	0.0224398941028372	1.085487990090916
0.06	0.03329477400374635	1.280357192733689
0.07000000000000001	0.04609834593108324	1.467639209456124
0.08	0.06077473802564448	1.64728503020069
0.09	0.07724758832765137	1.819258200401078
0.09999999999999999	0.09544017033166213	1.661732377616034
0.11	0.1120574941078225	1.365036063601264
0.12	0.1257078547438351	1.446689579917845
0.13	0.1401747505430135	1.615425286884583
0.14	0.1563290034118594	1.313684313005009
0.15	0.1694658465419095	1.01891305081776
0.16	0.1796549770500871	0.7855254940832721
0.17	0.1875102319909198	0.7360326946827862
0.18	0.1948705589377477	0.7522566926926618
0.19	0.2023931258646743	0.7903681802501924
0.2	0.2102968076671762	0.9683103872880423
0.21	0.2199799115400566	0.6764545605287191
0.2200000000000001	0.2267444571453438	0.4959289756232966
0.2300000000000001	0.2317037469015768	0.6794778531902818
0.2400000000000001	0.2384985254334796	0.8566675976506515
0.2500000000000001	0.2470652014099861	0.564246287063112
0.2600000000000001	0.2527076642806173	0.7428110908610255
0.2700000000000001	0.2601357751892275	0.9150775233927628
0.2800000000000001	0.2692865504231552	1.080987487245532
0.2900000000000001	0.2800964252956105	1.24049686455909
0.3000000000000001	0.2925013939412014	0.9303869807106313
0.3100000000000001	0.3018052637483078	0.6280988571334795
0.3200000000000001	0.3080862523196426	0.5537373861670375
0.3300000000000001	0.313623626181313	0.2608895433212973
0.3400000000000001	0.3162325216145259	0.439485450476339
0.3500000000000001	0.3206273761192893	0.1490300478134131
0.3600000000000002	0.3221176765974235	-0.1330830571464927
0.3700000000000002	0.3207868460259585	0.05647965770483601
0.3800000000000002	0.3213516426030069	0.2403857636487799
0.3900000000000002	0.3237555002394947	0.4185455600355948
0.4000000000000002	0.3279409558398507	0.5908822425465133
0.4100000000000002	0.3338497782653158	0.2941423420803124
0.4200000000000002	0.3367912016861189	0.04400772899903865
0.4300000000000002	0.3372312789761093	0.2260893216852827
0.4400000000000002	0.3394921721929622	0.4025002320824262
0.4500000000000002	0.3435171745137864	0.1099760754690678
0.4600000000000002	0.3446169352684771	-0.1416127753794947
0.4700000000000003	0.3432008075146822	-0.1800542891665093
0.4800000000000003	0.3414002646230171	-0.1420351495606664
0.4900000000000003	0.3399799131274104	-0.07686761880473157
0.5000000000000002	0.3392112369393631	-0.003487090568409124
0.5100000000000002	0.339176366033679	0.07121953856448941
0.5200000000000002	0.3398885614193239	0.1451472451445032
0.5300000000000002	0.3413400338707689	0.21727771543292
0.5400000000000003	0.3435128110250981	0.2871453540364804
0.5500000000000003	0.346384264565463	0.3545731826631503
0.5600000000000003	0.3499299963920944	0.4195066089416691
0.5700000000000003	0.3541250624815112	0.1250263231236667
0.5800000000000003	0.3553753257127478	-0.1609532137009477
0.5900000000000003	0.3537657935757383	-0.438289362601471
0.6000000000000003	0.3493828999497236	-0.7068579011304909
0.6100000000000003	0.3423143209384187	-0.9665491695626514
0.6200000000000003	0.3326488292427922	-1.217267928169333
0.6300000000000003	0.3204761499610988	-0.995742834993569
0.6400000000000003	0.3105187216111631	-0.8278256914522959
0.6500000000000004	0.3022404646966402	-0.6152424714769213
0.6600000000000004	0.2960880399818709	-0.4080606996397781
0.6700000000000004	0.2920074329854732	-0.6695951298563254
0.6800000000000004	0.2853114816869099	-0.4593144390440371
0.6900000000000004	0.2807183372964695	-0.7177645807644069
0.7000000000000004	0.2735406914888254	-0.8976340993697859
0.7100000000000004	0.2645643504951276	-0.9079655893021851
0.7200000000000004	0.2554846946021057	-0.8576439112977321
0.7300000000000004	0.2469082554891284	-0.6364425390032873
0.7400000000000004	0.2405438300990955	-0.4208474572799382
0.7500000000000004	0.2363353555262961	-0.6741844483827658
0.7600000000000005	0.2295935110424684	-0.4559321774348064
0.7700000000000005	0.2250341892681204	-0.7066358061575677
0.7800000000000005	0.2179678312065447	-0.8911164569097985
0.7900000000000005	0.2090566666374467	-1.126757338881459
0.8000000000000005	0.1977890932486321	-0.8906795544148781
0.8100000000000005	0.1888822977044833	-0.6602677343578488
0.8200000000000005	0.1822796203609048	-0.4860895599766426
0.8300000000000005	0.1774187247611384	-0.3673517080437451
0.8400000000000005	0.173745207680701	-0.6133409009012469
0.8500000000000005	0.1676117986716885	-0.851223118097937
0.8600000000000005	0.1590995674907091	-1.080892572876466
0.8700000000000006	0.1482906417619445	-0.8390723585345393
0.8800000000000006	0.1398999181765991	-0.7217745204280352
0.8900000000000006	0.1326821729723187	-0.951441737757822
0.9000000000000006	0.1231677555947405	-1.172990003589264
0.9100000000000006	0.1114378555588478	-1.38633474587739
0.9200000000000006	0.0975745081000739	-1.591406536556658
0.9300000000000006	0.0816604427345073	-1.788148866841504
0.9400000000000006	0.06377895406609224	-1.513330453355826
0.9500000000000006	0.04864564953253397	-1.332398709122252
0.9600000000000006	0.03532166244131144	-1.066824859359879
0.9700000000000006	0.02465341384771264	-0.8074959141893068
0.9800000000000006	0.01657845470581957	-0.5829307498156679
0.9900000000000007	0.01074914720766288	-0.4618610559197381
1.000000000000001	0.006130536648465498	-0.6807854633397293
1.010000000000001	-0.0006773179849318012	-0.8922909525633071
1.020000000000001	-0.009600227510564881	-1.096285642081848
1.030000000000001	-0.02056308393138337	-1.292692866013021
1.040000000000001	-0.03349001259151359	-1.481449309764271
1.050000000000001	-0.04830450568915632	-1.662505124197369
1.060000000000001	-0.06492955693113002	-1.8358236861595
1.070000000000001	-0.08328779379272504	-1.538194542100769
1.080000000000001	-0.09866973921373273	-1.247068929951511
1.090000000000001	-0.1111404285132479	-0.9626837845669143
1.100000000000001	-0.120767266358917	-0.7192643317515004
1.110000000000001	-0.127959909676432	-0.6002130157960431
1.120000000000001	-0.1339620398343925	-0.5266593187950458
1.130000000000001	-0.139228633022343	-0.7225578842582645
1.140000000000001	-0.1464542118649256	-0.4484723262075747
1.150000000000001	-0.1509389351270014	-0.6449775324851365
1.160000000000001	-0.1573887104518527	-0.8347818441534007
1.170000000000001	-0.1657365288933867	-1.017807477135042
1.180000000000001	-0.1759146036647372	-1.193991478090245
1.190000000000001	-0.1878545184456396	-1.363283810640536
1.200000000000001	-0.201487356552045	-1.525647357021102
1.210000000000001	-0.216743830122256	-1.217870720173953
1.220000000000001	-0.2289225373239956	-0.9174029607069658
1.230000000000001	-0.2380965669310653	-0.6244651563750856
1.240000000000001	-0.2443412184948161	-0.8024426059909542
1.250000000000001	-0.2523656445547257	-0.5108657062350883
1.260000000000001	-0.2574743016170765	-0.2271400556478913
1.270000000000001	-0.2597457021735554	-0.4146259133986869
1.280000000000001	-0.2638919613075423	-0.5960152047490508
1.290000000000001	-0.2698521133550328	-0.7712303223734038
1.300000000000001	-0.2775644165787668	-0.9402073759768057
1.310000000000001	-0.2869664903385349	-1.102894433492872
1.320000000000001	-0.2979954346734637	-1.25925157363473
1.330000000000001	-0.310587950409811	-0.9460636197674064
1.340000000000001	-0.320048586607485	-0.6407755349693305
1.350000000000001	-0.3264563419571783	-0.3435861722703809
1.360000000000001	-0.3298922036798821	-0.05467094801271627
1.370000000000001	-0.3304389131600093	0.2258135726562389
1.380000000000001	-0.3281807774334469	0.4977286905995006
1.390000000000001	-0.3232034905274518	0.2977645285501705
1.400000000000001	-0.3202258452419501	0.1032744633689027
1.410000000000001	-0.3191931006082611	-0.08563299103833691
1.420000000000001	-0.3200494305186445	-0.2688610756825387
1.430000000000001	-0.3227380412754699	-0.4463234003577453
1.440000000000001	-0.3272012752790474	-0.6179444730984597
1.450000000000001	-0.3333807200100319	-0.3204722917897203
1.460000000000001	-0.3365854429279291	-0.2744952808457058
1.470000000000001	-0.3393303957363862	-0.4321272486452564
1.480000000000001	-0.3436516682228388	-0.138711960159683
1.490000000000001	-0.3450387878244356	0.1462551302878893
1.500000000000001	-0.3435762365215567	0.2754185833275891
1.510000000000001	-0.3408220506882808	0.3106828237699474
1.520000000000001	-0.3377152224505813	0.3118114581876406
1.530000000000001	-0.3345971078687049	0.118889536069649
1.540000000000001	-0.3334082125080085	-0.06851629807147469
1.550000000000001	-0.3340933754887232	-0.2503097868336789
1.560000000000001	-0.33659647335706	-0.4264059227407099
1.570000000000001	-0.3408605325844671	-0.5967301963057997
1.580000000000001	-0.3468278345475251	-0.2980316511612133
1.590000000000001	-0.3498081510591372	-0.007718618317653636
1.600000000000001	-0.3498853372423137	0.2740549209182364
1.610000000000001	-0.3471447880331314	0.5471545291328623
1.620000000000001	-0.3416732427418027	0.811461607826784
1.630000000000001	-0.3335586266635349	1.06687197817605
1.640000000000001	-0.3228899068817744	1.313294738463416
1.650000000000001	-0.3097569594971402	1.087463620029291
1.660000000000001	-0.2988823232968473	0.8667721079240293
1.670000000000001	-0.290214602217607	0.6513707564321378
1.680000000000001	-0.2837008946532856	0.4413995899987206
1.690000000000001	-0.2792868987532984	0.7001767558498784
1.700000000000001	-0.2722851311947996	0.8890360855583064
1.710000000000001	-0.2633947703392165	0.9389549430303956
1.720000000000001	-0.2540052209089125	0.9380221800092937
1.730000000000001	-0.2446249991088196	0.7141350219047755
1.740000000000001	-0.2374836488897718	0.4958228467245054
1.750000000000001	-0.2325254204225267	0.2832289504317048
1.760000000000001	-0.2296931309182097	0.07648429890415107
1.770000000000001	-0.2289282879291682	0.338897176921506
1.780000000000001	-0.2255393161599531	0.5931154694942198
1.790000000000001	-0.2196081614650109	0.8390175684821247
1.800000000000001	-0.2112179857801897	1.076497781879772
1.810000000000001	-0.2004530079613919	1.305464446541155
1.820000000000001	-0.1873983634959804	1.525838518494015
1.830000000000001	-0.1721399783110402	1.737554034663779
1.840000000000001	-0.1547644379644024	1.940556308245714
1.850000000000001	-0.1353588748819453	1.671616516029512
1.860000000000001	-0.1186427097216501	1.408165769332554
1.870000000000001	-0.1045610520283246	1.150418570321083
1.880000000000001	-0.09305686632511373	0.8985759490026857
1.890000000000001	-0.08407110683508687	0.6528273807731706
1.900000000000001	-0.07754283302735515	0.8378772833957548
1.910000000000001	-0.0691640601933976	0.5917487661004357
1.920000000000001	-0.06324657253239324	0.3519866786802102
1.930000000000001	-0.05972670574559114	0.5819410405512518
1.940000000000002	-0.05390729534007861	0.6084004196181996
1.950000000000002	-0.04782329114389661	0.8290943977627265
1.960000000000002	-0.03953234716626934	1.042101689621052
1.970000000000002	-0.02911133027005881	1.247337092261111
1.980000000000002	-0.01663795934744769	1.444729219994047
1.990000000000002	-0.00219066714750721	1.634220456276001
2.000000000000001	0.01415153741525245	1.352579022109037
2.010000000000001	0.02767732763634253	1.077234689307442
2.020000000000001	0.03844967452941672	0.8438346296875069
2.030000000000001	0.04688802082629161	0.697107962859176
2.04	0.05385910045488322	0.5832015239430535
2.05	0.05969111569431363	0.4827396676681786
2.06	0.06451851237099532	0.6907613582869161
2.07	0.07142612595386433	0.89167087707916
2.08	0.08034283472465574	1.085384001690781
2.089999999999999	0.09119667474156332	1.271831104831231
2.099999999999999	0.1039149857898753	1.450955946831793
2.109999999999999	0.118424545258193	1.622715518149194
2.119999999999999	0.1346517004396846	1.323893063855897
2.129999999999999	0.1478906310782432	1.138737179714734
2.139999999999998	0.1592780028753903	0.8505739080135937
2.149999999999998	0.1677837419555261	0.5696519324290814
2.159999999999998	0.1734802612798168	0.3382153049302425
2.169999999999998	0.1768624143291191	0.2106848016198369
2.179999999999997	0.1789692623453175	0.410145926365426
2.189999999999997	0.1830707216089716	0.6031592831360246
2.199999999999997	0.1891023144403318	0.7896355117432943
2.209999999999997	0.1969986695577645	0.9695006314229058
2.219999999999997	0.2066936758719934	1.142692897118723
2.229999999999996	0.2181206048431804	1.309163140207338
2.239999999999996	0.2312122362452535	1.468874956444969
2.249999999999996	0.2459009858097028	1.158617534359811
2.259999999999996	0.2574871611533007	0.9968579793417069
2.269999999999996	0.2674557409467176	1.074552563294692
2.279999999999995	0.2782012665796643	0.771330289962576
2.289999999999995	0.2859145694792898	0.4759439147952161
2.299999999999995	0.2906740086272419	0.1885820252646195
2.309999999999995	0.2925598288798881	0.3725990510454238
2.319999999999995	0.2962858193903422	0.5506833705536127
2.329999999999994	0.3017926530958782	0.2595720879164307
2.339999999999994	0.3043883739750425	0.4398515387628078
2.349999999999994	0.3087868893626705	0.6142156041610337
2.359999999999994	0.3149290454042807	0.3194074520520935
2.369999999999993	0.3181231199248015	0.4960189077050805
2.379999999999993	0.3230833090018522	0.2035593301912721
2.389999999999993	0.3251189023037649	0.3826129024257545
2.399999999999993	0.3289450313280223	0.555868901006504
2.409999999999993	0.3345037203380872	0.2600696693369666
2.419999999999992	0.3371044170314568	-0.02738067894126661
2.429999999999992	0.3368306102420442	0.156857922827204
2.439999999999992	0.3383991894703162	0.3354579471759124
2.449999999999992	0.3417537689420753	0.04515015941771627
2.459999999999992	0.3422052705362524	-0.2366728039352636
2.469999999999991	0.3398385424968999	-0.3712552574437566
2.479999999999991	0.3361259899224624	-0.4249079444972759
2.489999999999991	0.3318769104774897	-0.2282820971913633
2.499999999999991	0.3295940895055762	-0.03713014115730628
2.50999999999999	0.3292227880940031	0.1484449807473394
2.51999999999999	0.3307072379014765	0.3283516423796707
2.52999999999999	0.3339907543252731	0.5025089019830841
2.53999999999999	0.3390158433451039	0.6708460976985693
2.54999999999999	0.3457243043220894	0.370116615342414
2.559999999999989	0.3494254704755135	0.07773323412228889
2.569999999999989	0.3502028028167364	-0.2061456478989331
2.579999999999989	0.3481413463377471	-0.4813817558738358
2.589999999999989	0.3433275287790088	-0.28466528718424
2.599999999999989	0.3404808759071665	-0.3910307210112206
2.609999999999988	0.3365705686970544	-0.6081388703673717
2.619999999999988	0.3304891799933808	-0.8612503205106479
2.629999999999988	0.3218766767882745	-1.113587763388958
2.639999999999988	0.3107407991543851	-1.356959106195979
2.649999999999987	0.2971712080924256	-1.128100237687489
2.659999999999987	0.285890205715551	-0.9044061097242384
2.669999999999987	0.2768461446183088	-0.6860320475789901
2.679999999999987	0.269985824142519	-0.4731222831117442
2.689999999999987	0.2652546013114017	-0.2658120575222007
2.699999999999986	0.2625964807361797	-0.5274136128413645
2.709999999999986	0.2573223446077662	-0.5449820764983884
2.719999999999986	0.2518725238427824	-0.3624885819308007
2.729999999999986	0.2482476380234745	-0.1560383120322882
2.739999999999986	0.2466872549031516	0.04456105983078704
2.749999999999985	0.2471328655014595	-0.2239888374272384
2.759999999999985	0.2448929771271872	-0.4843268126664951
2.769999999999985	0.2400497090005223	-0.7363244054245737
2.779999999999985	0.2326864649462767	-0.979870079668459
2.789999999999984	0.2228877641495924	-1.214866491394958
2.799999999999984	0.210739099235643	-0.9780419526813562
2.809999999999984	0.2009586797088297	-0.9192699637214994
2.819999999999984	0.1917659800716149	-1.054892860196691
2.829999999999984	0.1812170514696482	-1.257792858648292
2.839999999999983	0.1686391228831655	-1.476883911413216
2.849999999999983	0.1538702837690337	-1.687417562198721
2.859999999999983	0.1369961081470469	-1.889338253828084
2.869999999999983	0.1181027256087664	-1.619415414326542
2.879999999999983	0.1019085714655013	-1.355079163513323
2.889999999999982	0.0883577798303684	-1.096544451424599
2.899999999999982	0.07739233531612263	-0.8440123200303469
2.909999999999982	0.06895221211581934	-0.5976710037989819
2.919999999999982	0.06297550207782965	-0.3576955656257362
2.929999999999982	0.05939854642157236	-0.5874345653633506
2.939999999999981	0.05352420076793898	-0.6180917907912483
2.949999999999981	0.04734328286002663	-0.8384313338194286
2.959999999999981	0.03895896952183252	-1.051081118657456
2.969999999999981	0.02844815833525819	-1.255956183923856
2.97999999999998	0.01588859649601989	-1.452986051516588
2.98999999999998	0.001358735980854318	-1.178926361387679
2.99999999999998	-0.01043052763302222	-0.9111942486535134
