DataType=double
version=3
OpenSimVersion=4.5.2-2025-05-03-6a4c6ec41
endheader
time	q	/jointset/head_joint/q/speed
0.01	0	0
0.02	-2.5e-05	-0.005
0.03	-9.999999999999998e-05	-0.009999999999999998
0.04	-0.000225	-0.015
0.05	-0.0004000000000000001	-0.02
0.06	-0.0006250000000000001	-0.025
0.07000000000000001	-0.0009000000000000002	-0.03
0.08	-0.001225	-0.035
0.09	-0.0016	-0.04
0.09999999999999999	-0.002025	-0.045
0.11	-0.0025	-0.05
0.12	-0.003024999999999999	-0.05499999999999999
0.13	-0.003599999999999999	-0.05999999999999999
0.14	-0.004224999999999999	-0.065
0.15	-0.004899999999999999	-0.07000000000000001
0.16	-0.005625	-0.07500000000000001
0.17	-0.0064	-0.08000000000000002
0.18	-0.007225000000000001	-0.08500000000000002
0.19	-0.008100000000000003	-0.09000000000000002
0.2	-0.009025000000000004	-0.09500000000000003
0.21	-0.01000000000000001	-0.1
0.2200000000000001	-0.01102500000000001	-0.105
0.2300000000000001	-0.01210000000000001	-0.11
0.2400000000000001	-0.01322500000000001	-0.115
0.2500000000000001	-0.01440000000000001	-0.12
0.2600000000000001	-0.01562500000000001	-0.1250000000000001
0.2700000000000001	-0.01690000000000001	-0.1300000000000001
0.2800000000000001	-0.01822500000000001	-0.1350000000000001
0.2900000000000001	-0.01960000000000001	-0.1400000000000001
0.3000000000000001	-0.02102500000000002	-0.1450000000000001
0.3100000000000001	-0.02250000000000002	-0.1500000000000001
0.3200000000000001	-0.02402500000000002	-0.1550000000000001
0.3300000000000001	-0.02560000000000002	-0.1600000000000001
0.3400000000000001	-0.02722500000000002	-0.1650000000000001
0.3500000000000001	-0.02890000000000003	-0.1700000000000001
0.3600000000000002	-0.03062500000000003	-0.1750000000000001
0.3700000000000002	-0.03240000000000003	-0.1800000000000001
0.3800000000000002	-0.03422500000000003	-0.1850000000000001
0.3900000000000002	-0.03610000000000003	-0.1900000000000001
0.4000000000000002	-0.03802500000000004	-0.1950000000000001
0.4100000000000002	-0.04000000000000004	-0.2000000000000001
0.4200000000000002	-0.04202500000000005	-0.2050000000000001
0.4300000000000002	-0.04410000000000005	-0.2100000000000001
0.4400000000000002	-0.04622500000000005	-0.2150000000000001
0.4500000000000002	-0.04840000000000005	-0.2200000000000001
0.4600000000000002	-0.05062500000000006	-0.2250000000000001
0.4700000000000003	-0.05290000000000007	-0.2300000000000001
0.4800000000000003	-0.05522500000000007	-0.2350000000000002
0.4900000000000003	-0.05760000000000007	-0.2400000000000002
0.5000000000000002	-0.06002500000000006	-0.2450000000000001
0.5100000000000002	-0.06250000000000006	-0.2500000000000001
0.5200000000000002	-0.06502500000000005	-0.2550000000000001
0.5300000000000002	-0.06760000000000006	-0.2600000000000001
0.5400000000000003	-0.07022500000000007	-0.2650000000000001
0.5500000000000003	-0.07290000000000008	-0.2700000000000001
0.5600000000000003	-0.07562500000000008	-0.2750000000000001
0.5700000000000003	-0.07840000000000008	-0.2800000000000001
0.5800000000000003	-0.08122500000000009	-0.2850000000000001
0.5900000000000003	-0.08410000000000009	-0.2900000000000001
0.6000000000000003	-0.0870250000000001	-0.2950000000000002
0.6100000000000003	-0.09000000000000011	-0.3000000000000002
0.6200000000000003	-0.09302500000000011	-0.3050000000000002
0.6300000000000003	-0.09610000000000012	-0.3100000000000002
0.6400000000000003	-0.09922500000000012	-0.3150000000000002
0.6500000000000004	-0.1024000000000001	-0.3200000000000002
0.6600000000000004	-0.1056250000000001	-0.3250000000000002
0.6700000000000004	-0.1089000000000001	-0.3300000000000002
0.6800000000000004	-0.1122250000000001	-0.3350000000000002
0.6900000000000004	-0.1156000000000001	-0.3400000000000002
0.7000000000000004	-0.1190250000000002	-0.3450000000000002
0.7100000000000004	-0.1225000000000002	-0.3500000000000002
0.7200000000000004	-0.1260250000000002	-0.3550000000000002
0.7300000000000004	-0.1296000000000002	-0.3600000000000002
0.7400000000000004	-0.1332250000000002	-0.3650000000000002
0.7500000000000004	-0.1369000000000002	-0.3700000000000002
0.7600000000000005	-0.1406250000000002	-0.3750000000000002
0.7700000000000005	-0.1444000000000002	-0.3800000000000002
0.7800000000000005	-0.1482250000000002	-0.3850000000000002
0.7900000000000005	-0.1521000000000002	-0.3900000000000002
0.8000000000000005	-0.1560250000000002	-0.3950000000000002
0.8100000000000005	-0.1600000000000002	-0.4000000000000002
0.8200000000000005	-0.1640250000000002	-0.4050000000000002
0.8300000000000005	-0.1681000000000002	-0.4100000000000003
0.8400000000000005	-0.1722250000000002	-0.4150000000000003
0.8500000000000005	-0.1764000000000003	-0.4200000000000003
0.8600000000000005	-0.1806250000000003	-0.4250000000000003
0.8700000000000006	-0.1849000000000003	-0.4300000000000003
0.8800000000000006	-0.1892250000000003	-0.4350000000000003
0.8900000000000006	-0.1936000000000003	-0.4400000000000003
0.9000000000000006	-0.1980250000000003	-0.4450000000000003
0.9100000000000006	-0.2025000000000003	-0.4500000000000003
0.9200000000000006	-0.2070250000000003	-0.4550000000000003
0.9300000000000006	-0.2116000000000003	-0.4600000000000003
0.9400000000000006	-0.2162250000000003	-0.4650000000000003
0.9500000000000006	-0.2209000000000003	-0.4700000000000003
0.9600000000000006	-0.2256250000000003	-0.4750000000000003
0.9700000000000006	-0.2304000000000003	-0.4800000000000003
0.9800000000000006	-0.2352250000000003	-0.4850000000000003
0.9900000000000007	-0.2401000000000003	-0.4900000000000003
1.000000000000001	-0.2450250000000004	-0.4950000000000003
1.010000000000001	-0.2500000000000004	-0.5000000000000003
1.020000000000001	-0.2550250000000004	-0.5050000000000003
1.030000000000001	-0.2601000000000004	-0.5100000000000003
1.040000000000001	-0.2652250000000004	-0.5150000000000003
1.050000000000001	-0.2704000000000004	-0.5200000000000004
1.060000000000001	-0.2756250000000004	-0.5250000000000004
1.070000000000001	-0.2809000000000004	-0.5300000000000004
1.080000000000001	-0.2862250000000005	-0.5350000000000004
1.090000000000001	-0.2916000000000005	-0.5400000000000004
1.100000000000001	-0.2970250000000005	-0.5450000000000004
1.110000000000001	-0.3025000000000005	-0.5500000000000004
1.120000000000001	-0.3080250000000005	-0.5550000000000004
1.130000000000001	-0.3136000000000005	-0.5600000000000004
1.140000000000001	-0.3192250000000005	-0.5650000000000004
1.150000000000001	-0.3249000000000005	-0.5700000000000004
1.160000000000001	-0.3306250000000005	-0.5750000000000004
1.170000000000001	-0.3364000000000005	-0.5800000000000004
1.180000000000001	-0.3422250000000006	-0.5850000000000004
1.190000000000001	-0.3481000000000006	-0.5900000000000004
1.200000000000001	-0.3540250000000006	-0.5950000000000004
1.210000000000001	-0.3600000000000006	-0.6000000000000004
1.220000000000001	-0.3660250000000006	-0.6050000000000004
1.230000000000001	-0.3721000000000006	-0.6100000000000004
1.240000000000001	-0.3782250000000006	-0.6150000000000004
1.250000000000001	-0.3844000000000006	-0.6200000000000004
1.260000000000001	-0.3906250000000006	-0.6250000000000004
1.270000000000001	-0.3969000000000006	-0.6300000000000004
1.280000000000001	-0.4032250000000007	-0.6350000000000005
1.290000000000001	-0.4096000000000007	-0.6400000000000005
1.300000000000001	-0.4160250000000007	-0.6450000000000005
1.310000000000001	-0.4225000000000007	-0.6500000000000005
1.320000000000001	-0.4290250000000007	-0.6550000000000005
1.330000000000001	-0.4356000000000007	-0.6600000000000005
1.340000000000001	-0.4422250000000007	-0.6650000000000005
1.350000000000001	-0.4489000000000007	-0.6700000000000005
1.360000000000001	-0.4556250000000007	-0.6750000000000005
1.370000000000001	-0.4624000000000008	-0.6800000000000005
1.380000000000001	-0.4692250000000008	-0.6850000000000005
1.390000000000001	-0.4761000000000008	-0.6900000000000005
1.400000000000001	-0.4830250000000008	-0.6950000000000005
1.410000000000001	-0.4900000000000008	-0.7000000000000005
1.420000000000001	-0.4970250000000008	-0.7050000000000005
1.430000000000001	-0.5041000000000009	-0.7100000000000005
1.440000000000001	-0.5112250000000009	-0.7150000000000005
1.450000000000001	-0.518400000000001	-0.7200000000000005
1.460000000000001	-0.525625000000001	-0.7250000000000005
1.470000000000001	-0.532900000000001	-0.7300000000000005
1.480000000000001	-0.5402250000000011	-0.7350000000000005
1.490000000000001	-0.5476000000000011	-0.7400000000000005
1.500000000000001	-0.5550250000000011	-0.7450000000000006
1.510000000000001	-0.5625000000000011	-0.7500000000000006
1.520000000000001	-0.5700250000000011	-0.7550000000000006
1.530000000000001	-0.5776000000000011	-0.7600000000000006
1.540000000000001	-0.5852250000000011	-0.7650000000000006
1.550000000000001	-0.5929000000000011	-0.7700000000000006
1.560000000000001	-0.6006250000000011	-0.7750000000000006
1.570000000000001	-0.6084000000000011	-0.7800000000000006
1.580000000000001	-0.616225000000001	-0.7850000000000006
1.590000000000001	-0.624100000000001	-0.7900000000000006
1.600000000000001	-0.6320250000000009	-0.7950000000000006
1.610000000000001	-0.640000000000001	-0.8000000000000006
1.620000000000001	-0.6480250000000011	-0.8050000000000006
1.630000000000001	-0.6561000000000011	-0.8100000000000006
1.640000000000001	-0.6642250000000012	-0.8150000000000006
1.650000000000001	-0.6724000000000012	-0.8200000000000006
1.660000000000001	-0.6806250000000013	-0.8250000000000006
1.670000000000001	-0.6889000000000013	-0.8300000000000006
1.680000000000001	-0.6972250000000013	-0.8350000000000006
1.690000000000001	-0.7056000000000013	-0.8400000000000006
1.700000000000001	-0.7140250000000014	-0.8450000000000006
1.710000000000001	-0.7225000000000014	-0.8500000000000006
1.720000000000001	-0.7310250000000014	-0.8550000000000006
1.730000000000001	-0.7396000000000014	-0.8600000000000007
1.740000000000001	-0.7482250000000014	-0.8650000000000007
1.750000000000001	-0.7569000000000013	-0.8700000000000007
1.760000000000001	-0.7656250000000013	-0.8750000000000007
1.770000000000001	-0.7744000000000013	-0.8800000000000007
1.780000000000001	-0.7832250000000013	-0.8850000000000007
1.790000000000001	-0.7921000000000012	-0.8900000000000007
1.800000000000001	-0.8010250000000012	-0.8950000000000007
1.810000000000001	-0.8100000000000013	-0.9000000000000007
1.820000000000001	-0.8190250000000013	-0.9050000000000007
1.830000000000001	-0.8281000000000014	-0.9100000000000007
1.840000000000001	-0.8372250000000014	-0.9150000000000007
1.850000000000001	-0.8464000000000015	-0.9200000000000007
1.860000000000001	-0.8556250000000015	-0.9250000000000007
1.870000000000001	-0.8649000000000016	-0.9300000000000007
1.880000000000001	-0.8742250000000016	-0.9350000000000007
1.890000000000001	-0.8836000000000016	-0.9400000000000007
1.900000000000001	-0.8930250000000016	-0.9450000000000007
1.910000000000001	-0.9025000000000016	-0.9500000000000007
1.920000000000001	-0.9120250000000016	-0.9550000000000007
1.930000000000001	-0.9216000000000016	-0.9600000000000007
1.940000000000002	-0.9312250000000016	-0.9650000000000007
1.950000000000002	-0.9409000000000016	-0.9700000000000008
1.960000000000002	-0.9506250000000016	-0.9750000000000008
1.970000000000002	-0.9604000000000016	-0.9800000000000008
1.980000000000002	-0.9702250000000016	-0.9850000000000008
1.990000000000002	-0.9801000000000015	-0.9900000000000008
2.000000000000001	-0.9900250000000014	-0.9950000000000007
2.010000000000001	-1.000000000000001	-1
2.020000000000001	-1.010025000000001	-1.005
2.030000000000001	-1.020100000000001	-1.01
2.04	-1.030225	-1.015
2.05	-1.0404	-1.02
2.06	-1.050625	-1.025
2.07	-1.0609	-1.03
2.08	-1.071224999999999	-1.035
2.089999999999999	-1.081599999999999	-1.04
2.099999999999999	-1.092024999999999	-1.044999999999999
2.109999999999999	-1.102499999999999	-1.049999999999999
2.119999999999999	-1.113024999999998	-1.054999999999999
2.129999999999999	-1.123599999999998	-1.059999999999999
2.139999999999998	-1.134224999999998	-1.064999999999999
2.149999999999998	-1.144899999999998	-1.069999999999999
2.159999999999998	-1.155624999999997	-1.074999999999999
2.169999999999998	-1.166399999999997	-1.079999999999999
2.179999999999997	-1.177224999999997	-1.084999999999999
2.189999999999997	-1.188099999999997	-1.089999999999999
2.199999999999997	-1.199024999999996	-1.094999999999998
2.209999999999997	-1.209999999999996	-1.099999999999998
2.219999999999997	-1.221024999999996	-1.104999999999998
2.229999999999996	-1.232099999999996	-1.109999999999998
2.239999999999996	-1.243224999999996	-1.114999999999998
2.249999999999996	-1.254399999999995	-1.119999999999998
2.259999999999996	-1.265624999999995	-1.124999999999998
2.269999999999996	-1.276899999999995	-1.129999999999998
2.279999999999995	-1.288224999999995	-1.134999999999998
2.289999999999995	-1.299599999999994	-1.139999999999997
2.299999999999995	-1.311024999999994	-1.144999999999997
2.309999999999995	-1.322499999999994	-1.149999999999997
2.319999999999995	-1.334024999999994	-1.154999999999997
2.329999999999994	-1.345599999999993	-1.159999999999997
2.339999999999994	-1.357224999999993	-1.164999999999997
2.349999999999994	-1.368899999999993	-1.169999999999997
2.359999999999994	-1.380624999999992	-1.174999999999997
2.369999999999993	-1.392399999999992	-1.179999999999997
2.379999999999993	-1.404224999999992	-1.184999999999997
2.389999999999993	-1.416099999999991	-1.189999999999996
2.399999999999993	-1.428024999999991	-1.194999999999996
2.409999999999993	-1.439999999999991	-1.199999999999996
2.419999999999992	-1.452024999999991	-1.204999999999996
2.429999999999992	-1.46409999999999	-1.209999999999996
2.439999999999992	-1.47622499999999	-1.214999999999996
2.449999999999992	-1.48839999999999	-1.219999999999996
2.459999999999992	-1.500624999999989	-1.224999999999996
2.469999999999991	-1.512899999999989	-1.229999999999996
2.479999999999991	-1.525224999999989	-1.234999999999995
2.489999999999991	-1.537599999999988	-1.239999999999995
2.499999999999991	-1.550024999999988	-1.244999999999995
2.50999999999999	-1.562499999999988	-1.249999999999995
2.51999999999999	-1.574974999999987	-1.244999999999995
2.52999999999999	-1.587399999999987	-1.239999999999995
2.53999999999999	-1.599774999999987	-1.234999999999995
2.54999999999999	-1.612099999999986	-1.229999999999996
2.559999999999989	-1.624374999999986	-1.224999999999996
2.569999999999989	-1.636599999999986	-1.219999999999996
2.579999999999989	-1.648774999999985	-1.214999999999996
2.589999999999989	-1.660899999999985	-1.209999999999996
2.599999999999989	-1.672974999999985	-1.204999999999996
2.609999999999988	-1.684999999999984	-1.199999999999996
2.619999999999988	-1.696974999999984	-1.194999999999996
2.629999999999988	-1.708899999999984	-1.189999999999996
2.639999999999988	-1.720774999999983	-1.184999999999997
2.649999999999987	-1.732599999999983	-1.179999999999997
2.659999999999987	-1.744374999999983	-1.174999999999997
2.669999999999987	-1.756099999999982	-1.169999999999997
2.679999999999987	-1.767774999999982	-1.164999999999997
2.689999999999987	-1.779399999999982	-1.159999999999997
2.699999999999986	-1.790974999999982	-1.154999999999997
2.709999999999986	-1.802499999999981	-1.149999999999997
2.719999999999986	-1.813974999999981	-1.144999999999997
2.729999999999986	-1.825399999999981	-1.139999999999997
2.739999999999986	-1.836774999999981	-1.134999999999998
2.749999999999985	-1.84809999999998	-1.129999999999998
2.759999999999985	-1.85937499999998	-1.124999999999998
2.769999999999985	-1.87059999999998	-1.119999999999998
2.779999999999985	-1.88177499999998	-1.114999999999998
2.789999999999984	-1.892899999999979	-1.109999999999998
2.799999999999984	-1.903974999999979	-1.104999999999998
2.809999999999984	-1.914999999999979	-1.099999999999998
2.819999999999984	-1.925974999999979	-1.094999999999998
2.829999999999984	-1.936899999999979	-1.089999999999999
2.839999999999983	-1.947774999999978	-1.084999999999999
2.849999999999983	-1.958599999999978	-1.079999999999999
2.859999999999983	-1.969374999999978	-1.074999999999999
2.869999999999983	-1.980099999999978	-1.069999999999999
2.879999999999983	-1.990774999999977	-1.064999999999999
2.889999999999982	-2.001399999999977	-1.059999999999999
2.899999999999982	-2.011974999999977	-1.054999999999999
2.909999999999982	-2.022499999999977	-1.049999999999999
2.919999999999982	-2.032974999999976	-1.044999999999999
2.929999999999982	-2.043399999999976	-1.04
2.939999999999981	-2.053774999999976	-1.035
2.949999999999981	-2.064099999999976	-1.03
2.959999999999981	-2.074374999999975	-1.025
2.969999999999981	-2.084599999999975	-1.02
2.97999999999998	-2.094774999999975	-1.015
2.98999999999998	-2.104899999999975	-1.01
2.99999999999998	-2.114974999999975	-1.005
3.00999999999998	-2.124999999999974	-1
3.01999999999998	-2.134974999999974	-0.9950000000000006
3.029999999999979	-2.144899999999974	-0.9900000000000007
3.039999999999979	-2.154774999999974	-0.9850000000000008
3.049999999999979	-2.164599999999973	-0.9800000000000009
3.059999999999979	-2.174374999999973	-0.975000000000001
3.069999999999979	-2.184099999999973	-0.9700000000000011
3.079999999999978	-2.193774999999973	-0.9650000000000012
3.089999999999978	-2.203399999999973	-0.9600000000000013
3.099999999999978	-2.212974999999973	-0.9550000000000014
3.109999999999978	-2.222499999999973	-0.9500000000000015
3.119999999999977	-2.231974999999972	-0.9450000000000016
3.129999999999977	-2.241399999999972	-0.9400000000000017
3.139999999999977	-2.250774999999972	-0.9350000000000018
3.149999999999977	-2.260099999999972	-0.9300000000000019
3.159999999999977	-2.269374999999972	-0.925000000000002
3.169999999999976	-2.278599999999972	-0.9200000000000021
3.179999999999976	-2.287774999999971	-0.9150000000000023
3.189999999999976	-2.296899999999972	-0.9100000000000024
3.199999999999976	-2.305974999999971	-0.9050000000000025
3.209999999999976	-2.314999999999971	-0.9000000000000026
3.219999999999975	-2.323974999999971	-0.8950000000000027
3.229999999999975	-2.332899999999971	-0.8900000000000028
3.239999999999975	-2.34177499999997	-0.8850000000000029
3.249999999999975	-2.35059999999997	-0.880000000000003
3.259999999999974	-2.35937499999997	-0.8750000000000031
3.269999999999974	-2.36809999999997	-0.8700000000000032
3.279999999999974	-2.37677499999997	-0.8650000000000033
3.289999999999974	-2.38539999999997	-0.8600000000000034
3.299999999999974	-2.39397499999997	-0.8550000000000035
3.309999999999973	-2.402499999999969	-0.8500000000000036
3.319999999999973	-2.410974999999969	-0.8450000000000037
3.329999999999973	-2.419399999999969	-0.8400000000000039
3.339999999999973	-2.427774999999969	-0.835000000000004
3.349999999999973	-2.436099999999969	-0.8300000000000041
3.359999999999972	-2.444374999999968	-0.8250000000000042
3.369999999999972	-2.452599999999968	-0.8200000000000043
3.379999999999972	-2.460774999999968	-0.8150000000000044
3.389999999999972	-2.468899999999968	-0.8100000000000045
3.399999999999971	-2.476974999999968	-0.8050000000000046
3.409999999999971	-2.484999999999968	-0.8000000000000047
3.419999999999971	-2.492974999999968	-0.7950000000000048
3.429999999999971	-2.500899999999968	-0.7900000000000049
3.439999999999971	-2.508774999999968	-0.785000000000005
3.44999999999997	-2.516599999999968	-0.7800000000000051
3.45999999999997	-2.524374999999968	-0.7750000000000052
3.46999999999997	-2.532099999999967	-0.7700000000000053
3.47999999999997	-2.539774999999967	-0.7650000000000055
3.48999999999997	-2.547399999999967	-0.7600000000000056
3.499999999999969	-2.554974999999967	-0.7550000000000057
3.509999999999969	-2.562499999999967	-0.7500000000000058
3.519999999999969	-2.569974999999967	-0.7450000000000059
3.529999999999969	-2.577399999999967	-0.740000000000006
3.539999999999969	-2.584774999999967	-0.7350000000000061
3.549999999999968	-2.592099999999967	-0.7300000000000062
3.559999999999968	-2.599374999999966	-0.7250000000000063
3.569999999999968	-2.606599999999966	-0.7200000000000064
3.579999999999968	-2.613774999999966	-0.7150000000000065
3.589999999999967	-2.620899999999966	-0.7100000000000066
3.599999999999967	-2.627974999999966	-0.7050000000000067
3.609999999999967	-2.634999999999966	-0.7000000000000068
3.619999999999967	-2.641974999999966	-0.6950000000000069
3.629999999999967	-2.648899999999966	-0.6900000000000071
3.639999999999966	-2.655774999999966	-0.6850000000000072
3.649999999999966	-2.662599999999966	-0.6800000000000073
3.659999999999966	-2.669374999999965	-0.6750000000000074
3.669999999999966	-2.676099999999965	-0.6700000000000075
3.679999999999966	-2.682774999999965	-0.6650000000000076
3.689999999999965	-2.689399999999965	-0.6600000000000077
3.699999999999965	-2.695974999999965	-0.6550000000000078
3.709999999999965	-2.702499999999965	-0.6500000000000079
3.719999999999965	-2.708974999999965	-0.645000000000008
3.729999999999964	-2.715399999999965	-0.6400000000000081
3.739999999999964	-2.721774999999965	-0.6350000000000082
3.749999999999964	-2.728099999999965	-0.6300000000000083
3.759999999999964	-2.734374999999965	-0.6250000000000084
3.769999999999964	-2.740599999999965	-0.6200000000000085
3.779999999999963	-2.746774999999965	-0.6150000000000087
3.789999999999963	-2.752899999999965	-0.6100000000000088
3.799999999999963	-2.758974999999965	-0.6050000000000089
3.809999999999963	-2.764999999999965	-0.600000000000009
3.819999999999963	-2.770974999999965	-0.5950000000000091
3.829999999999962	-2.776899999999965	-0.5900000000000092
3.839999999999962	-2.782774999999965	-0.5850000000000093
3.849999999999962	-2.788599999999965	-0.5800000000000094
3.859999999999962	-2.794374999999965	-0.5750000000000095
3.869999999999961	-2.800099999999965	-0.5700000000000096
3.879999999999961	-2.805774999999965	-0.5650000000000097
3.889999999999961	-2.811399999999965	-0.5600000000000098
3.899999999999961	-2.816974999999965	-0.5550000000000099
3.909999999999961	-2.822499999999965	-0.55000000000001
3.91999999999996	-2.827974999999965	-0.5450000000000101
3.92999999999996	-2.833399999999965	-0.5400000000000102
3.93999999999996	-2.838774999999965	-0.5350000000000104
3.94999999999996	-2.844099999999965	-0.5300000000000105
3.95999999999996	-2.849374999999965	-0.5250000000000106
3.969999999999959	-2.854599999999964	-0.5200000000000107
3.979999999999959	-2.859774999999964	-0.5150000000000108
3.989999999999959	-2.864899999999964	-0.5100000000000109
3.999999999999959	-2.869974999999965	-0.505000000000011
4.009999999999959	-2.874999999999965	-0.5000000000000109
4.019999999999959	-2.879974999999965	-0.495000000000011
4.029999999999959	-2.884899999999965	-0.4900000000000111
4.039999999999958	-2.889774999999965	-0.4850000000000112
4.049999999999958	-2.894599999999965	-0.4800000000000113
4.059999999999958	-2.899374999999965	-0.4750000000000114
4.069999999999958	-2.904099999999965	-0.4700000000000115
4.079999999999957	-2.908774999999965	-0.4650000000000116
4.089999999999957	-2.913399999999965	-0.4600000000000117
4.099999999999957	-2.917974999999965	-0.4550000000000118
4.109999999999957	-2.922499999999965	-0.4500000000000119
4.119999999999957	-2.926974999999965	-0.4450000000000121
4.129999999999956	-2.931399999999965	-0.4400000000000122
4.139999999999956	-2.935774999999965	-0.4350000000000123
4.149999999999956	-2.940099999999966	-0.4300000000000124
4.159999999999956	-2.944374999999966	-0.4250000000000125
4.169999999999956	-2.948599999999966	-0.4200000000000126
4.179999999999955	-2.952774999999966	-0.4150000000000127
4.189999999999955	-2.956899999999966	-0.4100000000000128
4.199999999999955	-2.960974999999966	-0.4050000000000129
4.209999999999955	-2.964999999999966	-0.400000000000013
4.219999999999954	-2.968974999999966	-0.3950000000000131
4.229999999999954	-2.972899999999966	-0.3900000000000132
4.239999999999954	-2.976774999999966	-0.3850000000000133
4.249999999999954	-2.980599999999966	-0.3800000000000134
4.259999999999954	-2.984374999999966	-0.3750000000000135
4.269999999999953	-2.988099999999966	-0.3700000000000137
4.279999999999953	-2.991774999999966	-0.3650000000000138
4.289999999999953	-2.995399999999966	-0.3600000000000139
4.299999999999953	-2.998974999999966	-0.355000000000014
4.309999999999953	-3.002499999999966	-0.3500000000000141
4.319999999999952	-3.005974999999966	-0.3450000000000142
4.329999999999952	-3.009399999999966	-0.3400000000000143
4.339999999999952	-3.012774999999966	-0.3350000000000144
4.349999999999952	-3.016099999999966	-0.3300000000000145
4.359999999999951	-3.019374999999966	-0.3250000000000146
4.369999999999951	-3.022599999999966	-0.3200000000000147
4.379999999999951	-3.025774999999967	-0.3150000000000148
4.389999999999951	-3.028899999999967	-0.3100000000000149
4.399999999999951	-3.031974999999967	-0.305000000000015
4.40999999999995	-3.034999999999967	-0.3000000000000151
4.41999999999995	-3.037974999999967	-0.2950000000000153
4.42999999999995	-3.040899999999967	-0.2900000000000154
4.43999999999995	-3.043774999999967	-0.2850000000000155
4.44999999999995	-3.046599999999967	-0.2800000000000156
4.459999999999949	-3.049374999999968	-0.2750000000000157
4.469999999999949	-3.052099999999968	-0.2700000000000158
4.479999999999949	-3.054774999999968	-0.2650000000000159
4.489999999999949	-3.057399999999968	-0.260000000000016
4.499999999999948	-3.059974999999968	-0.2550000000000161
4.509999999999948	-3.062499999999968	-0.2500000000000162
4.519999999999948	-3.064974999999968	-0.2450000000000163
4.529999999999948	-3.067399999999968	-0.2400000000000164
4.539999999999948	-3.069774999999968	-0.2350000000000165
4.549999999999947	-3.072099999999968	-0.2300000000000166
4.559999999999947	-3.074374999999968	-0.2250000000000167
4.569999999999947	-3.076599999999968	-0.2200000000000168
4.579999999999947	-3.078774999999969	-0.215000000000017
4.589999999999947	-3.080899999999969	-0.2100000000000171
4.599999999999946	-3.082974999999969	-0.2050000000000172
4.609999999999946	-3.084999999999969	-0.2000000000000173
4.619999999999946	-3.086974999999969	-0.1950000000000174
4.629999999999946	-3.088899999999969	-0.1900000000000175
4.639999999999946	-3.090774999999969	-0.1850000000000176
4.649999999999945	-3.092599999999969	-0.1800000000000177
4.659999999999945	-3.09437499999997	-0.1750000000000178
4.669999999999945	-3.09609999999997	-0.1700000000000179
4.679999999999945	-3.09777499999997	-0.165000000000018
4.689999999999944	-3.09939999999997	-0.1600000000000181
4.699999999999944	-3.10097499999997	-0.1550000000000182
4.709999999999944	-3.10249999999997	-0.1500000000000183
4.719999999999944	-3.10397499999997	-0.1450000000000184
4.729999999999944	-3.105399999999971	-0.1400000000000186
4.739999999999943	-3.106774999999971	-0.1350000000000187
4.749999999999943	-3.108099999999971	-0.1300000000000188
4.759999999999943	-3.109374999999971	-0.1250000000000189
4.769999999999943	-3.110599999999971	-0.120000000000019
4.779999999999943	-3.111774999999972	-0.1150000000000191
4.789999999999942	-3.112899999999972	-0.1100000000000192
4.799999999999942	-3.113974999999972	-0.1050000000000193
4.809999999999942	-3.114999999999972	-0.1000000000000194
4.819999999999942	-3.115974999999973	-0.09500000000001951
4.829999999999941	-3.116899999999973	-0.09000000000001962
4.839999999999941	-3.117774999999973	-0.08500000000001973
4.849999999999941	-3.118599999999973	-0.08000000000001983
4.859999999999941	-3.119374999999973	-0.07500000000001994
4.869999999999941	-3.120099999999973	-0.07000000000002005
4.87999999999994	-3.120774999999973	-0.06500000000002015
4.88999999999994	-3.121399999999974	-0.06000000000002026
4.89999999999994	-3.121974999999974	-0.05500000000002037
4.90999999999994	-3.122499999999974	-0.05000000000002047
4.91999999999994	-3.122974999999974	-0.04500000000002058
4.929999999999939	-3.123399999999974	-0.04000000000002069
4.939999999999939	-3.123774999999974	-0.03500000000002079
4.949999999999939	-3.124099999999975	-0.0300000000000209
4.959999999999939	-3.124374999999975	-0.02500000000002101
4.969999999999938	-3.124599999999975	-0.02000000000002111
4.979999999999938	-3.124774999999975	-0.01500000000002122
4.989999999999938	-3.124899999999975	-0.01000000000002133
4.999999999999938	-3.124974999999976	-0.005000000000021432
5.009999999999938	-3.124999999999976	-2.153832667772804e-14
5.019999999999937	-3.124974999999976	0.004999999999978355
5.029999999999937	-3.124899999999976	0.009999999999978249
5.039999999999937	-3.124774999999977	0.01499999999997814
5.049999999999937	-3.124599999999977	0.01999999999997804
5.059999999999937	-3.124374999999977	0.02499999999997793
5.069999999999936	-3.124099999999977	0.02999999999997782
5.079999999999936	-3.123774999999978	0.03499999999997772
5.089999999999936	-3.123399999999978	0.03999999999997761
5.099999999999936	-3.122974999999978	0.0449999999999775
5.109999999999935	-3.122499999999978	0.0499999999999774
5.119999999999935	-3.121974999999979	0.05499999999997729
5.129999999999935	-3.121399999999979	0.05999999999997718
5.139999999999935	-3.120774999999979	0.06499999999997708
5.149999999999935	-3.120099999999979	0.06999999999997697
5.159999999999934	-3.11937499999998	0.07499999999997686
5.169999999999934	-3.11859999999998	0.07999999999997676
5.179999999999934	-3.11777499999998	0.08499999999997665
5.189999999999934	-3.11689999999998	0.08999999999997654
5.199999999999934	-3.115974999999981	0.09499999999997644
5.209999999999933	-3.114999999999981	0.09999999999997633
5.219999999999933	-3.113974999999981	0.1049999999999762
5.229999999999933	-3.112899999999981	0.1099999999999761
5.239999999999933	-3.111774999999982	0.114999999999976
5.249999999999932	-3.110599999999982	0.1199999999999759
5.259999999999932	-3.109374999999982	0.1249999999999758
5.269999999999932	-3.108099999999982	0.1299999999999757
5.279999999999932	-3.106774999999983	0.1349999999999756
5.289999999999932	-3.105399999999983	0.1399999999999755
5.299999999999931	-3.103974999999983	0.1449999999999754
5.309999999999931	-3.102499999999983	0.1499999999999753
5.319999999999931	-3.100974999999984	0.1549999999999752
5.329999999999931	-3.099399999999984	0.1599999999999751
5.339999999999931	-3.097774999999984	0.1649999999999749
5.34999999999993	-3.096099999999984	0.1699999999999748
5.35999999999993	-3.094374999999985	0.1749999999999747
5.36999999999993	-3.092599999999985	0.1799999999999746
5.37999999999993	-3.090774999999985	0.1849999999999745
5.38999999999993	-3.088899999999986	0.1899999999999744
5.399999999999929	-3.086974999999986	0.1949999999999743
5.409999999999929	-3.084999999999986	0.1999999999999742
5.419999999999929	-3.082974999999986	0.2049999999999741
5.429999999999929	-3.080899999999987	0.209999999999974
5.439999999999928	-3.078774999999987	0.2149999999999739
5.449999999999928	-3.076599999999988	0.2199999999999738
5.459999999999928	-3.074374999999988	0.2249999999999737
5.469999999999928	-3.072099999999988	0.2299999999999736
5.479999999999928	-3.069774999999989	0.2349999999999735
5.489999999999927	-3.067399999999989	0.2399999999999733
5.499999999999927	-3.064974999999989	0.2449999999999732
5.509999999999927	-3.06249999999999	0.2499999999999731
5.519999999999927	-3.05997499999999	0.254999999999973
5.529999999999927	-3.05739999999999	0.2599999999999729
5.539999999999926	-3.05477499999999	0.2649999999999728
5.549999999999926	-3.052099999999991	0.2699999999999727
5.559999999999926	-3.049374999999991	0.2749999999999726
5.569999999999926	-3.046599999999991	0.2799999999999725
5.579999999999925	-3.043774999999992	0.2849999999999724
5.589999999999925	-3.040899999999992	0.2899999999999723
5.599999999999925	-3.037974999999992	0.2949999999999722
5.609999999999925	-3.034999999999993	0.2999999999999721
5.619999999999925	-3.031974999999993	0.304999999999972
5.629999999999924	-3.028899999999993	0.3099999999999719
5.639999999999924	-3.025774999999994	0.3149999999999717
5.649999999999924	-3.022599999999994	0.3199999999999716
5.659999999999924	-3.019374999999994	0.3249999999999715
5.669999999999924	-3.016099999999995	0.3299999999999714
5.679999999999923	-3.012774999999995	0.3349999999999713
5.689999999999923	-3.009399999999995	0.3399999999999712
5.699999999999923	-3.005974999999996	0.3449999999999711
5.709999999999923	-3.002499999999996	0.349999999999971
5.719999999999922	-2.998974999999997	0.3549999999999709
5.729999999999922	-2.995399999999997	0.3599999999999708
5.739999999999922	-2.991774999999997	0.3649999999999707
5.749999999999922	-2.988099999999998	0.3699999999999706
5.759999999999922	-2.984374999999998	0.3749999999999705
5.769999999999921	-2.980599999999999	0.3799999999999704
5.779999999999921	-2.976774999999999	0.3849999999999703
5.789999999999921	-2.9729	0.3899999999999701
5.799999999999921	-2.968975	0.39499999999997
5.809999999999921	-2.965	0.3999999999999699
5.81999999999992	-2.960975000000001	0.4049999999999698
5.82999999999992	-2.956900000000001	0.4099999999999697
5.83999999999992	-2.952775000000001	0.4149999999999696
5.84999999999992	-2.948600000000002	0.4199999999999695
5.859999999999919	-2.944375000000002	0.4249999999999694
5.869999999999919	-2.940100000000002	0.4299999999999693
5.879999999999919	-2.935775000000003	0.4349999999999692
5.889999999999919	-2.931400000000003	0.4399999999999691
5.899999999999919	-2.926975000000004	0.444999999999969
5.909999999999918	-2.922500000000004	0.4499999999999689
5.919999999999918	-2.917975000000004	0.4549999999999688
5.929999999999918	-2.913400000000005	0.4599999999999687
5.939999999999918	-2.908775000000005	0.4649999999999685
5.949999999999918	-2.904100000000005	0.4699999999999684
5.959999999999917	-2.899375000000006	0.4749999999999683
5.969999999999917	-2.894600000000006	0.4799999999999682
5.979999999999917	-2.889775000000007	0.4849999999999681
5.989999999999917	-2.884900000000007	0.489999999999968
5.999999999999917	-2.879975000000008	0.4949999999999679
6.009999999999916	-2.875000000000008	0.4999999999999678
6.019999999999916	-2.869975000000009	0.5049999999999677
6.029999999999916	-2.864900000000009	0.5099999999999676
6.039999999999916	-2.859775000000009	0.5149999999999675
6.049999999999915	-2.85460000000001	0.5199999999999674
6.059999999999915	-2.84937500000001	0.5249999999999673
6.069999999999915	-2.844100000000011	0.5299999999999672
6.079999999999915	-2.838775000000011	0.5349999999999671
6.089999999999915	-2.833400000000012	0.539999999999967
6.099999999999914	-2.827975000000012	0.5449999999999668
6.109999999999914	-2.822500000000013	0.5499999999999667
6.119999999999914	-2.816975000000013	0.5549999999999666
6.129999999999914	-2.811400000000014	0.5599999999999665
6.139999999999914	-2.805775000000014	0.5649999999999664
6.149999999999913	-2.800100000000015	0.5699999999999663
6.159999999999913	-2.794375000000015	0.5749999999999662
6.169999999999913	-2.788600000000016	0.5799999999999661
6.179999999999913	-2.782775000000016	0.584999999999966
6.189999999999912	-2.776900000000016	0.5899999999999659
6.199999999999912	-2.770975000000017	0.5949999999999658
6.209999999999912	-2.765000000000017	0.5999999999999657
6.219999999999912	-2.758975000000018	0.6049999999999656
6.229999999999912	-2.752900000000018	0.6099999999999655
6.239999999999911	-2.746775000000019	0.6149999999999654
6.249999999999911	-2.740600000000019	0.6199999999999652
6.259999999999911	-2.73437500000002	0.6249999999999651
6.269999999999911	-2.72810000000002	0.629999999999965
6.279999999999911	-2.72177500000002	0.6349999999999649
6.28999999999991	-2.715400000000021	0.6399999999999648
6.29999999999991	-2.708975000000021	0.6449999999999647
6.30999999999991	-2.702500000000022	0.6499999999999646
6.31999999999991	-2.695975000000022	0.6549999999999645
6.329999999999909	-2.689400000000023	0.6599999999999644
6.339999999999909	-2.682775000000023	0.6649999999999643
6.349999999999909	-2.676100000000024	0.6699999999999642
6.359999999999909	-2.669375000000024	0.6749999999999641
6.369999999999909	-2.662600000000025	0.679999999999964
6.379999999999908	-2.655775000000026	0.6849999999999639
6.389999999999908	-2.648900000000026	0.6899999999999638
6.399999999999908	-2.641975000000027	0.6949999999999636
6.409999999999908	-2.635000000000027	0.6999999999999635
6.419999999999908	-2.627975000000028	0.7049999999999634
6.429999999999907	-2.620900000000028	0.7099999999999633
6.439999999999907	-2.613775000000029	0.7149999999999632
6.449999999999907	-2.60660000000003	0.7199999999999631
6.459999999999907	-2.59937500000003	0.724999999999963
6.469999999999906	-2.59210000000003	0.7299999999999629
6.479999999999906	-2.584775000000031	0.7349999999999628
6.489999999999906	-2.577400000000031	0.7399999999999627
6.499999999999906	-2.569975000000032	0.7449999999999626
6.509999999999906	-2.562500000000032	0.7499999999999625
6.519999999999905	-2.554975000000033	0.7549999999999624
6.529999999999905	-2.547400000000033	0.7599999999999623
6.539999999999905	-2.539775000000034	0.7649999999999622
6.549999999999905	-2.532100000000034	0.769999999999962
6.559999999999905	-2.524375000000035	0.7749999999999619
6.569999999999904	-2.516600000000035	0.7799999999999618
6.579999999999904	-2.508775000000036	0.7849999999999617
6.589999999999904	-2.500900000000037	0.7899999999999616
6.599999999999904	-2.492975000000037	0.7949999999999615
6.609999999999904	-2.485000000000038	0.7999999999999614
6.619999999999903	-2.476975000000038	0.8049999999999613
6.629999999999903	-2.468900000000039	0.8099999999999612
6.639999999999903	-2.460775000000039	0.8149999999999611
6.649999999999903	-2.45260000000004	0.819999999999961
6.659999999999902	-2.44437500000004	0.8249999999999609
6.669999999999902	-2.436100000000041	0.8299999999999608
6.679999999999902	-2.427775000000042	0.8349999999999607
6.689999999999902	-2.419400000000042	0.8399999999999606
6.699999999999902	-2.410975000000043	0.8449999999999604
6.709999999999901	-2.402500000000043	0.8499999999999603
6.719999999999901	-2.393975000000044	0.8549999999999602
6.729999999999901	-2.385400000000045	0.8599999999999601
6.739999999999901	-2.376775000000045	0.86499999999996
6.749999999999901	-2.368100000000046	0.8699999999999599
6.7599999999999	-2.359375000000047	0.8749999999999598
6.7699999999999	-2.350600000000047	0.8799999999999597
6.7799999999999	-2.341775000000048	0.8849999999999596
6.7899999999999	-2.332900000000048	0.8899999999999595
6.799999999999899	-2.323975000000049	0.8949999999999594
6.809999999999899	-2.315000000000049	0.8999999999999593
6.819999999999899	-2.30597500000005	0.9049999999999592
6.829999999999899	-2.296900000000051	0.9099999999999591
6.839999999999899	-2.287775000000051	0.914999999999959
6.849999999999898	-2.278600000000051	0.9199999999999589
6.859999999999898	-2.269375000000052	0.9249999999999587
6.869999999999898	-2.260100000000053	0.9299999999999586
6.879999999999898	-2.250775000000053	0.9349999999999585
6.889999999999898	-2.241400000000054	0.9399999999999584
6.899999999999897	-2.231975000000054	0.9449999999999583
6.909999999999897	-2.222500000000055	0.9499999999999582
6.919999999999897	-2.212975000000056	0.9549999999999581
6.929999999999897	-2.203400000000056	0.959999999999958
6.939999999999896	-2.193775000000057	0.9649999999999579
6.949999999999896	-2.184100000000058	0.9699999999999578
6.959999999999896	-2.174375000000058	0.9749999999999577
6.969999999999896	-2.164600000000059	0.9799999999999576
6.979999999999896	-2.154775000000059	0.9849999999999575
6.989999999999895	-2.14490000000006	0.9899999999999574
6.999999999999895	-2.134975000000061	0.9949999999999573
7.009999999999895	-2.125000000000061	0.9999999999999571
7.019999999999895	-2.114975000000062	1.004999999999957
7.029999999999895	-2.104900000000063	1.009999999999957
7.039999999999894	-2.094775000000063	1.014999999999957
7.049999999999894	-2.084600000000064	1.019999999999957
7.059999999999894	-2.074375000000065	1.024999999999957
7.069999999999894	-2.064100000000066	1.029999999999957
7.079999999999893	-2.053775000000066	1.034999999999956
7.089999999999893	-2.043400000000067	1.039999999999956
7.099999999999893	-2.032975000000067	1.044999999999956
7.109999999999893	-2.022500000000068	1.049999999999956
7.119999999999893	-2.011975000000069	1.054999999999956
7.129999999999892	-2.00140000000007	1.059999999999956
7.139999999999892	-1.99077500000007	1.064999999999956
7.149999999999892	-1.980100000000071	1.069999999999956
7.159999999999892	-1.969375000000071	1.074999999999956
7.169999999999892	-1.958600000000072	1.079999999999955
7.179999999999891	-1.947775000000073	1.084999999999955
7.189999999999891	-1.936900000000073	1.089999999999955
7.199999999999891	-1.925975000000074	1.094999999999955
7.209999999999891	-1.915000000000075	1.099999999999955
7.219999999999891	-1.903975000000075	1.104999999999955
7.22999999999989	-1.892900000000076	1.109999999999955
7.23999999999989	-1.881775000000077	1.114999999999955
7.24999999999989	-1.870600000000077	1.119999999999955
7.25999999999989	-1.859375000000078	1.124999999999954
7.269999999999889	-1.848100000000079	1.129999999999954
7.279999999999889	-1.836775000000079	1.134999999999954
7.289999999999889	-1.82540000000008	1.139999999999954
7.299999999999889	-1.813975000000081	1.144999999999954
7.309999999999889	-1.802500000000081	1.149999999999954
7.319999999999888	-1.790975000000082	1.154999999999954
7.329999999999888	-1.779400000000083	1.159999999999954
7.339999999999888	-1.767775000000084	1.164999999999954
7.349999999999888	-1.756100000000084	1.169999999999954
7.359999999999888	-1.744375000000085	1.174999999999953
7.369999999999887	-1.732600000000086	1.179999999999953
7.379999999999887	-1.720775000000087	1.184999999999953
7.389999999999887	-1.708900000000087	1.189999999999953
7.399999999999887	-1.696975000000088	1.194999999999953
7.409999999999886	-1.685000000000089	1.199999999999953
7.419999999999886	-1.67297500000009	1.204999999999953
7.429999999999886	-1.66090000000009	1.209999999999953
7.439999999999886	-1.648775000000091	1.214999999999953
7.449999999999886	-1.636600000000092	1.219999999999952
7.459999999999885	-1.624375000000093	1.224999999999952
7.469999999999885	-1.612100000000093	1.229999999999952
7.479999999999885	-1.599775000000094	1.234999999999952
7.489999999999885	-1.587400000000095	1.239999999999952
7.499999999999885	-1.574975000000095	1.244999999999952
7.509999999999884	-1.562500000000096	1.249999999999952
7.519999999999884	-1.550025000000097	1.244999999999952
7.529999999999884	-1.537600000000098	1.239999999999952
7.539999999999884	-1.525225000000098	1.234999999999952
7.549999999999883	-1.512900000000099	1.229999999999952
7.559999999999883	-1.5006250000001	1.224999999999952
7.569999999999883	-1.4884000000001	1.219999999999952
7.579999999999883	-1.476225000000101	1.214999999999953
7.589999999999883	-1.464100000000102	1.209999999999953
7.599999999999882	-1.452025000000103	1.204999999999953
7.609999999999882	-1.440000000000103	1.199999999999953
7.619999999999882	-1.428025000000104	1.194999999999953
7.629999999999882	-1.416100000000105	1.189999999999953
7.639999999999882	-1.404225000000106	1.184999999999953
7.649999999999881	-1.392400000000106	1.179999999999953
7.659999999999881	-1.380625000000107	1.174999999999953
7.669999999999881	-1.368900000000108	1.169999999999954
7.679999999999881	-1.357225000000109	1.164999999999954
7.68999999999988	-1.345600000000109	1.159999999999954
7.69999999999988	-1.33402500000011	1.154999999999954
7.70999999999988	-1.322500000000111	1.149999999999954
7.71999999999988	-1.311025000000112	1.144999999999954
7.72999999999988	-1.299600000000112	1.139999999999954
7.739999999999879	-1.288225000000113	1.134999999999954
7.749999999999879	-1.276900000000114	1.129999999999954
7.759999999999879	-1.265625000000114	1.124999999999954
7.769999999999879	-1.254400000000115	1.119999999999955
7.779999999999879	-1.243225000000116	1.114999999999955
7.789999999999878	-1.232100000000116	1.109999999999955
7.799999999999878	-1.221025000000117	1.104999999999955
7.809999999999878	-1.210000000000118	1.099999999999955
7.819999999999878	-1.199025000000118	1.094999999999955
7.829999999999878	-1.188100000000119	1.089999999999955
7.839999999999877	-1.17722500000012	1.084999999999955
7.849999999999877	-1.16640000000012	1.079999999999955
7.859999999999877	-1.155625000000121	1.074999999999956
7.869999999999877	-1.144900000000121	1.069999999999956
7.879999999999876	-1.134225000000122	1.064999999999956
7.889999999999876	-1.123600000000123	1.059999999999956
7.899999999999876	-1.113025000000123	1.054999999999956
7.909999999999876	-1.102500000000124	1.049999999999956
7.919999999999876	-1.092025000000125	1.044999999999956
7.929999999999875	-1.081600000000126	1.039999999999956
7.939999999999875	-1.071225000000126	1.034999999999956
7.949999999999875	-1.060900000000127	1.029999999999957
7.959999999999875	-1.050625000000128	1.024999999999957
7.969999999999875	-1.040400000000128	1.019999999999957
7.979999999999874	-1.030225000000129	1.014999999999957
7.989999999999874	-1.02010000000013	1.009999999999957
7.999999999999874	-1.01002500000013	1.004999999999957
8.009999999999874	-1.000000000000131	0.9999999999999571
8.019999999999873	-0.9900250000001316	0.9949999999999573
8.029999999999873	-0.9801000000001322	0.9899999999999574
8.039999999999873	-0.9702250000001328	0.9849999999999575
8.049999999999873	-0.9604000000001334	0.9799999999999576
8.059999999999873	-0.9506250000001339	0.9749999999999577
8.069999999999872	-0.9409000000001346	0.9699999999999578
8.079999999999872	-0.9312250000001353	0.9649999999999579
8.089999999999872	-0.921600000000136	0.959999999999958
8.099999999999872	-0.9120250000001366	0.9549999999999581
8.109999999999872	-0.9025000000001373	0.9499999999999582
8.119999999999871	-0.893025000000138	0.9449999999999583
8.129999999999871	-0.8836000000001386	0.9399999999999584
8.139999999999871	-0.8742250000001393	0.9349999999999585
8.149999999999871	-0.8649000000001399	0.9299999999999586
8.15999999999987	-0.8556250000001405	0.9249999999999587
8.16999999999987	-0.8464000000001412	0.9199999999999589
8.17999999999987	-0.8372250000001418	0.914999999999959
8.18999999999987	-0.8281000000001424	0.9099999999999591
8.19999999999987	-0.819025000000143	0.9049999999999592
8.209999999999869	-0.8100000000001436	0.8999999999999593
8.219999999999869	-0.8010250000001442	0.8949999999999594
8.229999999999869	-0.7921000000001448	0.8899999999999595
8.239999999999869	-0.7832250000001454	0.8849999999999596
8.249999999999869	-0.774400000000146	0.8799999999999597
8.259999999999868	-0.7656250000001465	0.8749999999999598
8.269999999999868	-0.7569000000001471	0.8699999999999599
8.279999999999868	-0.7482250000001477	0.86499999999996
8.289999999999868	-0.7396000000001482	0.8599999999999601
8.299999999999867	-0.7310250000001488	0.8549999999999602
8.309999999999867	-0.7225000000001494	0.8499999999999603
8.319999999999867	-0.7140250000001499	0.8449999999999604
8.329999999999867	-0.7056000000001504	0.8399999999999606
8.339999999999867	-0.697225000000151	0.8349999999999607
8.349999999999866	-0.6889000000001515	0.8299999999999608
8.359999999999866	-0.680625000000152	0.8249999999999609
8.369999999999866	-0.6724000000001525	0.819999999999961
8.379999999999866	-0.6642250000001531	0.8149999999999611
8.389999999999866	-0.6561000000001536	0.8099999999999612
8.399999999999865	-0.6480250000001542	0.8049999999999613
8.409999999999865	-0.6400000000001548	0.7999999999999614
8.419999999999865	-0.6320250000001554	0.7949999999999615
8.429999999999865	-0.624100000000156	0.7899999999999616
8.439999999999864	-0.6162250000001566	0.7849999999999617
8.449999999999864	-0.6084000000001571	0.7799999999999618
8.459999999999864	-0.6006250000001577	0.7749999999999619
8.469999999999864	-0.5929000000001583	0.769999999999962
8.479999999999864	-0.5852250000001589	0.7649999999999622
8.489999999999863	-0.5776000000001594	0.7599999999999623
8.499999999999863	-0.57002500000016	0.7549999999999624
8.509999999999863	-0.5625000000001605	0.7499999999999625
8.519999999999863	-0.5550250000001611	0.7449999999999626
8.529999999999863	-0.5476000000001616	0.7399999999999627
8.539999999999862	-0.5402250000001622	0.7349999999999628
8.549999999999862	-0.5329000000001627	0.7299999999999629
8.559999999999862	-0.5256250000001632	0.724999999999963
8.569999999999862	-0.5184000000001637	0.7199999999999631
8.579999999999862	-0.5112250000001642	0.7149999999999632
8.589999999999861	-0.5041000000001647	0.7099999999999633
8.599999999999861	-0.4970250000001653	0.7049999999999634
8.609999999999861	-0.4900000000001657	0.6999999999999635
8.619999999999861	-0.4830250000001662	0.6949999999999636
8.62999999999986	-0.4761000000001667	0.6899999999999638
8.63999999999986	-0.4692250000001672	0.6849999999999639
8.64999999999986	-0.4624000000001677	0.679999999999964
8.65999999999986	-0.4556250000001683	0.6749999999999641
8.66999999999986	-0.4489000000001688	0.6699999999999642
8.679999999999859	-0.4422250000001693	0.6649999999999643
8.689999999999859	-0.4356000000001698	0.6599999999999644
8.699999999999859	-0.4290250000001703	0.6549999999999645
8.709999999999859	-0.4225000000001708	0.6499999999999646
8.719999999999859	-0.4160250000001713	0.6449999999999647
8.729999999999858	-0.4096000000001718	0.6399999999999648
8.739999999999858	-0.4032250000001723	0.6349999999999649
8.749999999999858	-0.3969000000001727	0.629999999999965
8.759999999999858	-0.3906250000001732	0.6249999999999651
8.769999999999857	-0.3844000000001737	0.6199999999999652
8.779999999999857	-0.3782250000001741	0.6149999999999654
8.789999999999857	-0.3721000000001746	0.6099999999999655
8.799999999999857	-0.366025000000175	0.6049999999999656
8.809999999999857	-0.3600000000001755	0.5999999999999657
8.819999999999856	-0.354025000000176	0.5949999999999658
8.829999999999856	-0.3481000000001765	0.5899999999999659
8.839999999999856	-0.342225000000177	0.584999999999966
8.849999999999856	-0.3364000000001774	0.5799999999999661
8.859999999999856	-0.3306250000001779	0.5749999999999662
8.869999999999855	-0.3249000000001784	0.5699999999999663
8.879999999999855	-0.3192250000001788	0.5649999999999664
8.889999999999855	-0.3136000000001793	0.5599999999999665
8.899999999999855	-0.3080250000001797	0.5549999999999666
8.909999999999854	-0.3025000000001802	0.5499999999999667
8.919999999999854	-0.2970250000001806	0.5449999999999668
8.929999999999854	-0.291600000000181	0.539999999999967
8.939999999999854	-0.2862250000001815	0.5349999999999671
8.949999999999854	-0.2809000000001819	0.5299999999999672
8.959999999999853	-0.2756250000001823	0.5249999999999673
8.969999999999853	-0.2704000000001828	0.5199999999999674
8.979999999999853	-0.2652250000001832	0.5149999999999675
8.989999999999853	-0.2601000000001837	0.5099999999999676
8.999999999999853	-0.2550250000001841	0.5049999999999677
9.009999999999852	-0.2500000000001846	0.4999999999999678
9.019999999999852	-0.245025000000185	0.4949999999999679
9.029999999999852	-0.2401000000001854	0.489999999999968
9.039999999999852	-0.2352250000001859	0.4849999999999681
9.049999999999851	-0.2304000000001863	0.4799999999999682
9.059999999999851	-0.2256250000001867	0.4749999999999683
9.069999999999851	-0.2209000000001871	0.4699999999999684
9.079999999999851	-0.2162250000001875	0.4649999999999685
9.089999999999851	-0.2116000000001879	0.4599999999999687
9.09999999999985	-0.2070250000001883	0.4549999999999688
9.10999999999985	-0.2025000000001888	0.4499999999999689
9.11999999999985	-0.1980250000001892	0.444999999999969
9.12999999999985	-0.1936000000001896	0.4399999999999691
9.13999999999985	-0.18922500000019	0.4349999999999692
9.149999999999849	-0.1849000000001904	0.4299999999999693
9.159999999999849	-0.1806250000001907	0.4249999999999694
9.169999999999849	-0.1764000000001911	0.4199999999999695
9.179999999999849	-0.1722250000001915	0.4149999999999696
9.189999999999849	-0.1681000000001919	0.4099999999999697
9.199999999999848	-0.1640250000001923	0.4049999999999698
9.209999999999848	-0.1600000000001927	0.3999999999999699
9.219999999999848	-0.1560250000001931	0.39499999999997
9.229999999999848	-0.1521000000001935	0.3899999999999701
9.239999999999847	-0.1482250000001938	0.3849999999999703
9.249999999999847	-0.1444000000001942	0.3799999999999704
9.259999999999847	-0.1406250000001946	0.3749999999999705
9.269999999999847	-0.136900000000195	0.3699999999999706
9.279999999999847	-0.1332250000001954	0.3649999999999707
9.289999999999846	-0.1296000000001957	0.3599999999999708
9.299999999999846	-0.1260250000001961	0.3549999999999709
9.309999999999846	-0.1225000000001965	0.349999999999971
9.319999999999846	-0.1190250000001968	0.3449999999999711
9.329999999999846	-0.1156000000001972	0.3399999999999712
9.339999999999845	-0.1122250000001975	0.3349999999999713
9.349999999999845	-0.1089000000001979	0.3299999999999714
9.359999999999845	-0.1056250000001983	0.3249999999999715
9.369999999999845	-0.1024000000001986	0.3199999999999716
9.379999999999844	-0.09922500000019896	0.3149999999999717
9.389999999999844	-0.0961000000001993	0.3099999999999719
9.399999999999844	-0.09302500000019966	0.304999999999972
9.409999999999844	-0.0900000000002	0.2999999999999721
9.419999999999844	-0.08702500000020034	0.2949999999999722
9.429999999999843	-0.08410000000020068	0.2899999999999723
9.439999999999843	-0.08122500000020103	0.2849999999999724
9.449999999999843	-0.07840000000020136	0.2799999999999725
9.459999999999843	-0.0756250000002017	0.2749999999999726
9.469999999999843	-0.07290000000020203	0.2699999999999727
9.479999999999842	-0.07022500000020235	0.2649999999999728
9.489999999999842	-0.06760000000020268	0.2599999999999729
9.499999999999842	-0.065025000000203	0.254999999999973
9.509999999999842	-0.06250000000020332	0.2499999999999731
9.519999999999841	-0.06002500000020364	0.2449999999999732
9.529999999999841	-0.05760000000020396	0.2399999999999733
9.539999999999841	-0.05522500000020428	0.2349999999999735
9.549999999999841	-0.05290000000020459	0.2299999999999736
9.559999999999841	-0.0506250000002049	0.2249999999999737
9.56999999999984	-0.04840000000020521	0.2199999999999738
9.57999999999984	-0.04622500000020552	0.2149999999999739
9.58999999999984	-0.04410000000020582	0.209999999999974
9.59999999999984	-0.04202500000020613	0.2049999999999741
9.60999999999984	-0.04000000000020643	0.1999999999999742
9.619999999999839	-0.03802500000020673	0.1949999999999743
9.629999999999839	-0.03610000000020702	0.1899999999999744
9.639999999999839	-0.03422500000020732	0.1849999999999745
9.649999999999839	-0.03240000000020761	0.1799999999999746
9.659999999999838	-0.0306250000002079	0.1749999999999747
9.669999999999838	-0.02890000000020819	0.1699999999999748
9.679999999999838	-0.02722500000020848	0.1649999999999749
9.689999999999838	-0.02560000000020876	0.1599999999999751
9.699999999999838	-0.02402500000020904	0.1549999999999752
9.709999999999837	-0.02250000000020932	0.1499999999999753
9.719999999999837	-0.0210250000002096	0.1449999999999754
9.729999999999837	-0.01960000000020987	0.1399999999999755
9.739999999999837	-0.01822500000021015	0.1349999999999756
9.749999999999837	-0.01690000000021042	0.1299999999999757
9.759999999999836	-0.01562500000021069	0.1249999999999758
9.769999999999836	-0.01440000000021095	0.1199999999999759
9.779999999999836	-0.01322500000021122	0.114999999999976
9.789999999999836	-0.01210000000021148	0.1099999999999761
9.799999999999836	-0.01102500000021174	0.1049999999999762
9.809999999999835	-0.010000000000212	0.09999999999997633
9.819999999999835	-0.009025000000212256	0.09499999999997644
9.829999999999835	-0.00810000000021251	0.08999999999997654
9.839999999999835	-0.007225000000212763	0.08499999999997665
9.849999999999834	-0.006400000000213013	0.07999999999997676
9.859999999999834	-0.005625000000213261	0.07499999999997686
9.869999999999834	-0.004900000000213508	0.06999999999997697
9.879999999999834	-0.004225000000213752	0.06499999999997708
9.889999999999834	-0.003600000000213994	0.05999999999997718
9.899999999999833	-0.003025000000214234	0.05499999999997729
9.909999999999833	-0.002500000000214472	0.0499999999999774
9.919999999999833	-0.002025000000214707	0.0449999999999775
9.929999999999833	-0.001600000000214941	0.03999999999997761
9.939999999999833	-0.001225000000215172	0.03499999999997772
9.949999999999832	-0.0009000000002154017	0.02999999999997782
9.959999999999832	-0.0006250000002156287	0.02499999999997793
9.969999999999832	-0.0004000000002158537	0.01999999999997804
9.979999999999832	-0.0002250000002160766	0.01499999999997814
9.989999999999831	-0.0001000000002162973	0.009999999999978249
9.999999999999831	-2.500000021651585e-05	0.004999999999978355
10.00999999999983	-2.167322988829226e-13	-2.153832667772804e-14
