DataType=double
version=3
OpenSimVersion=4.5.2-2025-05-03-6a4c6ec41
endheader
time	q	q_dot
0	0.2617993877991491	0
0.01	0.2611554350159296	-0.1287908587091082
0.02	0.258817783796443	-0.3387393987123524
0.03	0.2548088264751994	-0.463053444996006
0.04	0.2497972199274803	-0.5392697126387138
0.05	0.2441298042996708	-0.5942168265381319
0.06	0.2379998331488752	-0.631780953391798
0.07000000000000001	0.2315468899570406	-0.658812557362749
0.08	0.2248318400875937	-0.6842020603332809
0.09	0.2178820837971002	-0.7057552461548524
0.09999999999999999	0.2107398537955334	-0.7226964111915839
0.11	0.2034527702507842	-0.7347272318039459
0.12	0.1961016587916456	-0.7355013409402371
0.13	0.188751976197989	-0.7344421590718996
0.14	0.1814310962645289	-0.7297400528060566
0.15	0.1742425185268407	-0.7079822113586175
0.16	0.1672942265845937	-0.6816813042659232
0.17	0.1606035427749181	-0.6564608726019491
0.18	0.1542083152063134	-0.6225886707904643
0.19	0.1481543084851144	-0.5882166700508926
0.2	0.1424579629912537	-0.5510552325041658
0.21	0.1371517851009762	-0.5101830995637902
0.2200000000000001	0.1322739943878789	-0.4653767352456914
0.2300000000000001	0.1278643350718488	-0.4165567719725808
0.2400000000000001	0.1239307404509297	-0.370162941424891
0.2500000000000001	0.1204964522451207	-0.3166955725805248
0.2600000000000001	0.1176218081947974	-0.2582334543328783
0.2700000000000001	0.1153206705828741	-0.2019943940003711
0.2800000000000001	0.1136163884682885	-0.1388620076901784
0.2900000000000001	0.1125671794658125	-0.07097987028208415
0.3000000000000001	0.1121839243862603	-0.005671113676065402
0.3100000000000001	0.1124548714228881	0.05986052215423688
0.3200000000000001	0.1133875545598263	0.126676077772387
0.3300000000000001	0.1149963264697783	0.1950784329334989
0.3400000000000001	0.1172975426897737	0.2651648949523746
0.3500000000000001	0.1202758507600177	0.3304972908179993
0.3600000000000002	0.1238995762182949	0.3942483984169871
0.3700000000000002	0.1281904256636303	0.4639229667523302
0.3800000000000002	0.1331620981983672	0.5304133620477962
0.3900000000000002	0.1387926039777989	0.595690972199869
0.4000000000000002	0.1450741936827168	0.6606308080124789
0.4100000000000002	0.1520041953105901	0.7253753139320249
0.4200000000000002	0.1595498393834145	0.7837604027845879
0.4300000000000002	0.16766254779469	0.8387904415102952
0.4400000000000002	0.1763474157984598	0.8981936445578599
0.4500000000000002	0.1856019668694688	0.9527302625276969
0.4600000000000002	0.195388671704155	1.004625808691579
0.4700000000000003	0.2056843427369453	1.054527112671356
0.4800000000000003	0.2164401512999156	1.096654951366679
0.4900000000000003	0.2275936198864371	1.134062387143267
0.5000000000000002	0.2391363150826384	1.174501628937454
0.5100000000000002	0.2510838584359774	1.215036085589157
0.5200000000000002	0.2634329460219464	1.254812158432137
0.5300000000000002	0.2761418209521715	1.286997971336324
0.5400000000000003	0.2891508023496013	1.314834201867003
0.5500000000000003	0.3024516316456707	1.345371541007145
0.5600000000000003	0.3160593836683078	1.376220136351012
0.5700000000000003	0.3299090717861323	1.393763098705727
0.5800000000000003	0.3438985022864327	1.404167628983477
0.5900000000000003	0.3580273253283031	1.421644639411356
0.6000000000000003	0.3723111597527817	1.435170354227814
0.6100000000000003	0.3866837589992516	1.439399909222127
0.6200000000000003	0.4011014807785437	1.444193445265466
0.6300000000000003	0.4155598289139812	1.447527579031866
0.6400000000000003	0.4300427080410535	1.449097956406021
0.6500000000000004	0.4445008398499066	1.442580105669545
0.6600000000000004	0.4588696123392328	1.431222777207945
0.6700000000000004	0.4731619954479994	1.427303176738733
0.6800000000000004	0.4873704217491397	1.414429676618592
0.6900000000000004	0.5014216568707122	1.395864063458334
0.7000000000000004	0.5152976919613638	1.379386921024639
0.7100000000000004	0.5290054386165405	1.362205916172164
0.7200000000000004	0.542508378076772	1.338422739258171
0.7300000000000004	0.5557506582449687	1.310072435585153
0.7400000000000004	0.5687217745894667	1.284186675041437
0.7500000000000004	0.5814053153534516	1.252556200987031
0.7600000000000005	0.5937818449962969	1.222780556417739
0.7700000000000005	0.6058318119649845	1.18724291066474
0.7800000000000005	0.6175092172990897	1.14826391707525
0.7900000000000005	0.628808594464894	1.111636197109425
0.8000000000000005	0.6397177395670307	1.070213972313478
0.8100000000000005	0.650221304638559	1.030518736252022
0.8200000000000005	0.660329315783487	0.9911003241063456
0.8300000000000005	0.6700137463210312	0.9458013647788527
0.8400000000000005	0.6792793164552071	0.9073253604481066
0.8500000000000005	0.6881720892558355	0.8712413746123059
0.8600000000000005	0.696660025447728	0.8263557615883655
0.8700000000000006	0.7046759665067375	0.7768413211166629
0.8800000000000006	0.7122084654306375	0.7296652878994759
0.8900000000000006	0.7192947521404636	0.6875981665371976
0.9000000000000006	0.7259476334520484	0.6429828607257627
0.9100000000000006	0.7321464883141485	0.596792178037433
0.9200000000000006	0.7378799032803028	0.5498938812732437
0.9300000000000006	0.7431170416651015	0.4975362234515416
0.9400000000000006	0.7478640427577978	0.4518657528138657
0.9500000000000006	0.7521914640814865	0.4136198258944953
0.9600000000000006	0.7561084857719849	0.3697855792967247
0.9700000000000006	0.7595748640415164	0.3234906563087218
0.9800000000000006	0.7625736067404495	0.2762584704894971
0.9900000000000007	0.7650971859008622	0.2284574450870188
1.000000000000001	0.7671648409731359	0.1850739412973895
1.010000000000001	0.7688090968841372	0.1437770592441066
1.020000000000001	0.770046992559135	0.1038023964465796
1.030000000000001	0.7708900349558085	0.06480577536225182
1.040000000000001	0.7713248500265734	0.02215757258119855
1.050000000000001	0.771326318113894	-0.02186432472339274
1.060000000000001	0.7709082484214907	-0.06174919876925306
1.070000000000001	0.7700794117573529	-0.1040185960884662
1.080000000000001	0.7688466302650652	-0.1425372384677095
1.090000000000001	0.7672624515557934	-0.1742990632629518
1.100000000000001	0.7653562823389918	-0.2069343820955937
1.110000000000001	0.7631258607925282	-0.2391506445284165
1.120000000000001	0.7605772810656639	-0.2705650207166198
1.130000000000001	0.7576970303231469	-0.3054861069010035
1.140000000000001	0.7544846265412891	-0.336994595758045
1.150000000000001	0.7509913985507765	-0.3616523274612374
1.160000000000001	0.7472472612358574	-0.387175382301895
1.170000000000001	0.7432507727276617	-0.4121240262652597
1.180000000000001	0.7390091267568293	-0.4362057848004425
1.190000000000001	0.734533166921483	-0.4589883470372126
1.200000000000001	0.7298350196608406	-0.4806421557519673
1.210000000000001	0.7249274849927567	-0.5008674411100544
1.220000000000001	0.7198476024824318	-0.5151105668270781
1.230000000000001	0.7146203641266013	-0.5303401680249317
1.240000000000001	0.7092420603139107	-0.5453225064493256
1.250000000000001	0.7037194514211019	-0.5592027717694549
1.260000000000001	0.6980632540649235	-0.5720390309882336
1.270000000000001	0.6923103056873728	-0.578554540586169
1.280000000000001	0.6864854144926266	-0.5864262675277043
1.290000000000001	0.6805842200569265	-0.5938167781956677
1.300000000000001	0.674612714333131	-0.6004871917739991
1.310000000000001	0.6685809668185934	-0.6058667050804512
1.320000000000001	0.6625003569551947	-0.6102582914825389
1.330000000000001	0.6563827090421728	-0.6132758423575122
1.340000000000001	0.6502397972444653	-0.6153096603075456
1.350000000000001	0.6440576633813078	-0.6211217457380157
1.360000000000001	0.6378350191005948	-0.6234104653447038
1.370000000000001	0.6316008765556022	-0.6234227581193642
1.380000000000001	0.6253730548959805	-0.6221449439809289
1.390000000000001	0.6191908814494256	-0.6142943830085255
