DataType=double
version=3
OpenSimVersion=4.5.2-2025-05-03-6a4c6ec41
endheader
time	q	q_dot	q_ddot	torque
0.01	0	0	0	0
0.02	-5.835387666732318e-05	-0.01166839939974829	-1.16588961486747	-3
0.03	-0.0002332729796671018	-0.02330829920245882	-1.161616416100159	-3
0.04	-0.0005243300761194575	-0.03489126942214878	-1.154506016346031	-3
0.05	-0.0009308142708155788	-0.04638901913066744	-1.144575784147873	-3
0.06	-0.001451732742730067	-0.05777346557612328	-1.131849978013909	-3
0.07000000000000001	-0.002085813170393653	-0.06901680280930161	-1.116359689053043	-3
0.08	-0.002831506840390441	-0.08009156965504453	-1.098142767346456	-3
0.09	-0.003686992431617636	-0.0909707168664281	-1.077243732153889	-3
0.09999999999999999	-0.004650180466329444	-0.1016276733006814	-1.053713666078712	-3
0.11	-0.005718718417382888	-0.1120364109571715	-1.027610093343794	-3
0.12	-0.00688999645951467	-0.1221715087194475	-0.9989968423605158	-3
0.13	-0.008161153850907758	-0.1320082146453233	-0.9679438928061753	-3
0.14	-0.009529085929757536	-0.1415225066513048	-0.9345272074605872	-3
0.15	-0.01099045170902357	-0.1506911514403683	-0.8988285490909363	-3
0.16	-0.01254168205105824	-0.1594917615251849	-0.8609352827147796	-3
0.17	-0.01417898840234166	-0.1679028502024013	-0.8209401636143666	-3
0.18	-0.01589837206712772	-0.1759038843375469	-0.778941111520935	-3
0.19	-0.01769563399742375	-0.1834753348245534	-0.7350409714349724	-3
0.2	-0.01956638507538985	-0.1905987245887831	-0.6893472615972592	-3
0.21	-0.02150605686295995	-0.1972566740078519	-0.6419719091753242	-3
0.2200000000000001	-0.02350991279225828	-0.2034329436304355	-0.5930309742802199	-3
0.2300000000000001	-0.02557305976921836	-0.2091124740796459	-0.5426443629787192	-3
0.2400000000000001	-0.02769046016171184	-0.2142814230344635	-0.4909355300154801	-3
0.2500000000000001	-0.02985694414246575	-0.2189271991900988	-0.4380311720078279	-3
0.2600000000000001	-0.03206722235609424	-0.2230384931060167	-0.3840609119218611	-3
0.2700000000000001	-0.03431589887869971	-0.2266053048586609	-0.3291569756820042	-3
0.2800000000000001	-0.03659748443771154	-0.2296189684246437	-0.2734538618062128	-3
0.2900000000000001	-0.03890640985893384	-0.23207217272927	-0.2170880049952108	-3
0.3000000000000001	-0.04123703970716908	-0.2339589793047123	-0.1601974346358549	-3
0.3100000000000001	-0.04358368608627608	-0.2352748365118922	-0.1029214292054038	-3
0.3200000000000001	-0.04594062256411141	-0.2360165902901019	-0.04540016758477609	-3
0.3300000000000001	-0.04830209818749377	-0.2361824914085628	0.01222562169565984	-3
0.3400000000000001	-0.05066235155212479	-0.2357721992044075	0.06981501224479689	-3
0.3500000000000001	-0.05301562489229592	-0.2347867818019181	0.1272272315979009	-3
0.3600000000000002	-0.05535617815521124	-0.2332287128182097	0.1843220119692311	-3
0.3700000000000002	-0.05767830302485957	-0.2311018645708288	0.2409599389468357	-3
0.3800000000000002	-0.05997633686057481	-0.228411497812899	0.2970027971219853	-3
0.3900000000000002	-0.06224467651572962	-0.225164248031418	0.3523139116675291	-3
0.4000000000000002	-0.0644777920024128	-0.2213681083540303	0.4067584849070176	-3
0.4100000000000002	-0.06667023996844104	-0.2170324091190265	0.4602039269493237	-3
0.4200000000000002	-0.06881667695364901	-0.212167794172383	0.5125201795012533	-3
0.4300000000000002	-0.07091187239308359	-0.2067861939643269	0.5635800320127109	-3
0.4400000000000002	-0.07295072133549439	-0.2009007955261385	0.6132594293547816	-3
0.4500000000000002	-0.07492825684635893	-0.194526009415658	0.6614377702799409	-3
0.4600000000000002	-0.07683966206560247	-0.1876774337272153	0.7079981959648447	-3
0.4700000000000003	-0.0786802818911634	-0.1803718152684367	0.7528278679890101	-3
0.4800000000000003	-0.0804456342606114	-0.1726270080125775	0.795818235156565	-3
0.4900000000000003	-0.08213142100414057	-0.1644619289406896	0.8368652886222534	-3
0.5000000000000002	-0.08373353824342916	-0.1558965113930513	0.8758698048365356	-3
0.5100000000000002	-0.08524808631207476	-0.1469516560538748	0.9127375758770413	-3
0.5200000000000002	-0.0866713791745751	-0.1376491796973801	0.9473796267844219	-3
0.5300000000000002	-0.08799995332212378	-0.1280117618268971	0.9797124195691125	-3
0.5400000000000003	-0.08923057612482238	-0.1180628893417633	1.009658043601201	-3
0.5500000000000003	-0.09036025362127223	-0.1078267993694449	1.037144392138193	-3
0.5600000000000003	-0.09138623772789467	-0.09732842040256649	1.062105324784498	-3
0.5700000000000003	-0.09230603285173529	-0.08659331188241159	1.084480815711837	-3
0.5800000000000003	-0.09311740189193131	-0.07564760237200757	1.104217087501321	-3
0.5900000000000003	-0.09381837161645877	-0.06451792646315663	1.121266730495563	-3
0.6000000000000003	-0.09440723740222511	-0.05323136056277048	1.135588807573042	-3
0.6100000000000003	-0.09488256732803009	-0.04181535770463929	1.14714894427708	-3
0.6200000000000003	-0.09524320561138291	-0.03029768153335609	1.155919404248529	-3
0.6300000000000003	-0.09548827538163221	-0.01870633960755622	1.161879149924841	-3
0.6400000000000003	-0.09561718078333944	-0.007069516169948132	1.165013888479076	-3
0.6500000000000004	-0.09562960840530194	0.004584495468168068	1.165316102981017	-3
0.6600000000000004	-0.09552552803210944	0.01622736078005516	1.16278506876931	-3
0.6700000000000004	-0.0953051927165971	0.02783077196644525	1.157426855029212	-3
0.6800000000000004	-0.09496913817303711	0.03936651584024749	1.149254311575429	-3
0.6900000000000004	-0.09451818149239065	0.05080654150512571	1.13828704084439	-3
0.7000000000000004	-0.09395341918242082	0.06212302768008411	1.124551355105744	-3
0.7100000000000004	-0.09327622453694535	0.07328844952232881	1.10808021890933	-3
0.7200000000000004	-0.09248824433998409	0.08427564480087432	1.088913176792073	-3
0.7300000000000004	-0.09159139491203036	0.09505787927365855	1.067096266279585	-3
0.7400000000000004	-0.09058785750714561	0.1056089111213402	1.042681916230222	-3
0.7500000000000004	-0.08948007307104242	0.1159030542915073	1.015728830585414	-3
0.7600000000000005	-0.0882707363717801	0.1259152406077579	0.9863018576094204	-3
0.7700000000000005	-0.08696278951614815	0.1356210804990578	0.9544718447247662	-3
0.7800000000000005	-0.08555941486625278	0.1449969222059725	0.9203154790763813	-3
0.7900000000000005	-0.08406402737224875	0.1540199093218536	0.8839151139882064	-3
0.8000000000000005	-0.08248026633856931	0.1626680365288633	0.8453585815105543	-3
0.8100000000000005	-0.08081198664239743	0.1709202033908962	0.8047389912948367	-3
0.8200000000000005	-0.0790632494244886	0.1787562660680266	0.7621545160740834	-3
0.8300000000000005	-0.07723831227379438	0.1861570868201183	0.7177081640727478	-3
0.8400000000000005	-0.07534161892864266	0.1931045811707056	0.6715075387172331	-3
0.8500000000000005	-0.07337778851850017	0.1995817626062201	0.6236645860688499	-3
0.8600000000000005	-0.07135160437156973	0.2055727846901098	0.5742953304531041	-3
0.8700000000000006	-0.06926800241465526	0.211062980476409	0.523519598812595	-3
0.8800000000000006	-0.0671320591928541	0.2160388991128536	0.4714607343648506	-3
0.8900000000000006	-0.06494897953770579	0.2204883395297252	0.4182453002003302	-3
0.9000000000000006	-0.06272408391343161	0.2244003811172216	0.3640027735089993	-3
0.9100000000000006	-0.06046279547183621	0.2277654113012987	0.308865231175504	-3
0.9200000000000006	-0.0581706268473051	0.230575149935577	0.2529670275324081	-3
0.9300000000000006	-0.05585316672411574	0.2328226704350352	0.1964444651074384	-3
0.9400000000000006	-0.05351606620898022	0.2345024175857912	0.1394354592436241	-3
0.9500000000000006	-0.05116502504234988	0.2356102219742584	0.0820791975099379	-3
0.9600000000000006	-0.04880577768253277	0.2361433109883119	0.0245157948540067	-3
0.9700000000000006	-0.04644407929710057	0.2361003163527669	-0.03311405452279641	-3
0.9800000000000006	-0.04408569169638919	0.2354812781713926	-0.09066942756449976	-3
0.9900000000000007	-0.04173636924412425	0.2342876454578098	-0.1480095240134411	-3
1.000000000000001	-0.03940184478032834	0.2325222731478852	-0.204994018285547	-3
1.010000000000001	-0.03708781559168878	0.2301894155965777	-0.2614834105320375	-3
1.020000000000001	-0.03479992946448354	0.2272947165725462	-0.3173393758533904	-3
1.030000000000001	-0.03254377085497816	0.2238451957741378	-0.3724251106394885	-3
1.040000000000001	-0.0303248472119192	0.2198492319005662	-0.4266056750240844	-3
1.050000000000001	-0.02814857548536134	0.2153165423221172	-0.4797483304617765	-3
1.060000000000001	-0.02602026885557799	0.210258159403009	-0.5317228714612883	-3
1.070000000000001	-0.02394512371522066	0.204686403540051	-0.5824019505395058	-3
1.080000000000001	-0.02192820693721523	0.1986148529894254	-0.631661395496009	-3
1.090000000000001	-0.01997444346011523	0.1920583105627247	-0.6793805181471213	-3
1.100000000000001	-0.01808860422177879	0.1850327672817803	-0.7254424137012724	-3
1.110000000000001	-0.01627529447130039	0.1775553630897695	-0.769734250003004	-3
1.120000000000001	-0.01453894248811564	0.1696443447235796	-0.8121475459206774	-3
1.130000000000001	-0.01288378873611236	0.1613190208594137	-0.8525784382021605	-3
1.140000000000001	-0.01131387547942829	0.1525997146501268	-0.8909279361728428	-3
1.150000000000001	-0.00983303688540035	0.1435077137787886	-0.9271021637006474	-3
1.160000000000001	-0.008444889638857676	0.1340652181584712	-0.9610125879026766	-3
1.170000000000001	-0.007152824090625081	0.1242952854132662	-0.9925762341171797	-3
1.180000000000001	-0.005959995961730566	0.1142217742800614	-1.021715886712251	-3
1.190000000000001	-0.004869318623394578	0.1038692860746598	-1.048360275348548	-3
1.200000000000001	-0.00388345597142445	0.093263104369431	-1.072444246357116	-3
1.210000000000001	-0.003004815912149333	0.08242913303286574	-1.093908918934748	-3
1.220000000000001	-0.002235544475513006	0.07139383278418218	-1.112701825898167	-3
1.230000000000001	-0.001577520569398118	0.06018415641853846	-1.128777038774391	-3
1.240000000000001	-0.001032351387689325	0.04882748286046188	-1.14209527703817	-3
1.250000000000001	-0.0006013684829977664	0.03735155020484016	-1.152624001338207	-3
1.260000000000001	-0.0002856245133683882	0.02578438790625882	-1.160337490582299	-3
1.270000000000001	-8.589067067779946e-05	0.01415424827863491	-1.165216902777741	-3
1.280000000000001	-2.654796806016003e-06	0.002489537468010851	-1.1672503195476	-3
1.290000000000001	-3.612019203325897e-05	-0.009181253937948261	-1.1664327742661	-3
1.300000000000001	-0.0001862051184750505	-0.02082962049975128	-1.162766263777906	-3
1.310000000000001	-0.0004525429997274129	-0.03242711155092073	-1.156259743686733	-3
1.320000000000001	-0.0008344833162510828	-0.04394540069358114	-1.146929107219125	-3
1.330000000000001	-0.001331093194381335	-0.05535635500066221	-1.134797147689769	-3
1.340000000000001	-0.001941159685210346	-0.0666321037609513	-1.119893504615765	-3
1.350000000000001	-0.002663192727954096	-0.07774510660381383	-1.102254593549424	-3
1.360000000000001	-0.003495428790787876	-0.08866822084121187	-1.081923519722696	-3
1.370000000000001	-0.004435835180515813	-0.09937476786570758	-1.058949975621645	-3
1.380000000000001	-0.005482115010833094	-0.1098385984444574	-1.03339012263685	-3
1.390000000000001	-0.00663171281734737	-0.1200341567508087	-1.005306456965382	-3
1.400000000000001	-0.00788182080595129	-0.1299365429770266	-0.974767659972379	-3
1.410000000000001	-0.009229385719584331	-0.1395215743739319	-0.941848433255206	-3
1.420000000000001	-0.01067111630689269	-0.1487658445658465	-0.90662931869088	-3
1.430000000000001	-0.01220349137479464	-0.1576467809922495	-0.8691965037877332	-3
1.440000000000001	-0.01382276840548956	-0.1661427003309678	-0.8296416127050644	-3
1.450000000000001	-0.01552499271701601	-0.1742328617615882	-0.7880614833495584	-3
1.460000000000001	-0.01730600714507227	-0.1818975179320954	-0.7445579310042398	-3
1.470000000000001	-0.01916146222246646	-0.1891179634965434	-0.6992374989942575	-3
1.480000000000001	-0.02108682683126745	-0.1958765810968567	-0.6522111969434458	-3
1.490000000000001	-0.02307739930148718	-0.2021568846676464	-0.6035942272258426	-3
1.500000000000001	-0.02512831892894514	-0.207943559949223	-0.5535057002665941	-3
1.510000000000001	-0.02723457788385076	-0.2132225021007781	-0.5020683393963453	-3
1.520000000000001	-0.02939103348059564	-0.2179808503129939	-0.4494081760116465	-3
1.530000000000001	-0.03159242077827816	-0.2222070193270969	-0.3956542358404697	-3
1.540000000000001	-0.03383336548059413	-0.2258907277755881	-0.3409382171559489	-3
1.550000000000001	-0.0361083971029222	-0.229023023268519	-0.2853941618223101	-3
1.560000000000001	-0.0384119623737163	-0.2315963041582109	-0.2291581200940177	-3
1.570000000000001	-0.04073843883669298	-0.2336043379246935	-0.1723678101218655	-3
1.580000000000001	-0.04308214861977244	-0.2350422761338183	-0.1151622731475416	-3
1.590000000000001	-0.04543737233630108	-0.2359066659299362	-0.05768152539068478	-3
1.600000000000001	-0.04779836308375277	-0.2361954580351549	-6.620764917821671e-05	-3
1.610000000000001	-0.05015936050487751	-0.2359080112374616	0.05754276635584125	-3
1.620000000000001	-0.05251460487614054	-0.2350450933603347	0.1150045618542954	-3
1.630000000000001	-0.05485835118827319	-0.2336088787168274	0.1721787740866867	-3
1.640000000000001	-0.05718488318383799	-0.2316029420614102	0.2289257775229321	-3
1.650000000000001	-0.0594885273168946	-0.2290322490630494	0.2851070722290823	-3
1.660000000000001	-0.06176366660013825	-0.2259031433330189	0.3405856263910741	-3
1.670000000000001	-0.06400475430526616	-0.2222233300507196	0.3952262140310082	-3
1.680000000000001	-0.06620632748280826	-0.2180018562402746	0.448895746983258	-3
1.690000000000001	-0.06836302026823203	-0.2132490877598142	0.5014636002344546	-3
1.700000000000001	-0.07046957694179452	-0.2079766830741205	0.5528019297726076	-3
1.710000000000001	-0.07252086471036347	-0.2021975638896293	0.6027859821356865	-3
1.720000000000001	-0.0745118861802589	-0.1959258827386423	0.6512943948982248	-3
1.730000000000001	-0.07643779149107266	-0.1891769876069649	0.6982094873853016	-3
1.740000000000001	-0.07829389008139973	-0.1819673837060329	0.7434175409558517	-3
1.750000000000001	-0.08007566205845822	-0.1743146924968992	0.7868090682509273	-3
1.760000000000001	-0.0817787691446777	-0.1662376080792286	0.8282790708566271	-3
1.770000000000001	-0.08339906517549375	-0.157755851063682	0.8677272848851197	-3
1.780000000000001	-0.08493260612379432	-0.1488901200507696	0.9050584140300062	-3
1.790000000000001	-0.08637565962771561	-0.139662040843436	0.9401823497033858	-3
1.800000000000001	-0.08772471399977666	-0.1300941135243175	0.9730143779110115	-3
1.810000000000001	-0.08897648669666763	-0.1202096575318147	1.003475372568269	-3
1.820000000000001	-0.09012793223036218	-0.1100327548718765	1.031491975002932	-3
1.830000000000001	-0.09117624950260557	-0.09958819160473165	1.056996759430524	-3
1.840000000000001	-0.09211888854623242	-0.08890139774775799	1.079928384224253	-3
1.850000000000001	-0.09295355665818825	-0.07799838573730042	1.100231728833861	-3
1.860000000000001	-0.09367822391056402	-0.06690568759355402	1.117858016236188	-3
1.870000000000001	-0.09429112802739925	-0.05565029093367823	1.132764920824905	-3
1.880000000000001	-0.09479077861646547	-0.04425957397912413	1.144916661667754	-3
1.890000000000001	-0.09517596074670462	-0.03276123970378383	1.15428408107714	-3
1.900000000000001	-0.09544573786346576	-0.02118324927003926	1.160844708454038	-3
1.910000000000001	-0.09559945403515584	-0.009553754900128051	1.164582809376713	-3
1.920000000000001	-0.09563673552639591	0.002098967669517164	1.16548941991471	-3
1.930000000000001	-0.09555749169425147	0.01374658700314145	1.163562366155735	-3
1.940000000000002	-0.09536191520558419	0.02536078390184417	1.158806268938876	-3
1.950000000000002	-0.09505048157505193	0.03691331931311101	1.151232533792617	-3
1.960000000000002	-0.09462394802476294	0.0483761020657617	1.140859326080935	-3
1.970000000000002	-0.09408335166806987	0.05972125628243252	1.127711531366042	-3
1.980000000000002	-0.09343000702146693	0.07092118832182767	1.111820701002494	-3
1.990000000000002	-0.09266550285003075	0.0819486531031591	1.093224982985247	-3
2.000000000000001	-0.09179169835331984	0.09277681966546623	1.071969038083992	-3
2.010000000000001	-0.09081071870011877	0.103379335814892	1.048103941308532	-3
2.020000000000001	-0.08972494992188017	0.11373039171351	1.021687068765313	-3
2.030000000000001	-0.08853703317617816	0.1238047822639921	0.9927819699838377	-3
2.04	-0.08724985839293965	0.1335779681453017	0.9614582258139787	-3
2.05	-0.08586655731766296	0.1430261353557296	0.9277912920211878	-3
2.06	-0.0843904959672626	0.1521262531210143	0.8918623287364649	-3
2.07	-0.08282526651559395	0.1608561300270125	0.8537580159517097	-3
2.08	-0.08117467862710623	0.1691944682384856	0.8135703552885871	-3
2.089999999999999	-0.07944275025844463	0.1771209156680456	0.7713964583101158	-3
2.099999999999999	-0.07763369794916791	0.1846161159622181	0.727338321688633	-3
2.109999999999999	-0.07575192662406156	0.1916617561749501	0.6815025895911047	-3
2.119999999999999	-0.07380201893080472	0.1982406120027494	0.6340003036926122	-3
2.129999999999999	-0.07178872413798548	0.2043365904600036	0.5849466412806478	-3
2.139999999999998	-0.06971694661964997	0.2099347698779244	0.5344606419660477	-3
2.149999999999998	-0.06759173395370931	0.2150214371159851	0.4826649235703336	-3
2.159999999999998	-0.06541826466261053	0.2195841218806913	0.429685387813257	-3
2.169999999999998	-0.06320183562569709	0.2236116280530262	0.3756509164776958	-3
2.179999999999997	-0.06094784919363637	0.22709406193295	0.3206930587810931	-3
2.189999999999997	-0.05866180003617047	0.230022857316872	0.2649457107325703	-3
2.199999999999997	-0.05634926175524786	0.232390797332047	0.2085447873020373	-3
2.209999999999997	-0.05401587329631153	0.2341920329603299	0.1516278882713505	-3
2.219999999999997	-0.05166732519115116	0.2354220981926283	0.09433395867724995	-3
2.229999999999996	-0.04930934566626685	0.2360779217646661	0.03680294479082502	-3
2.239999999999996	-0.04694768665113865	0.2361578354342745	-0.02082455339184342	-3
2.249999999999996	-0.04458810972114428	0.2356615787702989	-0.07840763214891748	-3
2.259999999999996	-0.04223637201011653	0.2345903004332975	-0.1358054355045708	-3
2.269999999999996	-0.03989821212767904	0.2329465559384452	-0.1928775071436926	-3
2.279999999999995	-0.03757933611654313	0.2307343019013907	-0.2494841417340222	-3
2.289999999999995	-0.03528540348488941	0.2279588867781689	-0.3054867346206425	-3
2.299999999999995	-0.0330220133487949	0.2246270381205961	-0.3607481288644988	-3
2.309999999999995	-0.03079469071940124	0.2207468463787977	-0.4151329586095546	-3
2.319999999999995	-0.02860887296915221	0.2163277452925831	-0.4685079877820189	-3
2.329999999999994	-0.02646989651096246	0.2113804889232296	-0.5207424431495359	-3
2.339999999999994	-0.02438298372361557	0.2059171253868154	-0.5717083407978493	-3
2.349999999999994	-0.02235323015603139	0.1999509673594984	-0.6212808051167963	-3
2.359999999999994	-0.02038559204229416	0.1934965594340284	-0.6693383794259625	-3
2.369999999999993	-0.01848487415849696	0.1865696424152717	-0.7157633274124179	-3
2.379999999999993	-0.01665571805153985	0.1791871146505779	-0.7604419245979447	-3
2.389999999999993	-0.01490259066902218	0.1713669904984105	-0.8032647391004923	-3
2.399999999999993	-0.01322977341829961	0.1631283560457729	-0.8441269010035424	-3
2.409999999999993	-0.01164135168163733	0.1544913221915732	-0.8829283596970159	-3
2.419999999999992	-0.01014120481318887	0.1454769752191848	-0.9195741286036687	-3
2.429999999999992	-0.0087329966422685	0.1361073249870704	-0.9539745167550119	-3
2.439999999999992	-0.007420166506070863	0.1264052508714468	-0.9860453467300857	-3
2.449999999999992	-0.006205920833628037	0.1163944455995942	-1.015708158518451	-3
2.459999999999992	-0.005093225301387038	0.1060993571165695	-1.042890398915078	-3
2.469999999999991	-0.004084797579344372	0.09554512863177786	-1.067525596099063	-3
2.479999999999991	-0.003183100685192957	0.08475753699513169	-1.089553519090004	-3
2.489999999999991	-0.002390336962424823	0.07376292955538402	-1.108920321815249	-3
2.499999999999991	-0.0017084426967944	0.06258815965570888	-1.125578671557915	-3
2.50999999999999	-0.001139083383985574	0.05126052092372786	-1.139487861589634	-3
2.51999999999999	-0.0005669419064005057	0.06314447931725921	1.181165322468721	3
2.52999999999999	0.0001232920572533145	0.07487420988198709	1.164303202917128	3
2.53999999999999	0.0009299326383563511	0.08642106320509584	1.144597322042178	3
2.54999999999999	0.00185100965013082	0.09775683666023713	1.122095827427562	3
2.559999999999989	0.002884273401448601	0.1088538434061119	1.096853708109101	3
2.569999999999989	0.004027200194646383	0.119684980161744	1.068932663980457	3
2.579999999999989	0.005276998494290142	0.1302237935937866	1.038400958827399	3
2.589999999999989	0.006630615752194185	0.1404445451532069	1.005333257208267	3
2.599999999999989	0.008084745872384936	0.1503222742010518	0.9698104454358059	3
2.609999999999988	0.009635837298110114	0.1598328592657548	0.9319194369561998	3
2.619999999999988	0.01128010170143402	0.168953077277615	0.8917529624649685	3
2.629999999999988	0.01301352325443377	0.1776606606297086	0.8494093451460054	3
2.639999999999988	0.01483186845952396	0.1859343519186008	0.8049922614693479	3
2.649999999999987	0.01673069651499367	0.193753956222836	0.7586104880347367	3
2.659999999999987	0.01870537019044457	0.2011003907823217	0.7103776350012607	3
2.669999999999987	0.02075106718547813	0.2079557319473941	0.6604118666978185	3
2.679999999999987	0.02286279194369837	0.2143032592725772	0.6088356100641423	3
2.689999999999987	0.02503538789288012	0.220127496636818	0.5557752516270743	3
2.699999999999986	0.02726355008100671	0.2254142502793003	0.5013608237709302	3
2.709999999999986	0.02954183817681096	0.2301506436477931	0.4457256811134063	3
2.719999999999986	0.03186468980246419	0.2343251489648553	0.389006167848825	3
2.729999999999986	0.03422643416515517	0.2379276154260793	0.3313412769678591	3
2.739999999999986	0.03662130595348895	0.2409492939538674	0.2728723023064395	3
2.749999999999985	0.03904345946391868	0.2433828584399603	0.2137424844157425	3
2.759999999999985	0.04148698292180595	0.2452224234200331	0.1540966512792432	3
2.769999999999985	0.04394591296119031	0.2464635581340813	0.09408085493130657	3
2.779999999999985	0.0464142492269386	0.2471032969369788	0.03384200505416531	3
2.789999999999984	0.04888596906264298	0.247140146034446	-0.02647249935402704	3
2.799999999999984	0.05135504224744371	0.2465740865306429	-0.08671513913832217	3
2.809999999999984	0.05381544574486991	0.2454065737846345	-0.1467386438695135	3
2.819999999999984	0.05626117842681916	0.2436405330839961	-0.206396359351358	3
2.829999999999984	0.05868627573593439	0.2412803516547575	-0.2655426126658688	3
2.839999999999983	0.06108482424988234	0.2383318670376617	-0.3240330736890797	3
2.849999999999983	0.06345097611139076	0.2348023518712679	-0.3817251120353465	3
2.859999999999983	0.06577896328835828	0.2307004951326914	-0.4384781484201997	3
2.869999999999983	0.06806311162890881	0.2260363798966906	-0.4941539994695258	3
2.879999999999983	0.07029785467691731	0.2208214576833216	-0.5486172150458943	3
2.889999999999982	0.07247774721428159	0.2150685194734373	-0.6017354072105011	3
2.899999999999982	0.07459747849705095	0.20879166347987	-0.6533795699907639	3
2.909999999999982	0.07665188515344129	0.2020062597701633	-0.7034243891783895	3
2.919999999999982	0.07863596371276282	0.1947289118441868	-0.7517485414398304	3
2.929999999999982	0.08054488273535504	0.1869774152768566	-0.7982349820797651	3
2.939999999999981	0.08237399451475731	0.1787707135424808	-0.8427712208576761	3
2.949999999999981	0.08411884632453821	0.1701288511429502	-0.8852495853169884	3
2.959999999999981	0.08577519118345452	0.1610729241671068	-0.9255674711447986	3
2.969999999999981	0.08733899811390747	0.1516250284131568	-0.9636275791371975	3
2.97999999999998	0.08880646187000292	0.1418082052099666	-0.9993381383999639	3
2.98999999999998	0.09017401211289788	0.1316463850765225	-1.032613115466297	3
2.99999999999998	0.09143832201252394	0.1211643293617709	-1.06337240906176	3
3.00999999999998	0.09259631625621302	0.1103875700095292	-1.091542030291403	3
3.01999999999998	0.09364517844620815	0.09934234759519811	-1.117054268064534	3
3.029999999999979	0.09458235786951813	0.08805554778267058	-1.139847839608895	3
3.039999999999979	0.09540557562506564	0.07655463635114867	-1.159868025957741	3
3.049999999999979	0.09611283009458071	0.06486759294260797	-1.177066792320519	3
3.059999999999979	0.09670240174520311	0.05302284368142203	-1.191402893270729	3
3.069999999999979	0.09717285725327539	0.04104919281822825	-1.202841962703188	3
3.079999999999978	0.0975230529403308	0.02897575355051696	-1.21135658852764	3
3.089999999999978	0.09775213751380732	0.01683187817269732	-1.216926372076913	3
3.099999999999978	0.09785955410654673	0.004647087708568602	-1.219537972215976	3
3.109999999999978	0.09784504161066808	-0.007548998820768727	-1.219185134143943	3
3.119999999999977	0.09770863530293536	-0.01972673534046818	-1.215868702884863	3
3.129999999999977	0.09745066676027028	-0.03185651972383623	-1.209596621465575	3
3.139999999999977	0.09707176306559241	-0.04390886469944544	-1.200383913780892	3
3.149999999999977	0.09657284530570004	-0.05585446851034424	-1.188252652148259	3
3.159999999999977	0.09595512636443643	-0.06766428517227974	-1.173231909556881	3
3.169999999999976	0.09522010801591628	-0.07930959417791988	-1.155357696620379	3
3.179999999999976	0.09436957732411719	-0.09076206949418053	-1.134672883248339	3
3.189999999999976	0.0934056023566686	-0.1019938476999588	-1.111227105060938	3
3.199999999999976	0.0923305272221966	-0.1129775951118729	-1.085076654582857	3
3.209999999999976	0.09114696644210464	-0.1236865737460462	-1.056284357268338	3
3.219999999999975	0.08985779866918715	-0.1340947059645864	-1.024919432428879	3
3.229999999999975	0.08846615976698249	-0.1441766376562401	-0.9910573391588887	3
3.239999999999975	0.0869754352652716	-0.1539077998017975	-0.9547796073830082	3
3.249999999999975	0.08538925220861629	-0.1632644682762143	-0.9161736541815276	3
3.259999999999974	0.08371147041630315	-0.1722238217411702	-0.8753325855877024	3
3.269999999999974	0.08194617317351124	-0.1807639974839212	-0.8323549840922883	3
3.279999999999974	0.08009765737495085	-0.1888641450608849	-0.7873446821363446	3
3.289999999999974	0.07817042314362123	-0.1965044776074502	-0.740410521922684	3
3.299999999999974	0.07616916294870306	-0.2036663206790682	-0.6916661019290062	3
3.309999999999973	0.07409875024793061	-0.2103321584927855	-0.6412295105610849	3
3.319999999999973	0.07196422768107415	-0.216485677443051	-0.5892230474417983	3
3.329999999999973	0.06977079484239908	-0.2221118067708789	-0.5357729328906281	3
3.339999999999973	0.06752379566114881	-0.2271967562712927	-0.4810090062077282	3
3.349999999999973	0.06522870542021721	-0.231728050930414	-0.425064413436	3
3.359999999999972	0.0628911174442284	-0.2356945623905883	-0.368075285333002	3
3.369999999999972	0.06051672948922025	-0.2390865371495402	-0.3101804063411894	3
3.379999999999972	0.05811132986702721	-0.2418956214077126	-0.2515208753990008	3
3.389999999999972	0.0556807833382743	-0.2441148824866226	-0.1922397594860691	3
3.399999999999971	0.05323101680861959	-0.2457388267502373	-0.1324817408424188	3
3.409999999999971	0.05076800486351531	-0.2467634139709873	-0.072392758843358	3
3.419999999999971	0.04829775517729143	-0.2471860680920352	-0.01211964754820176	3
3.429999999999971	0.04582629383279815	-0.2470056843477587	0.04819023002854585	3
3.439999999999971	0.04335965058817134	-0.24622263271502	0.108389349850811	3
3.44999999999997	0.04090384412750503	-0.244838757678611	0.1683303959092407	3
3.45999999999997	0.03846486733232672	-0.2428573743052265	0.2278666292836	3
3.46999999999997	0.03604867261077258	-0.2402832606313418	0.2868522561153374	3
3.47999999999997	0.03366115732125045	-0.2371226463814026	0.3451427933901142	3
3.48999999999997	0.03130814932716001	-0.233383198043685	0.4025954314407517	3
3.499999999999969	0.02899539271891134	-0.2290740003420008	0.4590693920985137	3
3.509999999999969	0.02672853373904832	-0.2242055341520266	0.5144262814444801	3
3.519999999999969	0.02451310694574354	-0.2187896509213766	0.568530436142655	3
3.529999999999969	0.02235452164928972	-0.2128395436625473	0.6212492623718037	3
3.539999999999969	0.02025804865547315	-0.2063697145974964	0.6724535664133025	3
3.549999999999968	0.01822880734888022	-0.1993959395418242	0.7220178759968189	3
3.559999999999968	0.01627175314826481	-0.1919352291252738	0.7698207515537595	3
3.569999999999968	0.01439166536509486	-0.184005786953507	0.8157450865793752	3
3.579999999999968	0.0125931354953085	-0.1756269648238493	0.8596783963574586	3
3.589999999999967	0.01088055597314614	-0.166819215114878	0.9015130943559864	3
3.599999999999967	0.009258109414692942	-0.1576040404763763	0.9411467556570599	3
3.609999999999967	0.007729758377469748	-0.1480039409522615	0.9784823668394478	3
3.619999999999967	0.006299235661056396	-0.1380423586746462	1.013428561786242	3
3.629999999999967	0.004970035172324145	-0.127743620272196	1.045899842942984	3
3.639999999999966	0.003745403377399558	-0.1171328771404394	1.075816787602633	3
3.649999999999966	0.00262833136098519	-0.1062360437256764	1.103106238842432	3
3.659999999999966	0.001621547512128032	-0.09507973397764664	1.127701480783716	3
3.669999999999966	0.0007275108539593164	-0.08369119612919462	1.149542397888791	3
3.679999999999966	-5.15949666666833e-05	-0.07209824596382018	1.168575618048935	3
3.689999999999965	-0.0007138670153277985	-0.06032919873428012	1.184754639254331	3
3.699999999999965	-0.001257687719317523	-0.04841279989732544	1.198039939670322	3
3.709999999999965	-0.001681728819050564	-0.03637815483126106	1.208399070974906	3
3.719999999999965	-0.001984954612257623	-0.02425465770432413	1.215806734840094	3
3.729999999999964	-0.002166624483322019	-0.01207191966292398	1.220244842464858	3
3.739999999999964	-0.00222629471180546	0.0001403034904076707	1.221702557090374	3
3.749999999999964	-0.00216381955591182	0.01235218395892134	1.220176319449405	3
3.759999999999964	-0.001979351608344228	0.02453389478259308	1.215669856121557	3
3.769999999999964	-0.001673341423720017	0.03665568266710358	1.208194170785224	3
3.779999999999963	-0.001246536418418259	0.0486879406398524	1.197767518375833	3
3.789999999999963	-0.0006999790454438205	0.06060128036219765	1.184415362179111	3
3.799999999999963	-3.50042485982114e-05	0.07236660392749746	1.168170313907993	3
3.809999999999963	0.0007467637980510464	0.08395517497512038	1.149072056832982	3
3.819999999999963	0.001643415657716342	0.09533868895140318	1.12716725205877	3
3.829999999999962	0.002652761296079826	0.1064893423495867	1.10250942806511	3
3.839999999999962	0.003772335433082505	0.1173799007620765	1.075158853657692	3
3.849999999999962	0.004999403568609107	0.1279837655799842	1.045182394505365	3
3.859999999999962	0.006330968667724228	0.1382750391768316	1.012653353473711	3
3.869999999999961	0.007763778489495129	0.1482285884155864	0.9776512950017852	3
3.879999999999961	0.009294333541841287	0.157820106320857	0.9402618538088727	3
3.889999999999961	0.01091889564328409	0.1670261717611623	0.9005765282612131	3
3.899999999999961	0.01263349707093652	0.1758243069897152	0.8586924587747534	3
3.909999999999961	0.01443395027257655	0.1841930328961624	0.8147121916786866	3
3.91999999999996	0.01631585811919474	0.1921119218262247	0.7687434290156219	3
3.92999999999996	0.01827462467300027	0.1995616478312031	0.7208987648071027	3
3.93999999999996	0.02030546644451691	0.206524034214872	0.6712954083674334	3
3.94999999999996	0.02240342411110566	0.2129820982513884	0.6200548953037154	3
3.95999999999996	0.02456337466801976	0.2189200929544959	0.5673027868950059	3
3.969999999999959	0.02678004398193624	0.2243235457855078	0.5131683585979022	3
3.979999999999959	0.02904801971582132	0.2291792941952913	0.4577842784788531	3
3.989999999999959	0.03136176459297978	0.233475517903734	0.4012862764244055	3
3.999999999999959	0.03371562996721714	0.2372017678289315	0.3438128050286288	3
4.009999999999959	0.03610386966521101	0.2403489915875486	0.2855046931014147	3
4.019999999999959	0.03852065406645025	0.2429095554974521	0.2265047927815302	3
4.029999999999959	0.0409600843854633	0.2448772630237317	0.1669576212735075	3
4.039999999999958	0.04341620712051588	0.2462473696195678	0.1070089982572673	3
4.049999999999958	0.04588302863252965	0.2470165939240197	0.04680568004301097	3
4.059999999999958	0.04835452981764578	0.2471831252896257	-0.01350500843875276	3
4.069999999999958	0.05082468083664159	0.2467466276236607	-0.07377554271166757	3
4.079999999999957	0.05328745586430222	0.2457082395379269	-0.1338585677885397	3
4.089999999999957	0.05573684782185281	0.2440705708129808	-0.1936072660664927	3
4.099999999999957	0.05816688305567085	0.2418376951936544	-0.2528757229924664	3
4.109999999999957	0.0605716359257211	0.2390151395435467	-0.3115192894267848	3
4.119999999999957	0.06294524326748542	0.2356098693967677	-0.3693949396568101	3
4.129999999999956	0.06528191869159468	0.2316302709555491	-0.4263616240433107	3
4.139999999999956	0.06757596668590617	0.2270861295923308	-0.4822806153187433	3
4.149999999999956	0.06982179648540469	0.2219886049245357	-0.5370158475985919	3
4.159999999999956	0.07201393567603352	0.2163502025394043	-0.5904342472136332	3
4.169999999999956	0.07414704349937896	0.2101847424549285	-0.6424060545217897	3
4.179999999999955	0.07621592382603404	0.2035073244110737	-0.6928051359123741	3
4.189999999999955	0.07821553776644685	0.1963342900930635	-0.7415092852722066	3
4.199999999999955	0.08014101588911267	0.1886831823955187	-0.7884005142415367	3
4.209999999999955	0.08198767001708925	0.1805727018426672	-0.8333653306470113	3
4.219999999999954	0.0837510045749966	0.1720226602856672	-0.8762950045584661	3
4.229999999999954	0.08542672745989982	0.1630539320033297	-0.9170858214750441	3
4.239999999999954	0.08701076041075992	0.1536884023371757	-0.9556393222035979	3
4.249999999999954	0.08849924885246792	0.1439489139958631	-0.9918625290475734	3
4.259999999999954	0.08988857119184622	0.1338592111675638	-1.025668157977152	3
4.269999999999953	0.09117534754440242	0.1234438815819198	-1.056974816500736	3
4.279999999999953	0.0923564478720505	0.1127282966657717	-1.085707187003394	3
4.289999999999953	0.09342899951346709	0.1017385499389882	-1.111796195359445	3
4.299999999999953	0.09439039409022275	0.0905013937984615	-1.13517916466349	3
4.309999999999953	0.09523829377331641	0.07904417483972553	-1.155799953956928	3
4.319999999999952	0.0959706368962409	0.06739476786673634	-1.173609081855213	3
4.329999999999952	0.09658564290221751	0.05558150874118135	-1.188563835004848	3
4.339999999999952	0.09708181661475433	0.04363312622329097	-1.200628361318697	3
4.349999999999952	0.09745795182220514	0.03157867295656099	-1.209773747953681	3
4.359999999999951	0.09771313416853115	0.01944745574908974	-1.215978084006921	3
4.369999999999951	0.09784674334399635	0.007268965304427855	-1.219226507915156	3
4.379999999999951	0.09785845457105627	-0.004927194445043208	-1.21951123954846	3
4.389999999999951	0.09774823938223123	-0.01711137724911956	-1.216831596993371	3
4.399999999999951	0.09751636568828535	-0.029253965542052	-1.211193998023317	3
4.40999999999995	0.09716339713656459	-0.04132544138296216	-1.202611946256119	3
4.41999999999995	0.09669019176087792	-0.05329645718127563	-1.191106002000347	3
4.42999999999995	0.096097899925837	-0.06513790605407917	-1.176703737794765	3
4.43999999999995	0.09538796157010035	-0.07682099166236922	-1.159439678648904	3
4.44999999999995	0.09456210275449775	-0.0883172973732666	-1.139355226998592	3
4.459999999999949	0.09362233152253935	-0.09959885459544851	-1.116498572398444	3
4.469999999999949	0.09257093308233968	-0.1106382101353239	-1.090924585984676	3
4.479999999999949	0.09141046432051018	-0.1214084924218818	-1.06269469975639	3
4.489999999999949	0.09014374766009127	-0.1318834764487151	-1.031876770742264	3
4.499999999999948	0.08877386427610676	-0.1420376472825017	-0.9985449301424715	3
4.509999999999948	0.08730414668382541	-0.1518462619882569	-0.9627794175630435	3
4.519999999999948	0.08573817071630482	-0.1612854098229979	-0.9246664004917098	3
4.529999999999948	0.08407974690926868	-0.1703320705511308	-0.884297779200592	3
4.539999999999948	0.08233291131282515	-0.1789641707369218	-0.8417709773018074	3
4.549999999999947	0.08050191575096856	-0.187160637871899	-0.7971887182268566	3
4.559999999999947	0.07859121755121391	-0.1949014521979759	-0.7506587879492883	3
4.569999999999947	0.07660546876808867	-0.2021676960905445	-0.7022937843221065	3
4.579999999999947	0.07454950492554467	-0.2089416008697676	-0.6522108534561776	3
4.589999999999947	0.07242833330464825	-0.2152065909128507	-0.6005314136229619	3
4.599999999999946	0.07024712080415377	-0.2209473249451958	-0.5473808672234514	3
4.609999999999946	0.06801118140275871	-0.2261497343940557	-0.4928883014246044	3
4.619999999999946	0.06572596325297109	-0.2308010586946196	-0.4371861781240224	3
4.629999999999946	0.06339703543758683	-0.2348898774453589	-0.380410013962253	3
4.639999999999946	0.06103007442076929	-0.2384061393169475	-0.3226980511592156	3
4.649999999999945	0.05863085022664042	-0.2413411876271072	-0.2641909200059258	3
4.659999999999945	0.05620521237912707	-0.2436877825023048	-0.2050312938941811	3
4.669999999999945	0.05375907563755165	-0.2454401195562933	-0.1453635378144505	3
4.679999999999945	0.05129840556310927	-0.2465938450250107	-0.08533335129510551	3
4.689999999999944	0.04882920395192898	-0.2471460673072758	-0.02508740679378723	3
4.699999999999944	0.04635749417087137	-0.2470953648709908	0.03522701541649853	3
4.709999999999944	0.04388930643256488	-0.2464417904951197	0.09546239479844411	3
4.719999999999944	0.04143066304642702	-0.2451868718284938	0.1554713394516882	3
4.729999999999944	0.0389875636825513	-0.2433336082574296	0.2151069552653371	3
4.739999999999943	0.03656597068536604	-0.2408864640851632	0.2742232142179437	3
4.749999999999943	0.03417179447388587	-0.2378513580371419	0.3326753207233425	3
4.759999999999943	0.03181087906518131	-0.2342356491171845	0.3903200749299323	3
4.769999999999943	0.0294889877573874	-0.2300481188503751	0.4470162318969987	3
4.779999999999943	0.02721178900816038	-0.2252989499592113	0.5026248555942031	3
4.789999999999942	0.0249848425439736	-0.2199997015299264	0.5570096666989552	3
4.799999999999942	0.02281358573502427	-0.2141632807359939	0.6100373832006387	3
4.809999999999942	0.02070332026980352	-0.2078039111955387	0.6615780528599217	3
4.819999999999942	0.0186591991625681	-0.2009370980486825	0.7115053766150737	3
4.829999999999941	0.01668621412604719	-0.1935795898496979	0.75969702207461	3
4.839999999999941	0.01478918334072689	-0.1857493373772026	0.8060349262859953	3
4.849999999999941	0.01297273965098278	-0.1774654494734646	0.8504055870228048	3
4.859999999999941	0.01124131921718368	-0.1687481460311979	0.8927003418869037	3
4.869999999999941	0.009599150651671067	-0.1596187082529864	0.9328156345771693	3
4.87999999999994	0.008050244665236444	-0.150099426314683	0.9706532677312787	3
4.88999999999994	0.006598384249376052	-0.1402135445697942	1.00612064180151	3
4.89999999999994	0.005247115418206632	-0.1299852044369832	1.039130979478694	3
4.90999999999994	0.003999738532480944	-0.1194393851174233	1.069603535229907	3
4.91999999999994	0.00285930022665362	-0.1086018422928302	1.097463789564691	3
4.929999999999939	0.001828585958421146	-0.09749904495862004	1.122643627691215	3
4.939999999999939	0.0009101131985991417	-0.08615811054980088	1.145081502267494	3
4.949999999999939	0.0001061252776099374	-0.07460673851995346	1.164722579993402	3
4.959999999999939	-0.000581414096762157	-0.06287314253600529	1.181518871826651	3
4.969999999999938	-0.001150825637327808	-0.05098598145349952	1.195429346640176	3
4.979999999999938	-0.001600718579797367	-0.03897428923872602	1.206420028169527	3
4.989999999999938	-0.00192999407973961	-0.0268674040054525	1.214464075127154	3
4.999999999999938	-0.002137847896183898	-0.01469489633509449	1.219541844386115	3
5.009999999999938	-0.002223772355547998	-0.002486497050018958	1.221640937159146	3
5.019999999999937	-0.002187557591274103	0.009727975389691907	1.220756228120506	3
5.029999999999937	-0.002029292056261118	0.02191868769526591	1.216889877438147	3
5.039999999999937	-0.001749362306890135	0.0340558645930763	1.210051325702951	3
5.049999999999937	-0.001348452059150095	0.04610986153227039	1.200257271760613	3
5.059999999999937	-0.0008275405190802719	0.0580512370853244	1.187531633470735	3
5.069999999999936	-0.0001878999914532757	0.06985082487100118	1.171905491437347	3
5.079999999999936	0.0005689072276749952	0.0814798048297327	1.153417015776027	3
5.089999999999936	0.001441032667225911	0.09290977368221189	1.132111376005249	3
5.099999999999936	0.00242634619715924	0.1041128144029767	1.108040634174396	3
5.109999999999935	0.003522441233648817	0.115061564542027	1.08126362136793	3
5.119999999999935	0.00472664062102457	0.1257292832290566	1.051845797755277	3
5.129999999999935	0.006036003176487593	0.1360899166967428	1.019859096388898	3
5.139999999999935	0.007447330881980049	0.1461181621617349	0.9853817509891983	3
5.149999999999935	0.008957176705990709	0.155789529904568	0.9484981079942351	3
5.159999999999934	0.01056185303650378	0.1650804033927138	0.9092984231946624	3
5.169999999999934	0.01225744070475752	0.1739680972944123	0.8678786433198139	3
5.179999999999934	0.01403979857797481	0.182430913234825	0.8243401729890113	3
5.189999999999934	0.01590457369776451	0.1904481931504407	0.7787896274927777	3
5.199999999999934	0.01784721193947617	0.1980003701025773	0.7313385719211799	3
5.209999999999933	0.0198629691664257	0.2050690164162591	0.6821032472105124	3
5.219999999999933	0.02194692285160171	0.211636889016738	0.6312042837343784	3
5.229999999999933	0.02409398413821758	0.2176879718424635	0.5787664031202883	3
5.239999999999933	0.02629891030929673	0.2232075152203884	0.5249181090274697	3
5.249999999999932	0.02855631763537577	0.2281820720971257	0.4697913676749483	3
5.259999999999932	0.0308606945683851	0.2325995310276173	0.4135212789603787	3
5.269999999999932	0.03320641524882637	0.2364491458316323	0.3562457390588174	3
5.279999999999932	0.0355877532925144	0.2397215618375266	0.2981050954359177	3
5.289999999999932	0.03799889582239318	0.2424088386422574	0.2392417952511691	3
5.299999999999931	0.04043395771027441	0.2445044693265822	0.1798000281631638	3
5.309999999999931	0.04288699599278813	0.2460033960746551	0.1199253645798425	3
5.319999999999931	0.04535202442537911	0.2469020221577921	0.05976439042171538	3
5.329999999999931	0.04782302813783457	0.2471982202529545	-0.0005356605152403355	3
5.339999999999931	0.05029397835458849	0.2468913370774353	-0.06082727549830869	3
5.34999999999993	0.05275884714291811	0.2459821943322485	-0.1209630319946207	3
5.35999999999993	0.05521162215212777	0.244473085957757	-0.1807959659038368	3
5.36999999999993	0.05764632130690635	0.242367771716051	-0.2401799377942479	3
5.37999999999993	0.06005700741824335	0.2396714671254436	-0.2989699960656788	3
5.38999999999993	0.0624378026755962	0.2363908297831049	-0.3570227359854365	3
5.399999999999929	0.06478290298441394	0.2325339421222535	-0.4141966535728324	3
5.409999999999929	0.06708659211363667	0.2281102906603984	-0.470352493343139	3
5.419999999999929	0.06934325561840467	0.2231307418048128	-0.5253535889626825	3
5.429999999999929	0.07154739450391896	0.2176075142906832	-0.5790661959125259	3
5.439999999999928	0.07369363859719419	0.2115541483361521	-0.6313598153081709	3
5.449999999999928	0.07577675959432836	0.2049854716067365	-0.682107508076203	3
5.459999999999928	0.07779168375187817	0.1979175620893145	-0.7311861987450012	3
5.469999999999928	0.07973350419196631	0.1903677079830126	-0.7784769681647573	3
5.479999999999928	0.08159749279185424	0.1823543647208765	-0.8238653345312782	3
5.489999999999927	0.08337911162988251	0.1738971092421694	-0.8672415221475583	3
5.499999999999927	0.08507402396090685	0.1650165916405015	-0.9085007174161039	3
5.509999999999927	0.08667810469563453	0.1557344843177785	-0.9475433116127644	3
5.519999999999927	0.08818745035958679	0.1460734287781664	-0.9842751300485961	3
5.529999999999927	0.08959838850877409	0.1360569801999363	-1.018607647279503	3
5.539999999999926	0.09090748658056561	0.1257095499262038	-1.050458188073417	3
5.549999999999926	0.0921115601596582	0.1150563460182421	-1.079750113891194	3
5.559999999999926	0.09320768064049861	0.1041233120172747	-1.106412994679814	3
5.569999999999926	0.09419318226898077	0.09293706406246825	-1.1303827658146	3
5.579999999999925	0.09506566854772511	0.08152482651431242	-1.151601870060815	3
5.589999999999925	0.09582301799074465	0.0699143662337154	-1.170019384454224	3
5.599999999999925	0.09646338921481031	0.05813392566802424	-1.185591132024863	3
5.609999999999925	0.09698522535634356	0.04621215489582892	-1.198279778308748	3
5.619999999999925	0.09738725780418561	0.03417804278287803	-1.208054912608559	3
5.629999999999924	0.09766850924011727	0.02206084740175615	-1.214893113977081	3
5.639999999999924	0.09782829598053121	0.009890025868186521	-1.218778001906582	3
5.649999999999924	0.09786622961418781	-0.00230483625304562	-1.219700271714008	3
5.659999999999924	0.09778221793251625	-0.01449409581947576	-1.217657714616373	3
5.669999999999924	0.09757646515045303	-0.02664812310653585	-1.212655222493718	3
5.679999999999923	0.09724947141734192	-0.0387373727741943	-1.204704777339052	3
5.689999999999923	0.09680203161895019	-0.05073245465153476	-1.193825425396567	3
5.699999999999923	0.09623523347318733	-0.0626042041861725	-1.180043235991771	3
5.709999999999923	0.09555045492364302	-0.07432375240545927	-1.163391245060622	3
5.719999999999922	0.09474936083659166	-0.08586259523652323	-1.143909383390021	3
5.729999999999922	0.09383389900863895	-0.09719266203235029	-1.121644389589719	3
5.739999999999922	0.09280629549371315	-0.1082863831513637	-1.096649707826225	3
5.749999999999922	0.09166904925962741	-0.1191167564383323	-1.068985370363415	3
5.759999999999922	0.09042492618595832	-0.12965741245497	-1.038717864972339	3
5.769999999999921	0.08907695241649931	-0.1398826783093216	-1.005919987294809	3
5.779999999999921	0.08762840708105128	-0.1497676399340037	-0.9706706782716894	3
5.789999999999921	0.08608281440280681	-0.159288202664628	-0.9330548467776963	3
5.799999999999921	0.08444393520906267	-0.168421149971329	-0.8931631776399217	3
5.809999999999921	0.08271575786445719	-0.1771442001982801	-0.8510919252570005	3
5.81999999999992	0.08090248864736829	-0.1854360611684739	-0.8069426930798514	3
5.82999999999992	0.07900854159152162	-0.1932764825138821	-0.7608221992627142	3
5.83999999999992	0.0770385278162406	-0.2006463055944565	-0.7128420288445265	3
5.84999999999992	0.07499724437011675	-0.2075275108732969	-0.6631183728748964	3
5.859999999999919	0.07288966261418407	-0.2139032626197408	-0.6117717549555814	3
5.869999999999919	0.07072091617193849	-0.2197579508171254	-0.5589267457266601	3
5.879999999999919	0.06849628847474913	-0.2250772301575619	-0.5047116658858873	3
5.889999999999919	0.06622119993235415	-0.2298480560122449	-0.4492582783892346	3
5.899999999999919	0.06390119475921478	-0.2340587172725942	-0.3927014705394892	3
5.909999999999918	0.0615419274885129	-0.2376988659648841	-0.3351789267273158	3
5.919999999999918	0.0591491492065107	-0.2407595435489389	-0.2768307926444277	3
5.929999999999918	0.05672869354084423	-0.2432332038199328	-0.2177993318407777	3
5.939999999999918	0.05428646243708714	-0.2451137323412977	-0.1582285755461446	3
5.949999999999918	0.05182841175859467	-0.2463964623461699	-0.09826396672046009	3
5.959999999999917	0.04936053674521432	-0.2470781870546484	-0.03805199933603924	3
5.969999999999917	0.04688885736692641	-0.2471571683643421	0.02226014607200544	3
5.979999999999917	0.04441940360885059	-0.2466331418821807	0.08252496952399055	3
5.989999999999917	0.04195820072432115	-0.2455073182762095	0.142595020299042	3
5.999999999999917	0.03951125449289226	-0.2437823809369906	0.2023232661266788	3
6.009999999999916	0.0370845365201831	-0.2414624799492445	0.2615634617632522	3
6.019999999999916	0.03468396961641142	-0.2385532223853985	0.3201705158505622	3
6.029999999999916	0.03231541329029211	-0.2350616589437072	0.3780008549616786	3
6.039999999999916	0.02998464939469653	-0.2309962669644867	0.4349127837535705	3
6.049999999999915	0.02769736796007886	-0.2263669298687134	0.4907668401672802	3
6.059999999999915	0.02545915325118102	-0.2211849130736959	0.5454261446437296	3
6.069999999999915	0.02327547008192936	-0.2154628364506876	0.5987567423563154	3
6.079999999999915	0.02115165042273835	-0.2092146433991088	0.6506279374996869	3
6.089999999999915	0.01909288033364251	-0.2024555666214439	0.7009126187168949	3
6.099999999999914	0.01710418725579213	-0.1952020906918253	0.7494875747937654	3
6.109999999999914	0.01519042769287513	-0.1874719115197803	0.796233799799175	3
6.119999999999914	0.013356275312973	-0.1792838928185739	0.8410367869021435	3
6.129999999999914	0.01160620950022629	-0.1706580196949976	0.8837868101505805	3
6.139999999999914	0.009944504384482153	-0.1616153494843384	0.9243791935513475	3
6.149999999999913	0.008375218375826912	-0.1521779599605848	0.9627145668463734	3
6.159999999999913	0.006902184229576631	-0.1423688950577078	0.9986991074341498	3
6.169999999999913	0.005528999665913695	-0.1322121082430943	1.032244767939432	3
6.179999999999913	0.004259018566922695	-0.1217324036889193	1.063269488985852	3
6.189999999999912	0.003095342772299552	-0.1109553753914441	1.091697396775856	3
6.199999999999912	0.002040814493488989	-0.0999073443919513	1.117458985129596	3
6.209999999999912	0.001098009364451701	-0.08861529425627865	1.140491281678744	3
6.219999999999912	0.000269230145678421	-0.07710680497275232	1.160737997952503	3
6.229999999999912	-0.0004434989035423913	-0.06540998543074975	1.178149663131208	3
6.239999999999911	-0.001038436971229457	-0.05355340464419235	1.192683741277854	3
6.249999999999911	-0.001514130945464339	-0.0415660218860038	1.204304731889692	3
6.259999999999911	-0.001869418963743771	-0.02947711590100038	1.212984253640951	3
6.269999999999911	-0.002103433250555241	-0.01731621336583719	1.218701111213893	3
6.279999999999911	-0.002215602236493376	-0.00511301676554028	1.221441345139277	3
6.28999999999991	-0.002205651953933564	0.007102668143166343	1.221198264589171	3
6.29999999999991	-0.002073606705983823	0.01930100511106262	1.217972463085419	3
6.30999999999991	-0.001819789007144232	0.03145220024721715	1.211771817106442	3
6.31999999999991	-0.001444818795813218	0.04352657477033006	1.202611467593881	3
6.329999999999909	-0.000949611920489869	0.0554946374897188	1.190513784379554	3
6.339999999999909	-0.0003353779032292458	0.06732715684533296	1.175508313572612	3
6.349999999999909	0.0003963830143885243	0.0789952323366849	1.157631707967441	3
6.359999999999909	0.001243883535816856	0.09047036517129782	1.136927640554952	3
6.369999999999909	0.00220505367598103	0.1017245279642183	1.113446701244147	3
6.379999999999908	0.003277545819269504	0.1127302333213401	1.087246276927434	3
6.389999999999908	0.00445874045708609	0.1234606011407659	1.058390415052504	3
6.399999999999908	0.005745752591321819	0.1338894244682185	1.026949670895935	3
6.409999999999908	0.007135438788475777	0.1439912337446425	0.9930009387691028	3
6.419999999999908	0.008624404867547722	0.1537413592866321	0.9566272674256452	3
6.429999999999907	0.01020901420324585	0.1631159918432175	0.9179176599815294	3
6.439999999999907	0.01188539662450466	0.1720922410758804	0.8769668587036054	3
6.449999999999907	0.01364945788679514	0.1806481918124567	0.8338751150701538	3
6.459999999999907	0.01549688969523713	0.1887629579298739	0.7887479455570542	3
6.469999999999906	0.01742318025409664	0.1964167337254638	0.7416958736553543	3
6.479999999999906	0.01942362531687457	0.2035908426419163	0.6928341586797507	3
6.489999999999906	0.02149333970987288	0.2102677832168087	0.6422825119822123	3
6.499999999999906	0.02362726930086497	0.216431272134063	0.5901648012400303	3
6.509999999999906	0.02582020338330527	0.2220662842616501	0.5366087435423416	3
6.519999999999905	0.02806678744539311	0.2271590895673703	0.4817455880528449	3
6.529999999999905	0.03036153629226408	0.2316972868125776	0.4257097890783387	3
6.539999999999905	0.03269884748862301	0.2356698339322607	0.3686386704220597	3
6.549999999999905	0.03507301508826167	0.239067075018919	0.3106720819468921	3
6.559999999999905	0.03747824361612559	0.2418807638371317	0.2519520493156076	3
6.569999999999904	0.03990866226791225	0.2441040838055879	0.1926224179127337	3
6.579999999999904	0.04235833929160173	0.2457316643935499	0.1328284919848303	3
6.589999999999904	0.04482129651484248	0.2467595938892333	0.07271667006230105	3
6.599999999999904	0.04729152398174349	0.2471854285083181	0.01243407774598202	3
6.609999999999904	0.04976299466236073	0.2470081978217168	-0.04787180104480123	3
6.619999999999903	0.0522296791980118	0.2462284064927255	-0.1080534932594327	3
6.629999999999903	0.05468556064550924	0.2448480323247243	-0.1679639052356728	3
6.639999999999903	0.05712464918346975	0.2428705206315873	-0.2274566894565659	3
6.649999999999903	0.05954099674403254	0.2403007749538472	-0.2863866084639355	3
6.659999999999902	0.06192871153360439	0.2371451441543674	-0.3446098948692455	3
6.669999999999902	0.06428197240663887	0.2334114059377273	-0.4019846064305239	3
6.679999999999902	0.06659504305695027	0.2291087468476809	-0.458370975198136	3
6.689999999999902	0.06886228599165591	0.2242477388068194	-0.5136317497718906	3
6.699999999999902	0.07107817625352832	0.2188403122719299	-0.5676325297567087	3
6.709999999999901	0.07323731485831936	0.2128997260874246	-0.6202420915532263	3
6.719999999999901	0.07533444191448363	0.2064405341275901	-0.671332704672487	3
6.729999999999901	0.07736444939367618	0.1994785488262407	-0.7207804378195769	3
6.739999999999901	0.07932239352142191	0.1920308016996193	-0.7684654540488349	3
6.749999999999901	0.08120350675844651	0.1841155009750743	-0.8142722943523097	3
6.7599999999999	0.08300320934431479	0.1757519864441214	-0.8580901491026877	3
6.7699999999999	0.08471712037623666	0.1669606816639931	-0.8998131168310529	3
6.7799999999999	0.08634106839716654	0.1577630436366838	-0.9393404498779712	3
6.7899999999999	0.08787110146863476	0.1481815100988284	-0.976576786512619	3
6.799999999999899	0.08930349670510171	0.1382394445595362	-1.011432369168508	3
6.809999999999899	0.09063476924801388	0.1279610792265568	-1.043823248495108	3
6.819999999999899	0.09186168065915859	0.1173714559639256	-1.073671472971897	3
6.829999999999899	0.09298124671435785	0.1064963654265496	-1.100905263874652	3
6.839999999999899	0.09399074458000607	0.09536228451909683	-1.125459175422862	3
6.849999999999898	0.09488771935643805	0.08399631232808817	-1.1472742399718	3
6.859999999999898	0.09566998997360898	0.07242610467729943	-1.166298098142883	3
6.869999999999898	0.09633565442607393	0.0606798074575142	-1.182485113811698	3
6.879999999999898	0.09688309433576872	0.04878598888236324	-1.195796473894298	3
6.889999999999898	0.09731097883261375	0.03677357082249106	-1.206200272889689	3
6.899999999999897	0.09761826774448677	0.02467175937064096	-1.2136715821498	3
6.909999999999897	0.09780421408963788	0.01250997479048387	-1.218192503858351	3
6.919999999999897	0.0978683658661488	0.0003177810021635502	-1.219752209707282	3
6.929999999999897	0.097810567134569	-0.0118751852423818	-1.218346964264285	3
6.939999999999896	0.09763095839139169	-0.02403928534121447	-1.213980133028269	3
6.949999999999896	0.09732997623256452	-0.0361449498281818	-1.206662175171786	3
6.959999999999896	0.09690835230776038	-0.04816274920956247	-1.196410620971286	3
6.969999999999896	0.09636711156766538	-0.06006346449846618	-1.183250033928256	3
6.979999999999896	0.095707569808072	-0.07181815729392335	-1.167211957587457	3
6.989999999999895	0.09493133051609522	-0.08339823925168618	-1.148334847063331	3
6.999999999999895	0.09404028102535897	-0.09477554079390652	-1.126663985292692	3
7.009999999999895	0.09303658798852756	-0.1059223789050842	-1.102251384041812	3
7.019999999999895	0.09192269217708067	-0.1168116238620236	-1.075155669709193	3
7.029999999999895	0.09070130261975153	-0.1274167647460322	-1.04544195398242	3
7.039999999999894	0.08937539009256162	-0.137711973586278	-1.01318168942851	3
7.049999999999894	0.08794817997489228	-0.1476721679841441	-0.9784525101226681	3
7.059999999999894	0.0864231444875289	-0.1572730720696108	-0.9413380574502342	3
7.069999999999894	0.08480399433009644	-0.166491275642212	-0.9019277912510375	3
7.079999999999893	0.08309466973676988	-0.1753042913509976	-0.8603167865141876	3
7.089999999999893	0.081299330970588	-0.1836906097702229	-0.8166055158744204	3
7.099999999999893	0.07942234827811866	-0.1916297522302306	-0.7708996182081463	3
7.109999999999893	0.07746829132761267	-0.1991023212662235	-0.7233096536779369	3
7.119999999999893	0.0754419181551388	-0.2060900485513777	-0.6739508456278313	3
7.129999999999892	0.0733481636445064	-0.2125758401850494	-0.6229428097880197	3
7.139999999999892	0.07119212756805082	-0.2185438192117036	-0.570409271305457	3
7.149999999999892	0.06897906221657396	-0.2239793652516525	-0.5164777701761	3
7.159999999999892	0.06671435964789121	-0.2288691511307459	-0.4612793557139928	3
7.169999999999892	0.06440353858453227	-0.233201176402806	-0.4049482707515136	3
7.179999999999891	0.06205223099216937	-0.2369647976658306	-0.3476216263229757	3
7.189999999999891	0.0596661683712981	-0.2401507555807936	-0.2894390676395653	3
7.199999999999891	0.05725116779556571	-0.2427511985102168	-0.2305424322166093	3
7.209999999999891	0.05481311773092706	-0.2447597027025512	-0.17107540106346	3
7.219999999999891	0.05235796367050091	-0.2461712889577314	-0.1111831438913122	3
7.22999999999989	0.0498916936205977	-0.2469824357190309	-0.05101195933423413	3
7.23999999999989	0.04742032347388792	-0.247191088546471	0.009291088786924967	3
7.24999999999989	0.0449498823060761	-0.2467966659374806	0.06957853809981183	3
7.25999999999989	0.04248639763273469	-0.2458000614712001	0.1297028961353369	3
7.269999999999889	0.04003588066313445	-0.2442036422636951	0.1895170095072896	3
7.279999999999889	0.03760431158797986	-0.2420112437323439	0.2488744327142309	3
7.289999999999889	0.03519762493792074	-0.2392281606786926	0.3076297954602423	3
7.299999999999889	0.03282169504956288	-0.2358611347100856	0.3656391673973199	3
7.309999999999889	0.03048232167544298	-0.2319183380312875	0.4227604192053072	3
7.319999999999888	0.02818521577406688	-0.2274093536480633	0.4788535789450333	3
7.329999999999888	0.02593598551563797	-0.2223451520351993	0.5337811826463534	3
7.339999999999888	0.02374012253852587	-0.2167380643316776	0.5874086181246879	3
7.349999999999888	0.0216029884908493	-0.2106017521355982	0.6396044610568188	3
7.359999999999888	0.01952980189077273	-0.2039511739809287	0.6902408023885869	3
7.369999999999887	0.01752562533825036	-0.1968025485872112	0.739193566193016	3
7.379999999999887	0.01559535310999627	-0.1891733149819242	0.7863428171465954	3
7.389999999999887	0.01374369916842181	-0.1810820896032656	0.8315730568432416	3
7.399999999999887	0.01197518561416574	-0.172548620498659	0.8747735082190761	3
7.409999999999886	0.01029413161065377	-0.1635937387412808	0.9158383874158537	3
7.419999999999886	0.008704642807868824	-0.1542393071933554	0.9546671624659488	3
7.429999999999886	0.007210601291195917	-0.1445081667508576	0.9911647982365661	3
7.439999999999886	0.005815656079831602	-0.1344240802096174	1.025241987124611	3
7.449999999999886	0.004523214197823908	-0.1240116738976466	1.056815365045945	3
7.459999999999885	0.003336432339338168	-0.113296377222812	1.085807712312945	3
7.469999999999885	0.002258209148233568	-0.1023043602888042	1.112148139042083	3
7.479999999999885	0.001291178130488533	-0.09106246973570369	1.135772254778195	3
7.489999999999885	0.0004377012164351523	-0.07959816296436832	1.156622322064125	3
7.499999999999885	-0.0003001370118423584	-0.06793944090638152	1.174647393723189	3
7.509999999999884	-0.0009205344142185368	-0.05611477950344629	1.189803433657548	3
7.519999999999884	-0.001538683448620202	-0.06748985887004244	-1.129725811860382	-3
7.529999999999884	-0.002269782065446662	-0.07870009717387963	-1.111865418352526	-3
7.539999999999884	-0.003112044589123738	-0.08971811416645629	-1.091289380504684	-3
7.549999999999883	-0.004063413835026743	-0.1005169993606334	-1.068047987484713	-3
7.559999999999883	-0.005121566137399752	-0.1110703778922873	-1.042198053451813	-3
7.569999999999883	-0.006283917029641621	-0.1213524751055363	-1.013802781988413	-3
7.579999999999883	-0.007547627563403677	-0.131338179703723	-0.9829316148569645	-3
7.589999999999883	-0.00890961125137679	-0.1410031053105874	-0.9496600653247378	-3
7.599999999999882	-0.01036654161710264	-0.1503236502886818	-0.9140695363377279	-3
7.609999999999882	-0.01191486033362923	-0.1592770556650944	-0.8762471238655768	-3
7.619999999999882	-0.01355078593134827	-0.1678414610179802	-0.8362854057827486	-3
7.629999999999882	-0.0152703230539058	-0.1759959581812777	-0.7942822166968888	-3
7.639999999999882	-0.01706927223967292	-0.1837206426293355	-0.7503404091829968	-3
7.649999999999881	-0.01894324020490411	-0.1909966624080057	-0.7045676019313776	-3
7.659999999999881	-0.02088765060340264	-0.1978062644840909	-0.6570759153678272	-3
7.669999999999881	-0.02289775523626026	-0.2041328383908735	-0.607981695355627	-3
7.679999999999881	-0.02496864568404667	-0.2099609570538049	-0.5574052256400791	-3
7.68999999999988	-0.02709526533269943	-0.2152764146872966	-0.5054704297468959	-3
7.69999999999988	-0.02927242176331016	-0.2200662616609136	-0.4523045630950974	-3
7.70999999999988	-0.0314947994750254	-0.2243188362411168	-0.3980378961325013	-3
7.71999999999988	-0.03375697290938251	-0.2280237931230099	-0.3428033893467475	-3
7.72999999999988	-0.03605341974358933	-0.2311721286752847	-0.2867363610464094	-3
7.739999999999879	-0.03837853441953339	-0.2337562028306986	-0.2299741488445039	-3
7.749999999999879	-0.04072664187467717	-0.235769757563909	-0.1726557658099982	-3
7.759999999999879	-0.04309201144046278	-0.2372079319082949	-0.1149215522812144	-3
7.769999999999879	-0.04546887087341583	-0.2380672734734493	-0.05691282435788089	-3
7.779999999999879	-0.0478514204838064	-0.2383457464352879	0.001228479894432693	-3
7.789999999999878	-0.05023384732649633	-0.2380427359811133	0.0593601554829286	-3
7.799999999999878	-0.05261033941847741	-0.2371590492024491	0.1173400857201957	-3
7.809999999999878	-0.05497509994758636	-0.2356969124389423	0.1750265966038108	-3
7.819999999999878	-0.05732236143696695	-0.2336599650870678	0.2322788093044022	-3
7.829999999999878	-0.05964639983003916	-0.2310532498976828	0.2889569897385724	-3
7.839999999999877	-0.06194154846102639	-0.2278831997966148	0.3449228942241929	-3
7.849999999999877	-0.06420221187648338	-0.2241576212723622	0.4000401102426167	-3
7.859999999999877	-0.06642287947375639	-0.2198856743845818	0.454174391364926	-3
7.869999999999877	-0.06859813892289063	-0.2150778494562826	0.5071939854369624	-3
7.879999999999876	-0.07072268933917361	-0.2097459405214899	0.5589699551600452	-3
7.889999999999876	-0.07279135417426315	-0.2039030156085485	0.6093764902503395	-3
7.899999999999876	-0.0747990937946905	-0.1975633839471596	0.658291210409142	-3
7.909999999999876	-0.07674101771744755	-0.190742560194664	0.7055954583882231	-3
7.919999999999876	-0.07861239647335705	-0.1834572257839795	0.7511745824880053	-3
7.929999999999875	-0.08040867306998112	-0.1757251875019467	0.7949182078811464	-3
7.939999999999875	-0.08212547402694036	-0.1675653334126346	0.8367204962091626	-3
7.949999999999875	-0.08375861995768789	-0.1589975862454129	0.876480392954503	-3
7.959999999999875	-0.08530413567300496	-0.1500428543722963	0.9141018621441216	-3
7.969999999999875	-0.08675825978275092	-0.1407229805032507	0.9494941079926631	-3
7.979999999999874	-0.08811745377370626	-0.1310606882318147	0.9825717831430666	-3
7.989999999999874	-0.08937841054268682	-0.121079526566577	1.013255183209424	-3
7.999999999999874	-0.09053806236547729	-0.1108038125867785	1.041470427370699	-3
8.009999999999874	-0.09159358828352623	-0.100258572362619	1.067149624804147	-3
8.019999999999873	-0.09254242089176071	-0.08946948028277206	1.090231026783814	-3
8.029999999999873	-0.09338225251231191	-0.07846279693319537	1.110659164301935	-3
8.039999999999873	-0.0941110407403906	-0.06726530567259625	1.128384971099666	-3
8.049999999999873	-0.09472701335000998	-0.05590424805092332	1.143365892018124	-3
8.059999999999873	-0.09522867254872147	-0.0444072582180384	1.155565976601483	-3
8.069999999999872	-0.09561479857200358	-0.03280229647031616	1.164955957901055	-3
8.079999999999872	-0.09588445260942367	-0.02111758208335813	1.171513316443161	-3
8.089999999999872	-0.09603697905617606	-0.009381525579321924	1.175222329334605	-3
8.099999999999872	-0.09607200708508608	0.002377339422415737	1.176074104488133	-3
8.109999999999872	-0.09598945153565776	0.01413042462240227	1.174066599956848	-3
8.119999999999871	-0.09578951311823146	0.0258491555771157	1.169204628371878	-3
8.129999999999871	-0.09547267793280795	0.03750504020485686	1.161499846481995	-3
8.139999999999871	-0.09503971630358486	0.0490697371125583	1.150970729798219	-3
8.149999999999871	-0.09449168093174096	0.06051512359459437	1.137642532351156	-3
8.15999999999987	-0.09382990437049239	0.07181336315478154	1.12154723157453	-3
8.16999999999987	-0.09305599582793249	0.08293697240292841	1.102723458335763	-3
8.17999999999987	-0.09217183730465163	0.09385888717754828	1.081216412143887	-3
8.18999999999987	-0.09117957907461621	0.1045525277467087	1.057077761577258	-3
8.19999999999987	-0.09008163451926333	0.1149918629394898	1.030365529988633	-3
8.209999999999869	-0.08888067432624015	0.1251514730611891	1.00114396656385	-3
8.219999999999869	-0.08757962006568118	0.1350066114462814	0.9694834028325676	-3
8.229999999999869	-0.08618163715837136	0.1445332645042531	0.9354600947557181	-3
8.239999999999869	-0.08469012725158502	0.1537082101148272	0.8991560505444905	-3
8.249999999999869	-0.0831087200198171	0.1625090742308067	0.8606588443997795	-3
8.259999999999868	-0.08144126440903091	0.170914385548844	0.820061416399066	-3
8.269999999999868	-0.07969181934443141	0.1789036281109182	0.7774618587994182	-3
8.279999999999868	-0.07786464392313124	0.1864572917022099	0.7329631890704252	-3
8.289999999999868	-0.07596418711440296	0.1935569199144432	0.686673110019041	-3
8.299999999999867	-0.07399507699150183	0.2001851557476332	0.6387037574190337	-3
8.309999999999867	-0.07196210952029217	0.2063257846275683	0.5891714356105127	-3
8.319999999999867	-0.06987023693111294	0.2119637747212803	0.5381963415891586	-3
8.329999999999867	-0.06772455570146912	0.217085314438227	0.4859022781598081	-3
8.339999999999867	-0.06553029417822789	0.2216778470109327	0.4324163567840348	-3
8.349999999999866	-0.06329279986902948	0.2257301020554028	0.3778686908058129	-3
8.359999999999866	-0.06101752643358378	0.2292321240187354	0.3223920797923501	-3
8.369999999999866	-0.05871002040641218	0.232175297428979	0.2661216857781084	-3
8.379999999999866	-0.05637590768340318	0.2345523688704119	0.2091947022480961	-3
8.389999999999866	-0.05402087980527617	0.2363574656160025	0.1517500167410724	-3
8.399999999999865	-0.05165068007168534	0.2375861108578226	0.0939278679937114	-3
8.409999999999865	-0.04927108952024126	0.2382352354855809	0.03586949858240983	-3
8.419999999999865	-0.04688791280517794	0.2383031863731638	-0.02228319595018521	-3
8.429999999999865	-0.04450696401074403	0.237789731143072	-0.08038802047217641	-3
8.439999999999864	-0.0421340524346474	0.236696059388857	-0.1383028351125465	-3
8.449999999999864	-0.03977496837702942	0.235024780346032	-0.1958859105416845	-3
8.459999999999864	-0.0374354689704882	0.2327799170123935	-0.2529962826336858	-3
8.469999999999864	-0.03512126408660838	0.2299668967291803	-0.3094941054624216	-3
8.479999999999864	-0.03283800235428819	0.226592538244945	-0.3652410015904152	-3
8.489999999999863	-0.03059125732488439	0.2226650352943607	-0.4201004086229481	-3
8.499999999999863	-0.02838651381882189	0.2181939367343722	-0.4739379210191865	-3
8.509999999999863	-0.02622915448784095	0.2131901232900579	-0.5266216261772426	-3
8.519999999999863	-0.02412444662648275	0.2076657809722554	-0.5780224338404548	-3
8.529999999999863	-0.02207752926574599	0.2016343712383574	-0.6280143979073363	-3
8.539999999999862	-0.02009340058108849	0.1951105979766659	-0.6764750297670298	-3
8.549999999999862	-0.01817690564610018	0.1881103714032631	-0.7232856023251096	-3
8.559999999999862	-0.01633272456224356	0.1806507689684808	-0.7683314439305452	-3
8.569999999999862	-0.01456536099404814	0.1727499933777015	-0.8115022214629324	-3
8.579999999999862	-0.01287913113806181	0.1644273278383866	-0.8526922118890101	-3
8.589999999999861	-0.01127815315270948	0.1557030886518815	-0.8918005616483859	-3
8.599999999999861	-0.00976633707499268	0.1465985752746915	-0.9287315332795879	-3
8.609999999999861	-0.008347375248688116	0.1371360179795592	-0.9633947387485222	-3
8.619999999999861	-0.00702473328737414	0.1273385232517973	-0.9957053589914689	-3
8.62999999999986	-0.005801641594235651	0.1172300170609699	-1.025584349233501	-3
8.63999999999986	-0.004681087459176041	0.1068351861521639	-1.052958629690117	-3
8.64999999999986	-0.003665807752303461	0.09617941750479508	-1.077761261304692	-3
8.65999999999986	-0.002758282231362594	0.08528873611014794	-1.099931606216612	-3
8.66999999999986	-0.001960727479156556	0.07418974122170292	-1.119415472694727	-3
8.679999999999859	-0.001275091485450358	0.06290954123476891	-1.136165244307623	-3
8.689999999999859	-0.0007030488862713297	0.05147568735405213	-1.150139993136418	-3
8.699999999999859	-0.0002459968719264536	0.03991610620957549	-1.161305576867214	-3
8.709999999999859	9.494822655528964e-05	0.0282590315828448	-1.169634719629218	-3
8.719999999999859	0.0003189536644726248	0.01653293540636358	-1.175107076471096	-3
8.729999999999858	0.0004254723175468014	0.004766458200548739	-1.177709281392569	-3
8.739999999999858	0.000414244018258867	-0.007011660887186003	-1.17743497887103	-3
8.749999999999858	0.0002852961912770545	-0.01877265427591766	-1.174284838844416	-3
8.759999999999858	3.894378647614999e-05	-0.03048779621172721	-1.168266555132101	-3
8.769999999999857	-0.000324211490293266	-0.0421284729296114	-1.159394827295731	-3
8.779999999999857	-0.0008032826468719695	-0.05366625255128631	-1.147691325962094	-3
8.789999999999857	-0.001397099571428281	-0.06507295455369905	-1.133184641650806	-3
8.799999999999857	-0.002104211890946593	-0.07632071864359971	-1.115910217171265	-3
8.809999999999857	-0.002922892514808668	-0.08738207287428364	-1.095910263676362	-3
8.819999999999856	-0.003851141855073994	-0.09823000084161186	-1.073233660485302	-3
8.829999999999856	-0.004886692713442671	-0.1088380077976739	-1.04793583881483	-3
8.839999999999856	-0.006027015823275323	-0.1191801855219945	-1.020078649587511	-3
8.849999999999856	-0.007269326033452552	-0.1292312757920308	-0.9897302155176817	-3
8.859999999999856	-0.008610589119284487	-0.1389667322968818	-0.9569647677103728	-3
8.869999999999855	-0.01004752920413259	-0.1483627808406728	-0.9218624670459606	-3
8.879999999999855	-0.01157663677388477	-0.1573964776850017	-0.8845092106635131	-3
8.889999999999855	-0.01319417726493517	-0.1660457658831751	-0.8449964238986157	-3
8.899999999999855	-0.01489620020486566	-0.1742895294627479	-0.8034208380766542	-3
8.909999999999854	-0.01667854888361215	-0.1821076453171195	-0.7598842546098523	-3
8.919999999999854	-0.01853687053152959	-0.1894810326716712	-0.7144932958953714	-3
8.929999999999854	-0.02046662697944998	-0.1963916999951505	-0.6673591435620748	-3
8.939999999999854	-0.02246310577456306	-0.2028227892327384	-0.6185972646645853	-3
8.949999999999854	-0.02452143172474461	-0.2087586172434813	-0.5683271264744668	-3
8.959999999999853	-0.02663657884281707	-0.2141847143315178	-0.5166719005691226	-3
8.969999999999853	-0.02880338266115798	-0.2190878597677894	-0.4637581569686622	-3
8.979999999999853	-0.03101655288607617	-0.2234561142066654	-0.4097155491188798	-3
8.989999999999853	-0.03327068636046145	-0.2272788489101253	-0.3546764905639573	-3
8.999999999999853	-0.03556028030238204	-0.2305467717007922	-0.2987758241948587	-3
9.009999999999852	-0.03787974578656266	-0.2332519495741651	-0.2421504849980207	-3
9.019999999999852	-0.04022342143502592	-0.2353878279098229	-0.1849391572632197	-3
9.029999999999852	-0.04258558728262602	-0.2369492462311096	-0.1272819272389272	-3
9.039999999999852	-0.04496047878274893	-0.23793245047282	-0.06931993224749017	-3
9.049999999999851	-0.04734230091809895	-0.2383351017266248	-0.0111950072907599	-3
9.059999999999851	-0.04972524238124101	-0.2381562814443457	0.04695066981105098	-3
9.069999999999851	-0.05210348978942137	-0.2373964930896538	0.1049749336986504	-3
9.079999999999851	-0.0544712418981474	-0.2360576602392531	0.1627359861230896	-3
9.089999999999851	-0.05682272377807033	-0.234143121145061	0.2200927489244493	-3
9.09999999999985	-0.05915220091988155	-0.2316576197792427	0.2769052143124718	-3
9.10999999999985	-0.06145399323220285	-0.2286072933941388	0.3330347914416242	-3
9.11999999999985	-0.06372248889782127	-0.2249996566390711	0.3883446482988944	-3
9.12999999999985	-0.06595215805408769	-0.2208435822856824	0.4427000479540315	-3
9.13999999999985	-0.06813756626386179	-0.2161492786227842	0.495968678258545	-3
9.149999999999849	-0.07027338774404068	-0.2109282635906243	0.5480209741210066	-3
9.159999999999849	-0.07235441831945065	-0.2051933357329872	0.5987304315314883	-3
9.169999999999849	-0.074375588070706	-0.1989585420535676	0.6479739125566348	-3
9.179999999999849	-0.07633197364554163	-0.1922391428705933	0.6956319405782452	-3
9.189999999999849	-0.07821881020410096	-0.1850515737706737	0.7415889851015749	-3
9.199999999999848	-0.08003150296970371	-0.1774134047693203	0.7857337355141661	-3
9.209999999999848	-0.08176563835772221	-0.1693432967914994	0.8279593632310956	-3
9.219999999999848	-0.08341699465635606	-0.1608609555909445	0.8681637717173923	-3
9.229999999999848	-0.08498155223430655	-0.1519870832317786	0.9062498339323689	-3
9.239999999999847	-0.08645550325161	-0.1427433272602826	0.9421256167929951	-3
9.249999999999847	-0.08783526085118634	-0.1331522276984244	0.9757045923037542	-3
9.259999999999847	-0.08911746780999273	-0.1232371619940475	1.006905835048002	-3
9.269999999999847	-0.09029900463003508	-0.1130222880654402	1.035654205780376	-3
9.279999999999847	-0.09137699705088012	-0.1025324855804067	1.061880520900833	-3
9.289999999999846	-0.09234882296672217	-0.09179329561196325	1.085521707628179	-3
9.299999999999846	-0.09321211873248846	-0.0808308588144331	1.106520944724353	-3
9.309999999999846	-0.09396478484491147	-0.06967185226505464	1.124827788650092	-3
9.319999999999846	-0.09460499098595375	-0.05834342511727622	1.140398285058059	-3
9.329999999999846	-0.09513118041743622	-0.04687313321274218	1.153195065551046	-3
9.339999999999845	-0.09554207371719475	-0.03528887279960491	1.16318742965079	-3
9.349999999999845	-0.09583667184856849	-0.02361881350526721	1.170351411937518	-3
9.359999999999845	-0.09601425855650611	-0.01189133071199764	1.174669834331891	-3
9.369999999999845	-0.09607440208506199	-0.0001349374840979769	1.176132343500076	-3
9.379999999999844	-0.096016956212542	0.01162178380454208	1.174735433369665	-3
9.389999999999844	-0.09584206060204721	0.0233502499935733	1.170482452749654	-3
9.399999999999844	-0.09555014046665365	0.03502194566102462	1.163383598052308	-3
9.409999999999844	-0.09514190554995587	0.04660849150087566	1.153455891118986	-3
9.419999999999844	-0.0946183484241917	0.05808171240443307	1.140723142156601	-3
9.429999999999843	-0.09398074210965444	0.06941370509667268	1.125215897796855	-3
9.439999999999843	-0.0932306370205864	0.0805769051788638	1.106971374297337	-3
9.449999999999843	-0.09236985724423336	0.09154415342902682	1.08603337591258	-3
9.459999999999843	-0.09140049616122277	0.1022887612121103	1.06245219847467	-3
9.469999999999843	-0.09032491141690689	0.1127845748522406	1.036284518237484	-3
9.479999999999842	-0.089145719254786	0.1230060388200233	1.007593266056512	-3
9.489999999999842	-0.08786578822459287	0.1329282575887001	0.9764474869976293	-3
9.499999999999842	-0.08648823227907675	0.1425270560140207	0.9429221854935678	-3
9.509999999999842	-0.08501640327496973	0.1517790380940229	0.9070981561961168	-3
9.519999999999841	-0.0834538828950491	0.1606616439665521	0.8690618007053609	-3
9.529999999999841	-0.08180447400962058	0.1691532050043535	0.8289049303944868	-3
9.539999999999841	-0.08007219149713821	0.1772329968699536	0.7867245555896374	-3
9.549999999999841	-0.07826125254503988	0.1848812903953616	0.742622661408722	-3
9.559999999999841	-0.07637606645321224	0.1920794001548979	0.6967059706106282	-3
9.56999999999984	-0.07442122396379619	0.198809730603219	0.6490856938565178	-3
9.57999999999984	-0.07240148614230348	0.2050558196548854	0.599877267837249	-3
9.58999999999984	-0.07032177283622716	0.2108023795866279	0.5492000817749225	-3
9.59999999999984	-0.06818715073849117	0.2160353351488224	0.4971771928613842	-3
9.60999999999984	-0.06600282108419001	0.2207418587785866	0.443935031251634	-3
9.619999999999839	-0.06377410701011353	0.2249104028133646	0.3896030952846736	-3
9.629999999999839	-0.06150644060752888	0.2285307286108607	0.3343136376577219	-3
9.639999999999839	-0.05920534969959537	0.2315939324887001	0.2782013433311418	-3
9.649999999999839	-0.05687644437561527	0.2340924684052146	0.2214029999901761	-3
9.659999999999838	-0.05452540331506676	0.2360201673112441	0.1640571619349337	-3
9.669999999999838	-0.05215795993502266	0.2373722531117648	0.1063038083114361	-3
9.679999999999838	-0.0497798883951238	0.2381453551854771	0.04828399663320767	-3
9.689999999999838	-0.04739698949474672	0.2383375174201371	-0.009860487425532029	-3
9.699999999999838	-0.04501507649737803	0.2379482037313652	-0.06798748295809605	-3
9.709999999999837	-0.04263996091747961	0.2369783000428365	-0.1259548084480462	-3
9.719999999999837	-0.04027743830529829	0.2354301127161054	-0.1836206170457556	-3
9.729999999999837	-0.03793327406513895	0.2333073634287586	-0.240843751450907	-3
9.739999999999837	-0.03561318934258052	0.230615180510085	-0.2974840973522498	-3
9.749999999999837	-0.03332284701597016	0.2273600867539122	-0.3534029343816101	-3
9.759999999999836	-0.0310678378272824	0.2235499837386331	-0.4084632835512014	-3
9.769999999999836	-0.02885366668707863	0.2191941326946725	-0.4625302501613955	-3
9.779999999999836	-0.02668573918784934	0.2143031319696559	-0.5154713611900469	-3
9.789999999999836	-0.02456934835947013	0.2088888911512888	-0.5671568962037419	-3
9.799999999999836	-0.02250966169985484	0.2029646019173856	-0.6174602108655414	-3
9.809999999999835	-0.02051170851314931	0.1965447056915511	-0.6662580521523137	-3
9.819999999999835	-0.01858036758698021	0.1896448581916786	-0.7134308644370387	-3
9.829999999999835	-0.01672035523936084	0.1822818909666496	-0.7588630856368672	-3
9.839999999999835	-0.0149362137648621	0.1744737700243753	-0.8024434326755571	-3
9.849999999999834	-0.01323230030858939	0.1662395516615871	-0.8440651755585443	-3
9.859999999999834	-0.01161277619536711	0.1575993356125471	-0.8836263994096513	-3
9.869999999999834	-0.01008159674032983	0.1485742156401034	-0.9210302538696117	-3
9.879999999999834	-0.008642501565855124	0.1391862276982595	-0.9561851893076625	-3
9.889999999999834	-0.007299005448455195	0.1294582958006589	-0.9890051793477428	-3
9.899999999999833	-0.006054389717876193	0.1194141757341287	-1.019409929259903	-3
9.909999999999833	-0.004911694229240923	0.1090783967606761	-1.047325069814875	-3
9.919999999999833	-0.003873709927617501	0.09847620145512904	-1.072682336245008	-3
9.929999999999833	-0.002942972022907419	0.08763348382896077	-1.095419731997666	-3
9.939999999999833	-0.00212175379142606	0.07657672589377428	-1.115481677007416	-3
9.949999999999832	-0.001412061019000946	0.06533293282046979	-1.132819140250881	-3
9.959999999999832	-0.0008156270988415032	0.05392956685230319	-1.147389756382894	-3
9.969999999999832	-0.0003339087958425588	0.04239448013189474	-1.159157926284586	-3
9.979999999999832	3.191731262478068e-05	0.03075584660379194	-1.168094901383461	-3
9.989999999999831	0.0002809577110038139	0.01904209315545299	-1.174178851632526	-3
9.999999999999831	0.0004126041281273038	0.007281830160520371	-1.177394917060439	-3
10.00999999999983	0.0004265350229224403	-0.004496218410982218	-1.177735242827685	-3
